<?xml version="1.0" encoding="UTF-8" standalone="yes"?>
<gpx
 xmlns="http://www.topografix.com/GPX/1/1"
 creator="OziExplorer Version 3955k - http://www.oziexplorer.com"
 version="1.1"
 xmlns:xsi="http://www.w3.org/2001/XMLSchema-instance"
 xsi:schemaLocation="http://www.topografix.com/GPX/1/1 http://www.topografix.com/GPX/1/1/gpx.xsd">
<metadata>
 <time>2014-03-20T14:30:59Z</time>
 <bounds minlat="44.764040" minlon="9.148060" maxlat="44.790030" maxlon="9.184490"/>
</metadata>
<wpt lat="44.7825138" lon="9.1493631">
 <ele>473.871368</ele>
 <time>2010-08-25T11:45:22.091Z</time>
 <name>FABBRICA C.NE</name>
 <sym>Flag, Blue</sym>
</wpt>
<wpt lat="44.7896027" lon="9.1663953">
 <ele>643.267212</ele>
 <time>2010-08-25T11:46:14.012Z</time>
 <name>PARETO</name>
 <sym>City (Small)</sym>
</wpt>
<wpt lat="44.7756660" lon="9.1835731">
 <ele>672.000000</ele>
 <time>2010-08-25T11:47:18.049Z</time>
 <name>CELLA DI VARZI</name>
 <sym>City (Small)</sym>
</wpt>
<wpt lat="44.7747448" lon="9.1829068">
 <ele>686.000000</ele>
 <time>2010-08-25T11:48:14.071Z</time>
 <name>TEMPIO FRATERNITA'</name>
 <sym>City (Small)</sym>
</wpt>
<wpt lat="44.7646447" lon="9.1736738">
 <ele>768.208740</ele>
 <time>2010-08-25T11:48:44.093Z</time>
 <name>SELVAPIANA</name>
 <sym>Flag, Red</sym>
</wpt>
<trk>
<name>SENTIERO 104</name>
 <desc>SENTIERO 104</desc>
<trkseg>
<trkpt lat="44.7841400" lon="9.1480600">
<ele>531.754089</ele>
<time>2007-02-13T09:00:02.098Z</time>
</trkpt>
<trkpt lat="44.7840300" lon="9.1481200">
<ele>534.161987</ele>
<time>2007-02-13T09:00:05.096Z</time>
</trkpt>
<trkpt lat="44.7839400" lon="9.1481600">
<ele>534.161987</ele>
<time>2007-02-13T09:00:08.001Z</time>
</trkpt>
<trkpt lat="44.7838500" lon="9.1482100">
<ele>534.619202</ele>
<time>2007-02-13T09:00:09.096Z</time>
</trkpt>
<trkpt lat="44.7837500" lon="9.1482500">
<ele>535.106873</ele>
<time>2007-02-13T09:00:12.001Z</time>
</trkpt>
<trkpt lat="44.7836600" lon="9.1483100">
<ele>535.594543</ele>
<time>2007-02-13T09:00:13.097Z</time>
</trkpt>
<trkpt lat="44.7835200" lon="9.1483800">
<ele>536.082275</ele>
<time>2007-02-13T09:00:17.004Z</time>
</trkpt>
<trkpt lat="44.7834300" lon="9.1484300">
<ele>535.106873</ele>
<time>2007-02-13T09:00:18.099Z</time>
</trkpt>
<trkpt lat="44.7833100" lon="9.1485100">
<ele>536.082275</ele>
<time>2007-02-13T09:00:21.097Z</time>
</trkpt>
<trkpt lat="44.7832200" lon="9.1485700">
<ele>536.539429</ele>
<time>2007-02-13T09:00:24.002Z</time>
</trkpt>
<trkpt lat="44.7831000" lon="9.1487100">
<ele>537.514771</ele>
<time>2007-02-13T09:00:27.000Z</time>
</trkpt>
<trkpt lat="44.7830100" lon="9.1488100">
<ele>537.027100</ele>
<time>2007-02-13T09:00:28.096Z</time>
</trkpt>
<trkpt lat="44.7829300" lon="9.1489100">
<ele>537.514771</ele>
<time>2007-02-13T09:00:31.000Z</time>
</trkpt>
<trkpt lat="44.7828600" lon="9.1490200">
<ele>537.027100</ele>
<time>2007-02-13T09:00:32.096Z</time>
</trkpt>
<trkpt lat="44.7827800" lon="9.1491200">
<ele>537.514771</ele>
<time>2007-02-13T09:00:35.001Z</time>
</trkpt>
<trkpt lat="44.7827000" lon="9.1492100">
<ele>538.002502</ele>
<time>2007-02-13T09:00:36.096Z</time>
</trkpt>
<trkpt lat="44.7826300" lon="9.1492900">
<ele>538.002502</ele>
<time>2007-02-13T09:00:39.001Z</time>
</trkpt>
<trkpt lat="44.7825700" lon="9.1494000">
<ele>538.002502</ele>
<time>2007-02-13T09:00:41.099Z</time>
</trkpt>
<trkpt lat="44.7826000" lon="9.1495300">
<ele>538.490173</ele>
<time>2007-02-13T09:00:45.099Z</time>
</trkpt>
<trkpt lat="44.7826700" lon="9.1496300">
<ele>539.922729</ele>
<time>2007-02-13T09:00:51.002Z</time>
</trkpt>
<trkpt lat="44.7827500" lon="9.1497400">
<ele>540.867615</ele>
<time>2007-02-13T09:00:55.002Z</time>
</trkpt>
<trkpt lat="44.7828200" lon="9.1498200">
<ele>542.330627</ele>
<time>2007-02-13T09:00:58.000Z</time>
</trkpt>
<trkpt lat="44.7828500" lon="9.1499200">
<ele>543.763184</ele>
<time>2007-02-13T09:01:00.098Z</time>
</trkpt>
<trkpt lat="44.7827900" lon="9.1500800">
<ele>546.658813</ele>
<time>2007-02-13T09:01:04.099Z</time>
</trkpt>
<trkpt lat="44.7827100" lon="9.1502000">
<ele>548.091370</ele>
<time>2007-02-13T09:01:08.099Z</time>
</trkpt>
<trkpt lat="44.7826200" lon="9.1503100">
<ele>549.523926</ele>
<time>2007-02-13T09:01:12.099Z</time>
</trkpt>
<trkpt lat="44.7825700" lon="9.1504300">
<ele>550.499268</ele>
<time>2007-02-13T09:01:15.097Z</time>
</trkpt>
<trkpt lat="44.7825100" lon="9.1505500">
<ele>551.444153</ele>
<time>2007-02-13T09:01:19.004Z</time>
</trkpt>
<trkpt lat="44.7824500" lon="9.1506500">
<ele>552.907227</ele>
<time>2007-02-13T09:01:22.002Z</time>
</trkpt>
<trkpt lat="44.7823500" lon="9.1507800">
<ele>553.852051</ele>
<time>2007-02-13T09:01:26.003Z</time>
</trkpt>
<trkpt lat="44.7822700" lon="9.1508800">
<ele>555.772339</ele>
<time>2007-02-13T09:01:29.001Z</time>
</trkpt>
<trkpt lat="44.7822100" lon="9.1509800">
<ele>556.747681</ele>
<time>2007-02-13T09:01:31.099Z</time>
</trkpt>
<trkpt lat="44.7821400" lon="9.1511500">
<ele>558.180237</ele>
<time>2007-02-13T09:01:35.099Z</time>
</trkpt>
<trkpt lat="44.7821100" lon="9.1512700">
<ele>559.155579</ele>
<time>2007-02-13T09:01:38.097Z</time>
</trkpt>
<trkpt lat="44.7821000" lon="9.1514100">
<ele>561.533081</ele>
<time>2007-02-13T09:01:42.097Z</time>
</trkpt>
<trkpt lat="44.7820900" lon="9.1515100">
<ele>560.100464</ele>
<time>2007-02-13T09:02:16.002Z</time>
</trkpt>
<trkpt lat="44.7821300" lon="9.1514800">
<ele>558.180237</ele>
<time>2007-02-13T09:03:07.098Z</time>
</trkpt>
<trkpt lat="44.7821900" lon="9.1513800">
<ele>560.588135</ele>
<time>2007-02-13T09:03:13.000Z</time>
</trkpt>
<trkpt lat="44.7822400" lon="9.1512800">
<ele>562.508423</ele>
<time>2007-02-13T09:03:18.003Z</time>
</trkpt>
<trkpt lat="44.7823100" lon="9.1511700">
<ele>562.508423</ele>
<time>2007-02-13T09:03:22.097Z</time>
</trkpt>
<trkpt lat="44.7823900" lon="9.1510900">
<ele>566.348877</ele>
<time>2007-02-13T09:03:27.099Z</time>
</trkpt>
<trkpt lat="44.7824800" lon="9.1510200">
<ele>567.324280</ele>
<time>2007-02-13T09:03:34.098Z</time>
</trkpt>
<trkpt lat="44.7825800" lon="9.1509600">
<ele>568.269104</ele>
<time>2007-02-13T09:03:41.003Z</time>
</trkpt>
<trkpt lat="44.7826800" lon="9.1509000">
<ele>571.652405</ele>
<time>2007-02-13T09:03:48.001Z</time>
</trkpt>
<trkpt lat="44.7828000" lon="9.1508700">
<ele>575.980530</ele>
<time>2007-02-13T09:03:53.097Z</time>
</trkpt>
<trkpt lat="44.7829300" lon="9.1508800">
<ele>578.357971</ele>
<time>2007-02-13T09:04:00.002Z</time>
</trkpt>
<trkpt lat="44.7830500" lon="9.1508700">
<ele>579.821045</ele>
<time>2007-02-13T09:04:05.098Z</time>
</trkpt>
<trkpt lat="44.7831800" lon="9.1508500">
<ele>582.228943</ele>
<time>2007-02-13T09:04:15.001Z</time>
</trkpt>
<trkpt lat="44.7832900" lon="9.1508900">
<ele>582.686157</ele>
<time>2007-02-13T09:04:21.099Z</time>
</trkpt>
<trkpt lat="44.7834000" lon="9.1509700">
<ele>584.149170</ele>
<time>2007-02-13T09:04:28.004Z</time>
</trkpt>
<trkpt lat="44.7835300" lon="9.1510300">
<ele>585.581726</ele>
<time>2007-02-13T09:04:32.098Z</time>
</trkpt>
<trkpt lat="44.7836300" lon="9.1511100">
<ele>587.502014</ele>
<time>2007-02-13T09:04:38.001Z</time>
</trkpt>
<trkpt lat="44.7837200" lon="9.1511900">
<ele>588.477356</ele>
<time>2007-02-13T09:04:43.097Z</time>
</trkpt>
<trkpt lat="44.7838400" lon="9.1512200">
<ele>590.854797</ele>
<time>2007-02-13T09:04:51.004Z</time>
</trkpt>
<trkpt lat="44.7839400" lon="9.1512300">
<ele>591.830139</ele>
<time>2007-02-13T09:04:55.098Z</time>
</trkpt>
<trkpt lat="44.7840500" lon="9.1511700">
<ele>593.262756</ele>
<time>2007-02-13T09:05:02.003Z</time>
</trkpt>
<trkpt lat="44.7841500" lon="9.1511300">
<ele>595.182922</ele>
<time>2007-02-13T09:05:07.099Z</time>
</trkpt>
<trkpt lat="44.7842300" lon="9.1512200">
<ele>597.103210</ele>
<time>2007-02-13T09:05:13.001Z</time>
</trkpt>
<trkpt lat="44.7843000" lon="9.1513200">
<ele>598.566284</ele>
<time>2007-02-13T09:05:18.004Z</time>
</trkpt>
<trkpt lat="44.7843800" lon="9.1514200">
<ele>600.486450</ele>
<time>2007-02-13T09:05:22.098Z</time>
</trkpt>
<trkpt lat="44.7844400" lon="9.1515400">
<ele>602.406738</ele>
<time>2007-02-13T09:05:28.000Z</time>
</trkpt>
<trkpt lat="44.7844900" lon="9.1516500">
<ele>602.894409</ele>
<time>2007-02-13T09:05:33.003Z</time>
</trkpt>
<trkpt lat="44.7845600" lon="9.1517700">
<ele>603.351624</ele>
<time>2007-02-13T09:05:37.097Z</time>
</trkpt>
<trkpt lat="44.7846400" lon="9.1518800">
<ele>603.839294</ele>
<time>2007-02-13T09:05:42.099Z</time>
</trkpt>
<trkpt lat="44.7846800" lon="9.1520100">
<ele>605.759521</ele>
<time>2007-02-13T09:05:49.004Z</time>
</trkpt>
<trkpt lat="44.7847100" lon="9.1521500">
<ele>608.167480</ele>
<time>2007-02-13T09:05:53.098Z</time>
</trkpt>
<trkpt lat="44.7846700" lon="9.1522900">
<ele>609.599976</ele>
<time>2007-02-13T09:05:59.001Z</time>
</trkpt>
<trkpt lat="44.7846700" lon="9.1524100">
<ele>611.550720</ele>
<time>2007-02-13T09:06:04.097Z</time>
</trkpt>
<trkpt lat="44.7847000" lon="9.1525800">
<ele>612.983276</ele>
<time>2007-02-13T09:06:11.002Z</time>
</trkpt>
<trkpt lat="44.7847300" lon="9.1527200">
<ele>614.415833</ele>
<time>2007-02-13T09:06:15.002Z</time>
</trkpt>
<trkpt lat="44.7847600" lon="9.1528500">
<ele>615.391174</ele>
<time>2007-02-13T09:06:19.002Z</time>
</trkpt>
<trkpt lat="44.7848000" lon="9.1529600">
<ele>616.823730</ele>
<time>2007-02-13T09:06:23.003Z</time>
</trkpt>
<trkpt lat="44.7848500" lon="9.1530800">
<ele>618.256348</ele>
<time>2007-02-13T09:06:27.003Z</time>
</trkpt>
<trkpt lat="44.7849100" lon="9.1531900">
<ele>619.719360</ele>
<time>2007-02-13T09:06:31.003Z</time>
</trkpt>
<trkpt lat="44.7849500" lon="9.1533000">
<ele>620.664246</ele>
<time>2007-02-13T09:06:35.004Z</time>
</trkpt>
<trkpt lat="44.7849900" lon="9.1534300">
<ele>621.639587</ele>
<time>2007-02-13T09:06:39.097Z</time>
</trkpt>
<trkpt lat="44.7848300" lon="9.1535100">
<ele>614.415833</ele>
<time>2007-02-13T09:10:37.001Z</time>
</trkpt>
<trkpt lat="44.7848800" lon="9.1536800">
<ele>616.823730</ele>
<time>2007-02-13T09:10:44.000Z</time>
</trkpt>
<trkpt lat="44.7849400" lon="9.1538200">
<ele>618.744019</ele>
<time>2007-02-13T09:10:48.000Z</time>
</trkpt>
<trkpt lat="44.7849900" lon="9.1539600">
<ele>620.176575</ele>
<time>2007-02-13T09:10:52.000Z</time>
</trkpt>
<trkpt lat="44.7849800" lon="9.1540900">
<ele>621.151917</ele>
<time>2007-02-13T09:10:54.098Z</time>
</trkpt>
<trkpt lat="44.7849800" lon="9.1542500">
<ele>622.096802</ele>
<time>2007-02-13T09:10:58.099Z</time>
</trkpt>
<trkpt lat="44.7849800" lon="9.1544100">
<ele>623.559875</ele>
<time>2007-02-13T09:11:02.099Z</time>
</trkpt>
<trkpt lat="44.7849600" lon="9.1545800">
<ele>624.047546</ele>
<time>2007-02-13T09:11:06.099Z</time>
</trkpt>
<trkpt lat="44.7849300" lon="9.1547500">
<ele>625.480103</ele>
<time>2007-02-13T09:11:11.000Z</time>
</trkpt>
<trkpt lat="44.7849200" lon="9.1548700">
<ele>626.424927</ele>
<time>2007-02-13T09:11:13.098Z</time>
</trkpt>
<trkpt lat="44.7849400" lon="9.1550200">
<ele>627.400269</ele>
<time>2007-02-13T09:11:17.098Z</time>
</trkpt>
<trkpt lat="44.7849800" lon="9.1551600">
<ele>627.888000</ele>
<time>2007-02-13T09:11:21.098Z</time>
</trkpt>
<trkpt lat="44.7850500" lon="9.1552900">
<ele>627.888000</ele>
<time>2007-02-13T09:11:25.099Z</time>
</trkpt>
<trkpt lat="44.7851100" lon="9.1554200">
<ele>629.320557</ele>
<time>2007-02-13T09:11:29.099Z</time>
</trkpt>
<trkpt lat="44.7851200" lon="9.1555600">
<ele>631.728516</ele>
<time>2007-02-13T09:11:33.099Z</time>
</trkpt>
<trkpt lat="44.7851200" lon="9.1557000">
<ele>633.161072</ele>
<time>2007-02-13T09:11:38.000Z</time>
</trkpt>
<trkpt lat="44.7851400" lon="9.1558400">
<ele>634.136414</ele>
<time>2007-02-13T09:11:42.000Z</time>
</trkpt>
<trkpt lat="44.7851900" lon="9.1559700">
<ele>635.081299</ele>
<time>2007-02-13T09:11:46.000Z</time>
</trkpt>
<trkpt lat="44.7853000" lon="9.1560700">
<ele>636.544312</ele>
<time>2007-02-13T09:11:50.001Z</time>
</trkpt>
<trkpt lat="44.7854000" lon="9.1561300">
<ele>636.544312</ele>
<time>2007-02-13T09:11:54.001Z</time>
</trkpt>
<trkpt lat="44.7855100" lon="9.1561900">
<ele>637.976929</ele>
<time>2007-02-13T09:11:59.004Z</time>
</trkpt>
<trkpt lat="44.7855700" lon="9.1563000">
<ele>638.921753</ele>
<time>2007-02-13T09:12:03.097Z</time>
</trkpt>
<trkpt lat="44.7856400" lon="9.1564200">
<ele>639.409485</ele>
<time>2007-02-13T09:12:09.000Z</time>
</trkpt>
<trkpt lat="44.7856800" lon="9.1565600">
<ele>640.384827</ele>
<time>2007-02-13T09:12:14.003Z</time>
</trkpt>
<trkpt lat="44.7857100" lon="9.1566800">
<ele>639.897095</ele>
<time>2007-02-13T09:12:19.099Z</time>
</trkpt>
<trkpt lat="44.7857400" lon="9.1568200">
<ele>638.921753</ele>
<time>2007-02-13T09:12:25.001Z</time>
</trkpt>
<trkpt lat="44.7857600" lon="9.1569400">
<ele>639.409485</ele>
<time>2007-02-13T09:12:29.002Z</time>
</trkpt>
<trkpt lat="44.7858000" lon="9.1570900">
<ele>640.841980</ele>
<time>2007-02-13T09:12:34.004Z</time>
</trkpt>
<trkpt lat="44.7858100" lon="9.1572300">
<ele>642.305054</ele>
<time>2007-02-13T09:12:37.096Z</time>
</trkpt>
<trkpt lat="44.7858500" lon="9.1573600">
<ele>642.305054</ele>
<time>2007-02-13T09:12:41.096Z</time>
</trkpt>
<trkpt lat="44.7859300" lon="9.1574700">
<ele>642.792664</ele>
<time>2007-02-13T09:12:45.096Z</time>
</trkpt>
<trkpt lat="44.7859900" lon="9.1575900">
<ele>643.249878</ele>
<time>2007-02-13T09:12:49.097Z</time>
</trkpt>
<trkpt lat="44.7859900" lon="9.1577400">
<ele>644.225281</ele>
<time>2007-02-13T09:12:53.097Z</time>
</trkpt>
<trkpt lat="44.7860500" lon="9.1578600">
<ele>645.657837</ele>
<time>2007-02-13T09:12:57.097Z</time>
</trkpt>
<trkpt lat="44.7862000" lon="9.1579100">
<ele>647.090393</ele>
<time>2007-02-13T09:13:03.000Z</time>
</trkpt>
<trkpt lat="44.7863300" lon="9.1579200">
<ele>648.065735</ele>
<time>2007-02-13T09:13:08.003Z</time>
</trkpt>
<trkpt lat="44.7863300" lon="9.1580500">
<ele>649.041077</ele>
<time>2007-02-13T09:13:12.096Z</time>
</trkpt>
<trkpt lat="44.7863500" lon="9.1581700">
<ele>650.961365</ele>
<time>2007-02-13T09:13:16.097Z</time>
</trkpt>
<trkpt lat="44.7864000" lon="9.1583000">
<ele>651.418518</ele>
<time>2007-02-13T09:13:20.097Z</time>
</trkpt>
<trkpt lat="44.7864800" lon="9.1584000">
<ele>651.906250</ele>
<time>2007-02-13T09:13:24.097Z</time>
</trkpt>
<trkpt lat="44.7865600" lon="9.1585100">
<ele>653.338806</ele>
<time>2007-02-13T09:13:28.098Z</time>
</trkpt>
<trkpt lat="44.7866100" lon="9.1586600">
<ele>654.801880</ele>
<time>2007-02-13T09:13:32.098Z</time>
</trkpt>
<trkpt lat="44.7866400" lon="9.1587800">
<ele>655.289490</ele>
<time>2007-02-13T09:13:35.096Z</time>
</trkpt>
<trkpt lat="44.7866900" lon="9.1589200">
<ele>656.722107</ele>
<time>2007-02-13T09:13:39.096Z</time>
</trkpt>
<trkpt lat="44.7867100" lon="9.1590700">
<ele>657.209717</ele>
<time>2007-02-13T09:13:43.097Z</time>
</trkpt>
<trkpt lat="44.7867100" lon="9.1592100">
<ele>657.666931</ele>
<time>2007-02-13T09:13:47.097Z</time>
</trkpt>
<trkpt lat="44.7867400" lon="9.1593500">
<ele>658.642273</ele>
<time>2007-02-13T09:13:51.097Z</time>
</trkpt>
<trkpt lat="44.7867700" lon="9.1595000">
<ele>659.130005</ele>
<time>2007-02-13T09:13:55.098Z</time>
</trkpt>
<trkpt lat="44.7868100" lon="9.1596400">
<ele>659.587219</ele>
<time>2007-02-13T09:13:59.098Z</time>
</trkpt>
<trkpt lat="44.7868400" lon="9.1597600">
<ele>660.074890</ele>
<time>2007-02-13T09:14:02.096Z</time>
</trkpt>
<trkpt lat="44.7868700" lon="9.1599200">
<ele>661.537903</ele>
<time>2007-02-13T09:14:06.096Z</time>
</trkpt>
<trkpt lat="44.7868900" lon="9.1600700">
<ele>662.482788</ele>
<time>2007-02-13T09:14:10.097Z</time>
</trkpt>
<trkpt lat="44.7869500" lon="9.1601700">
<ele>661.995117</ele>
<time>2007-02-13T09:14:14.097Z</time>
</trkpt>
<trkpt lat="44.7870300" lon="9.1602700">
<ele>663.458130</ele>
<time>2007-02-13T09:14:18.097Z</time>
</trkpt>
<trkpt lat="44.7871100" lon="9.1603800">
<ele>664.890686</ele>
<time>2007-02-13T09:14:22.098Z</time>
</trkpt>
<trkpt lat="44.7871600" lon="9.1605200">
<ele>665.378418</ele>
<time>2007-02-13T09:14:26.098Z</time>
</trkpt>
<trkpt lat="44.7871900" lon="9.1606700">
<ele>664.890686</ele>
<time>2007-02-13T09:14:30.098Z</time>
</trkpt>
<trkpt lat="44.7872200" lon="9.1608200">
<ele>664.403076</ele>
<time>2007-02-13T09:14:34.099Z</time>
</trkpt>
<trkpt lat="44.7872400" lon="9.1609500">
<ele>664.403076</ele>
<time>2007-02-13T09:14:38.099Z</time>
</trkpt>
<trkpt lat="44.7872700" lon="9.1610800">
<ele>664.890686</ele>
<time>2007-02-13T09:14:42.099Z</time>
</trkpt>
<trkpt lat="44.7873300" lon="9.1612200">
<ele>664.890686</ele>
<time>2007-02-13T09:14:48.002Z</time>
</trkpt>
<trkpt lat="44.7873800" lon="9.1613100">
<ele>666.323303</ele>
<time>2007-02-13T09:14:55.000Z</time>
</trkpt>
<trkpt lat="44.7873800" lon="9.1613000">
<ele>666.810974</ele>
<time>2007-02-13T09:15:08.097Z</time>
</trkpt>
<trkpt lat="44.7874400" lon="9.1614300">
<ele>668.243469</ele>
<time>2007-02-13T09:15:14.000Z</time>
</trkpt>
<trkpt lat="44.7874600" lon="9.1615700">
<ele>668.731201</ele>
<time>2007-02-13T09:15:18.000Z</time>
</trkpt>
<trkpt lat="44.7874700" lon="9.1617000">
<ele>670.163757</ele>
<time>2007-02-13T09:15:20.098Z</time>
</trkpt>
<trkpt lat="44.7874700" lon="9.1618700">
<ele>671.139099</ele>
<time>2007-02-13T09:15:24.098Z</time>
</trkpt>
<trkpt lat="44.7874600" lon="9.1620000">
<ele>671.626770</ele>
<time>2007-02-13T09:15:27.096Z</time>
</trkpt>
<trkpt lat="44.7874300" lon="9.1621100">
<ele>671.626770</ele>
<time>2007-02-13T09:15:31.003Z</time>
</trkpt>
<trkpt lat="44.7874200" lon="9.1622800">
<ele>672.083984</ele>
<time>2007-02-13T09:15:35.004Z</time>
</trkpt>
<trkpt lat="44.7874400" lon="9.1624400">
<ele>671.139099</ele>
<time>2007-02-13T09:15:39.004Z</time>
</trkpt>
<trkpt lat="44.7874400" lon="9.1625700">
<ele>671.626770</ele>
<time>2007-02-13T09:15:42.002Z</time>
</trkpt>
<trkpt lat="44.7874600" lon="9.1627000">
<ele>670.651428</ele>
<time>2007-02-13T09:15:45.000Z</time>
</trkpt>
<trkpt lat="44.7874800" lon="9.1628800">
<ele>670.163757</ele>
<time>2007-02-13T09:15:49.000Z</time>
</trkpt>
<trkpt lat="44.7875000" lon="9.1630500">
<ele>670.163757</ele>
<time>2007-02-13T09:15:53.001Z</time>
</trkpt>
<trkpt lat="44.7875200" lon="9.1632200">
<ele>670.651428</ele>
<time>2007-02-13T09:15:57.001Z</time>
</trkpt>
<trkpt lat="44.7875500" lon="9.1633500">
<ele>670.651428</ele>
<time>2007-02-13T09:15:59.099Z</time>
</trkpt>
<trkpt lat="44.7875800" lon="9.1634800">
<ele>671.139099</ele>
<time>2007-02-13T09:16:02.097Z</time>
</trkpt>
<trkpt lat="44.7875700" lon="9.1634500">
<ele>671.139099</ele>
<time>2007-02-13T09:16:09.002Z</time>
</trkpt>
<trkpt lat="44.7875600" lon="9.1633800">
<ele>670.163757</ele>
<time>2007-02-13T09:17:08.098Z</time>
</trkpt>
<trkpt lat="44.7875800" lon="9.1634700">
<ele>668.731201</ele>
<time>2007-02-13T09:18:21.004Z</time>
</trkpt>
<trkpt lat="44.7876100" lon="9.1636000">
<ele>670.163757</ele>
<time>2007-02-13T09:18:24.002Z</time>
</trkpt>
<trkpt lat="44.7876400" lon="9.1637400">
<ele>670.651428</ele>
<time>2007-02-13T09:18:27.000Z</time>
</trkpt>
<trkpt lat="44.7876600" lon="9.1639300">
<ele>671.139099</ele>
<time>2007-02-13T09:18:31.000Z</time>
</trkpt>
<trkpt lat="44.7876700" lon="9.1640600">
<ele>671.139099</ele>
<time>2007-02-13T09:18:33.098Z</time>
</trkpt>
<trkpt lat="44.7876900" lon="9.1642000">
<ele>671.626770</ele>
<time>2007-02-13T09:18:36.096Z</time>
</trkpt>
<trkpt lat="44.7877300" lon="9.1643200">
<ele>671.626770</ele>
<time>2007-02-13T09:18:40.003Z</time>
</trkpt>
<trkpt lat="44.7878100" lon="9.1644500">
<ele>671.626770</ele>
<time>2007-02-13T09:18:43.001Z</time>
</trkpt>
<trkpt lat="44.7878800" lon="9.1645500">
<ele>672.571716</ele>
<time>2007-02-13T09:18:45.099Z</time>
</trkpt>
<trkpt lat="44.7879700" lon="9.1646500">
<ele>673.059326</ele>
<time>2007-02-13T09:18:48.097Z</time>
</trkpt>
<trkpt lat="44.7880400" lon="9.1647600">
<ele>673.059326</ele>
<time>2007-02-13T09:18:52.004Z</time>
</trkpt>
<trkpt lat="44.7881100" lon="9.1648700">
<ele>673.059326</ele>
<time>2007-02-13T09:18:55.002Z</time>
</trkpt>
<trkpt lat="44.7881900" lon="9.1649500">
<ele>673.059326</ele>
<time>2007-02-13T09:18:58.000Z</time>
</trkpt>
<trkpt lat="44.7882700" lon="9.1650000">
<ele>673.547058</ele>
<time>2007-02-13T09:19:00.098Z</time>
</trkpt>
<trkpt lat="44.7883600" lon="9.1650400">
<ele>673.547058</ele>
<time>2007-02-13T09:19:03.096Z</time>
</trkpt>
<trkpt lat="44.7884800" lon="9.1650800">
<ele>674.034668</ele>
<time>2007-02-13T09:19:07.097Z</time>
</trkpt>
<trkpt lat="44.7885800" lon="9.1651700">
<ele>674.034668</ele>
<time>2007-02-13T09:19:11.097Z</time>
</trkpt>
<trkpt lat="44.7886100" lon="9.1652800">
<ele>674.979614</ele>
<time>2007-02-13T09:19:15.004Z</time>
</trkpt>
<trkpt lat="44.7885800" lon="9.1654200">
<ele>674.979614</ele>
<time>2007-02-13T09:19:19.004Z</time>
</trkpt>
<trkpt lat="44.7885300" lon="9.1655600">
<ele>674.491882</ele>
<time>2007-02-13T09:19:22.096Z</time>
</trkpt>
<trkpt lat="44.7885500" lon="9.1656700">
<ele>674.491882</ele>
<time>2007-02-13T09:19:26.003Z</time>
</trkpt>
<trkpt lat="44.7885900" lon="9.1657800">
<ele>674.979614</ele>
<time>2007-02-13T09:19:29.001Z</time>
</trkpt>
<trkpt lat="44.7886500" lon="9.1658700">
<ele>674.979614</ele>
<time>2007-02-13T09:19:31.099Z</time>
</trkpt>
<trkpt lat="44.7887300" lon="9.1659900">
<ele>674.979614</ele>
<time>2007-02-13T09:19:35.099Z</time>
</trkpt>
<trkpt lat="44.7888200" lon="9.1660700">
<ele>674.491882</ele>
<time>2007-02-13T09:19:39.099Z</time>
</trkpt>
<trkpt lat="44.7889200" lon="9.1660800">
<ele>674.979614</ele>
<time>2007-02-13T09:19:44.000Z</time>
</trkpt>
<trkpt lat="44.7890100" lon="9.1660700">
<ele>674.491882</ele>
<time>2007-02-13T09:19:48.000Z</time>
</trkpt>
<trkpt lat="44.7891000" lon="9.1660800">
<ele>673.547058</ele>
<time>2007-02-13T09:20:43.096Z</time>
</trkpt>
<trkpt lat="44.7891900" lon="9.1660300">
<ele>667.298645</ele>
<time>2007-02-13T09:25:49.099Z</time>
</trkpt>
<trkpt lat="44.7892000" lon="9.1661000">
<ele>660.074890</ele>
<time>2007-02-13T09:34:30.099Z</time>
</trkpt>
<trkpt lat="44.7892700" lon="9.1661700">
<ele>661.537903</ele>
<time>2007-02-13T09:34:39.000Z</time>
</trkpt>
<trkpt lat="44.7893300" lon="9.1662900">
<ele>662.482788</ele>
<time>2007-02-13T09:34:48.003Z</time>
</trkpt>
<trkpt lat="44.7893800" lon="9.1664100">
<ele>664.403076</ele>
<time>2007-02-13T09:34:56.097Z</time>
</trkpt>
<trkpt lat="44.7894100" lon="9.1665300">
<ele>666.323303</ele>
<time>2007-02-13T09:35:06.000Z</time>
</trkpt>
<trkpt lat="44.7894400" lon="9.1666600">
<ele>667.298645</ele>
<time>2007-02-13T09:35:15.003Z</time>
</trkpt>
<trkpt lat="44.7894700" lon="9.1667900">
<ele>668.243469</ele>
<time>2007-02-13T09:35:23.004Z</time>
</trkpt>
<trkpt lat="44.7895000" lon="9.1669100">
<ele>669.218933</ele>
<time>2007-02-13T09:35:31.004Z</time>
</trkpt>
<trkpt lat="44.7894900" lon="9.1670400">
<ele>669.218933</ele>
<time>2007-02-13T09:35:54.004Z</time>
</trkpt>
<trkpt lat="44.7894700" lon="9.1671800">
<ele>669.706543</ele>
<time>2007-02-13T09:36:04.000Z</time>
</trkpt>
<trkpt lat="44.7894400" lon="9.1673000">
<ele>669.706543</ele>
<time>2007-02-13T09:36:13.097Z</time>
</trkpt>
<trkpt lat="44.7893800" lon="9.1673900">
<ele>670.163757</ele>
<time>2007-02-13T09:36:25.098Z</time>
</trkpt>
<trkpt lat="44.7893100" lon="9.1674800">
<ele>672.571716</ele>
<time>2007-02-13T09:36:40.003Z</time>
</trkpt>
<trkpt lat="44.7892800" lon="9.1676000">
<ele>672.571716</ele>
<time>2007-02-13T09:36:52.098Z</time>
</trkpt>
<trkpt lat="44.7893000" lon="9.1677300">
<ele>672.083984</ele>
<time>2007-02-13T09:37:03.096Z</time>
</trkpt>
<trkpt lat="44.7893400" lon="9.1678600">
<ele>671.626770</ele>
<time>2007-02-13T09:37:14.002Z</time>
</trkpt>
<trkpt lat="44.7894000" lon="9.1679600">
<ele>671.626770</ele>
<time>2007-02-13T09:37:22.096Z</time>
</trkpt>
<trkpt lat="44.7894400" lon="9.1680900">
<ele>670.651428</ele>
<time>2007-02-13T09:37:33.001Z</time>
</trkpt>
<trkpt lat="44.7894700" lon="9.1682100">
<ele>670.651428</ele>
<time>2007-02-13T09:37:42.097Z</time>
</trkpt>
<trkpt lat="44.7894700" lon="9.1683400">
<ele>669.706543</ele>
<time>2007-02-13T09:37:53.003Z</time>
</trkpt>
<trkpt lat="44.7894600" lon="9.1684700">
<ele>670.163757</ele>
<time>2007-02-13T09:38:01.097Z</time>
</trkpt>
<trkpt lat="44.7894500" lon="9.1686000">
<ele>671.139099</ele>
<time>2007-02-13T09:38:11.000Z</time>
</trkpt>
<trkpt lat="44.7894500" lon="9.1687300">
<ele>671.626770</ele>
<time>2007-02-13T09:38:21.098Z</time>
</trkpt>
<trkpt lat="44.7894700" lon="9.1688500">
<ele>672.571716</ele>
<time>2007-02-13T09:38:32.004Z</time>
</trkpt>
<trkpt lat="44.7894900" lon="9.1689800">
<ele>673.547058</ele>
<time>2007-02-13T09:38:43.096Z</time>
</trkpt>
<trkpt lat="44.7895200" lon="9.1691100">
<ele>674.491882</ele>
<time>2007-02-13T09:38:54.001Z</time>
</trkpt>
<trkpt lat="44.7895800" lon="9.1692100">
<ele>674.979614</ele>
<time>2007-02-13T09:39:02.002Z</time>
</trkpt>
<trkpt lat="44.7896500" lon="9.1692900">
<ele>674.491882</ele>
<time>2007-02-13T09:39:10.096Z</time>
</trkpt>
<trkpt lat="44.7897400" lon="9.1693600">
<ele>674.979614</ele>
<time>2007-02-13T09:39:26.097Z</time>
</trkpt>
<trkpt lat="44.7898100" lon="9.1694300">
<ele>674.979614</ele>
<time>2007-02-13T09:40:31.002Z</time>
</trkpt>
<trkpt lat="44.7898800" lon="9.1695200">
<ele>676.412170</ele>
<time>2007-02-13T09:40:40.099Z</time>
</trkpt>
<trkpt lat="44.7899600" lon="9.1695900">
<ele>677.875183</ele>
<time>2007-02-13T09:40:53.000Z</time>
</trkpt>
<trkpt lat="44.7900300" lon="9.1696700">
<ele>680.283081</ele>
<time>2007-02-13T09:41:05.001Z</time>
</trkpt>
<trkpt lat="44.7900000" lon="9.1697500">
<ele>678.332397</ele>
<time>2007-02-13T09:44:11.096Z</time>
</trkpt>
<trkpt lat="44.7899600" lon="9.1698600">
<ele>681.715698</ele>
<time>2007-02-13T09:44:27.004Z</time>
</trkpt>
<trkpt lat="44.7899100" lon="9.1699600">
<ele>684.611328</ele>
<time>2007-02-13T09:44:41.001Z</time>
</trkpt>
<trkpt lat="44.7898400" lon="9.1700400">
<ele>687.476379</ele>
<time>2007-02-13T09:44:54.097Z</time>
</trkpt>
<trkpt lat="44.7897700" lon="9.1701300">
<ele>687.964111</ele>
<time>2007-02-13T09:45:08.001Z</time>
</trkpt>
<trkpt lat="44.7897100" lon="9.1702400">
<ele>688.908936</ele>
<time>2007-02-13T09:45:21.004Z</time>
</trkpt>
<trkpt lat="44.7896500" lon="9.1703100">
<ele>690.372009</ele>
<time>2007-02-13T09:45:36.003Z</time>
</trkpt>
<trkpt lat="44.7895700" lon="9.1703900">
<ele>691.316895</ele>
<time>2007-02-13T09:46:02.001Z</time>
</trkpt>
<trkpt lat="44.7895000" lon="9.1704500">
<ele>692.292236</ele>
<time>2007-02-13T09:46:11.097Z</time>
</trkpt>
<trkpt lat="44.7894200" lon="9.1705200">
<ele>693.724792</ele>
<time>2007-02-13T09:46:22.096Z</time>
</trkpt>
<trkpt lat="44.7893400" lon="9.1706000">
<ele>695.645081</ele>
<time>2007-02-13T09:46:34.003Z</time>
</trkpt>
<trkpt lat="44.7892600" lon="9.1706600">
<ele>696.132690</ele>
<time>2007-02-13T09:46:44.000Z</time>
</trkpt>
<trkpt lat="44.7891800" lon="9.1707300">
<ele>696.132690</ele>
<time>2007-02-13T09:46:53.096Z</time>
</trkpt>
<trkpt lat="44.7891000" lon="9.1707900">
<ele>697.108093</ele>
<time>2007-02-13T09:47:01.097Z</time>
</trkpt>
<trkpt lat="44.7890100" lon="9.1708400">
<ele>697.565308</ele>
<time>2007-02-13T09:47:11.000Z</time>
</trkpt>
<trkpt lat="44.7889100" lon="9.1708300">
<ele>698.540649</ele>
<time>2007-02-13T09:47:20.003Z</time>
</trkpt>
<trkpt lat="44.7888300" lon="9.1707800">
<ele>699.028320</ele>
<time>2007-02-13T09:47:28.097Z</time>
</trkpt>
<trkpt lat="44.7887500" lon="9.1707000">
<ele>700.460938</ele>
<time>2007-02-13T09:47:39.002Z</time>
</trkpt>
<trkpt lat="44.7886800" lon="9.1706300">
<ele>701.405762</ele>
<time>2007-02-13T09:47:48.098Z</time>
</trkpt>
<trkpt lat="44.7886100" lon="9.1705300">
<ele>703.813721</ele>
<time>2007-02-13T09:47:59.097Z</time>
</trkpt>
<trkpt lat="44.7885400" lon="9.1704600">
<ele>704.789063</ele>
<time>2007-02-13T09:48:13.000Z</time>
</trkpt>
<trkpt lat="44.7885500" lon="9.1704700">
<ele>697.565308</ele>
<time>2007-02-13T10:14:01.097Z</time>
</trkpt>
<trkpt lat="44.7884300" lon="9.1705000">
<ele>697.565308</ele>
<time>2007-02-13T10:14:59.004Z</time>
</trkpt>
<trkpt lat="44.7883200" lon="9.1705100">
<ele>697.108093</ele>
<time>2007-02-13T10:15:07.098Z</time>
</trkpt>
<trkpt lat="44.7882300" lon="9.1705200">
<ele>698.052917</ele>
<time>2007-02-13T10:15:15.098Z</time>
</trkpt>
<trkpt lat="44.7881300" lon="9.1705300">
<ele>698.052917</ele>
<time>2007-02-13T10:15:23.099Z</time>
</trkpt>
<trkpt lat="44.7880400" lon="9.1705700">
<ele>699.028320</ele>
<time>2007-02-13T10:15:33.002Z</time>
</trkpt>
<trkpt lat="44.7879800" lon="9.1706600">
<ele>701.405762</ele>
<time>2007-02-13T10:15:44.001Z</time>
</trkpt>
<trkpt lat="44.7879600" lon="9.1708100">
<ele>700.948547</ele>
<time>2007-02-13T10:15:53.097Z</time>
</trkpt>
<trkpt lat="44.7879300" lon="9.1709400">
<ele>701.893433</ele>
<time>2007-02-13T10:16:03.000Z</time>
</trkpt>
<trkpt lat="44.7879100" lon="9.1710800">
<ele>703.356506</ele>
<time>2007-02-13T10:16:13.099Z</time>
</trkpt>
<trkpt lat="44.7879000" lon="9.1712100">
<ele>703.356506</ele>
<time>2007-02-13T10:16:23.002Z</time>
</trkpt>
<trkpt lat="44.7879000" lon="9.1713500">
<ele>703.813721</ele>
<time>2007-02-13T10:16:31.096Z</time>
</trkpt>
<trkpt lat="44.7879100" lon="9.1714800">
<ele>704.301331</ele>
<time>2007-02-13T10:16:40.099Z</time>
</trkpt>
<trkpt lat="44.7879000" lon="9.1716000">
<ele>705.276672</ele>
<time>2007-02-13T10:16:57.000Z</time>
</trkpt>
<trkpt lat="44.7878500" lon="9.1716700">
<ele>707.654175</ele>
<time>2007-02-13T10:20:33.000Z</time>
</trkpt>
<trkpt lat="44.7877600" lon="9.1717100">
<ele>708.141846</ele>
<time>2007-02-13T10:20:42.096Z</time>
</trkpt>
<trkpt lat="44.7876800" lon="9.1717600">
<ele>709.117188</ele>
<time>2007-02-13T10:20:53.002Z</time>
</trkpt>
<trkpt lat="44.7876000" lon="9.1717900">
<ele>710.549744</ele>
<time>2007-02-13T10:21:04.000Z</time>
</trkpt>
<trkpt lat="44.7875200" lon="9.1718200">
<ele>712.957703</ele>
<time>2007-02-13T10:21:18.099Z</time>
</trkpt>
<trkpt lat="44.7874300" lon="9.1718400">
<ele>713.902527</ele>
<time>2007-02-13T10:21:39.001Z</time>
</trkpt>
<trkpt lat="44.7873500" lon="9.1718800">
<ele>714.877869</ele>
<time>2007-02-13T10:21:55.096Z</time>
</trkpt>
<trkpt lat="44.7872600" lon="9.1719200">
<ele>718.230713</ele>
<time>2007-02-13T10:22:18.002Z</time>
</trkpt>
<trkpt lat="44.7871800" lon="9.1719700">
<ele>721.614014</ele>
<time>2007-02-13T10:22:38.097Z</time>
</trkpt>
<trkpt lat="44.7870900" lon="9.1720400">
<ele>724.479065</ele>
<time>2007-02-13T10:23:05.097Z</time>
</trkpt>
<trkpt lat="44.7870600" lon="9.1721700">
<ele>726.399353</ele>
<time>2007-02-13T10:23:23.001Z</time>
</trkpt>
<trkpt lat="44.7870400" lon="9.1723000">
<ele>728.350098</ele>
<time>2007-02-13T10:23:33.099Z</time>
</trkpt>
<trkpt lat="44.7870300" lon="9.1724300">
<ele>728.807312</ele>
<time>2007-02-13T10:23:47.003Z</time>
</trkpt>
<trkpt lat="44.7870000" lon="9.1725500">
<ele>728.807312</ele>
<time>2007-02-13T10:23:58.001Z</time>
</trkpt>
<trkpt lat="44.7869900" lon="9.1726800">
<ele>729.782654</ele>
<time>2007-02-13T10:24:07.098Z</time>
</trkpt>
<trkpt lat="44.7869600" lon="9.1728000">
<ele>730.727478</ele>
<time>2007-02-13T10:24:18.096Z</time>
</trkpt>
<trkpt lat="44.7869100" lon="9.1729100">
<ele>731.702881</ele>
<time>2007-02-13T10:24:30.004Z</time>
</trkpt>
<trkpt lat="44.7868600" lon="9.1730200">
<ele>733.623108</ele>
<time>2007-02-13T10:24:41.096Z</time>
</trkpt>
<trkpt lat="44.7868100" lon="9.1731300">
<ele>733.623108</ele>
<time>2007-02-13T10:24:56.002Z</time>
</trkpt>
<trkpt lat="44.7867500" lon="9.1732400">
<ele>736.031067</ele>
<time>2007-02-13T10:25:17.099Z</time>
</trkpt>
<trkpt lat="44.7866800" lon="9.1733500">
<ele>737.463623</ele>
<time>2007-02-13T10:25:30.000Z</time>
</trkpt>
<trkpt lat="44.7866100" lon="9.1734400">
<ele>739.383850</ele>
<time>2007-02-13T10:25:40.099Z</time>
</trkpt>
<trkpt lat="44.7865300" lon="9.1735100">
<ele>740.359192</ele>
<time>2007-02-13T10:26:02.003Z</time>
</trkpt>
<trkpt lat="44.7864500" lon="9.1735700">
<ele>739.871460</ele>
<time>2007-02-13T10:26:13.001Z</time>
</trkpt>
<trkpt lat="44.7863700" lon="9.1736600">
<ele>738.438965</ele>
<time>2007-02-13T10:26:24.000Z</time>
</trkpt>
<trkpt lat="44.7862900" lon="9.1737400">
<ele>737.463623</ele>
<time>2007-02-13T10:26:33.003Z</time>
</trkpt>
<trkpt lat="44.7862000" lon="9.1738100">
<ele>737.463623</ele>
<time>2007-02-13T10:26:41.097Z</time>
</trkpt>
<trkpt lat="44.7861200" lon="9.1738500">
<ele>737.463623</ele>
<time>2007-02-13T10:26:51.000Z</time>
</trkpt>
<trkpt lat="44.7860400" lon="9.1739000">
<ele>736.518677</ele>
<time>2007-02-13T10:27:00.096Z</time>
</trkpt>
<trkpt lat="44.7859500" lon="9.1739200">
<ele>735.543335</ele>
<time>2007-02-13T10:27:11.002Z</time>
</trkpt>
<trkpt lat="44.7858600" lon="9.1739200">
<ele>735.543335</ele>
<time>2007-02-13T10:27:20.098Z</time>
</trkpt>
<trkpt lat="44.7857700" lon="9.1739400">
<ele>735.055725</ele>
<time>2007-02-13T10:27:30.001Z</time>
</trkpt>
<trkpt lat="44.7856800" lon="9.1739700">
<ele>734.598511</ele>
<time>2007-02-13T10:27:39.097Z</time>
</trkpt>
<trkpt lat="44.7855900" lon="9.1739900">
<ele>733.623108</ele>
<time>2007-02-13T10:27:49.000Z</time>
</trkpt>
<trkpt lat="44.7854900" lon="9.1739900">
<ele>732.647766</ele>
<time>2007-02-13T10:27:58.003Z</time>
</trkpt>
<trkpt lat="44.7853900" lon="9.1740100">
<ele>732.190552</ele>
<time>2007-02-13T10:28:06.097Z</time>
</trkpt>
<trkpt lat="44.7853100" lon="9.1740700">
<ele>731.702881</ele>
<time>2007-02-13T10:28:16.000Z</time>
</trkpt>
<trkpt lat="44.7852300" lon="9.1741400">
<ele>730.727478</ele>
<time>2007-02-13T10:28:25.003Z</time>
</trkpt>
<trkpt lat="44.7851500" lon="9.1741900">
<ele>730.727478</ele>
<time>2007-02-13T10:28:33.004Z</time>
</trkpt>
<trkpt lat="44.7850600" lon="9.1742300">
<ele>731.215210</ele>
<time>2007-02-13T10:28:47.001Z</time>
</trkpt>
<trkpt lat="44.7849900" lon="9.1743100">
<ele>730.727478</ele>
<time>2007-02-13T10:29:19.003Z</time>
</trkpt>
<trkpt lat="44.7849200" lon="9.1743800">
<ele>732.190552</ele>
<time>2007-02-13T10:29:53.002Z</time>
</trkpt>
<trkpt lat="44.7848500" lon="9.1744500">
<ele>732.190552</ele>
<time>2007-02-13T10:30:01.096Z</time>
</trkpt>
<trkpt lat="44.7847700" lon="9.1745100">
<ele>731.702881</ele>
<time>2007-02-13T10:30:10.099Z</time>
</trkpt>
<trkpt lat="44.7846800" lon="9.1745400">
<ele>731.702881</ele>
<time>2007-02-13T10:30:32.003Z</time>
</trkpt>
<trkpt lat="44.7845900" lon="9.1745800">
<ele>732.647766</ele>
<time>2007-02-13T10:30:40.097Z</time>
</trkpt>
<trkpt lat="44.7845100" lon="9.1746400">
<ele>733.135437</ele>
<time>2007-02-13T10:30:55.096Z</time>
</trkpt>
<trkpt lat="44.7844300" lon="9.1746900">
<ele>734.110779</ele>
<time>2007-02-13T10:31:08.099Z</time>
</trkpt>
<trkpt lat="44.7843500" lon="9.1747300">
<ele>735.055725</ele>
<time>2007-02-13T10:31:34.003Z</time>
</trkpt>
<trkpt lat="44.7842600" lon="9.1747900">
<ele>737.463623</ele>
<time>2007-02-13T10:31:49.002Z</time>
</trkpt>
<trkpt lat="44.7841800" lon="9.1748600">
<ele>738.438965</ele>
<time>2007-02-13T10:32:00.001Z</time>
</trkpt>
<trkpt lat="44.7840900" lon="9.1749300">
<ele>739.871460</ele>
<time>2007-02-13T10:32:13.098Z</time>
</trkpt>
<trkpt lat="44.7840400" lon="9.1750200">
<ele>740.846924</ele>
<time>2007-02-13T10:32:24.096Z</time>
</trkpt>
<trkpt lat="44.7841000" lon="9.1751100">
<ele>741.304138</ele>
<time>2007-02-13T10:33:00.099Z</time>
</trkpt>
<trkpt lat="44.7841800" lon="9.1751900">
<ele>743.711975</ele>
<time>2007-02-13T10:33:14.003Z</time>
</trkpt>
<trkpt lat="44.7842600" lon="9.1752700">
<ele>745.632263</ele>
<time>2007-02-13T10:33:27.099Z</time>
</trkpt>
<trkpt lat="44.7843400" lon="9.1753400">
<ele>746.607605</ele>
<time>2007-02-13T10:34:26.000Z</time>
</trkpt>
<trkpt lat="44.7844000" lon="9.1754400">
<ele>747.095337</ele>
<time>2007-02-13T10:34:36.098Z</time>
</trkpt>
<trkpt lat="44.7844400" lon="9.1755600">
<ele>747.552490</ele>
<time>2007-02-13T10:34:47.097Z</time>
</trkpt>
<trkpt lat="44.7844600" lon="9.1756800">
<ele>749.015503</ele>
<time>2007-02-13T10:34:58.002Z</time>
</trkpt>
<trkpt lat="44.7844500" lon="9.1758100">
<ele>748.040161</ele>
<time>2007-02-13T10:35:09.001Z</time>
</trkpt>
<trkpt lat="44.7844200" lon="9.1759400">
<ele>748.527832</ele>
<time>2007-02-13T10:35:22.004Z</time>
</trkpt>
<trkpt lat="44.7843900" lon="9.1760600">
<ele>747.095337</ele>
<time>2007-02-13T10:35:32.001Z</time>
</trkpt>
<trkpt lat="44.7843400" lon="9.1761700">
<ele>745.632263</ele>
<time>2007-02-13T10:35:52.002Z</time>
</trkpt>
<trkpt lat="44.7842900" lon="9.1762900">
<ele>743.711975</ele>
<time>2007-02-13T10:36:03.001Z</time>
</trkpt>
<trkpt lat="44.7843000" lon="9.1764200">
<ele>742.279480</ele>
<time>2007-02-13T10:36:14.000Z</time>
</trkpt>
<trkpt lat="44.7843300" lon="9.1765500">
<ele>740.359192</ele>
<time>2007-02-13T10:36:24.098Z</time>
</trkpt>
<trkpt lat="44.7843500" lon="9.1766900">
<ele>739.871460</ele>
<time>2007-02-13T10:36:34.001Z</time>
</trkpt>
<trkpt lat="44.7843400" lon="9.1768200">
<ele>739.383850</ele>
<time>2007-02-13T10:36:43.004Z</time>
</trkpt>
<trkpt lat="44.7843400" lon="9.1769600">
<ele>738.896118</ele>
<time>2007-02-13T10:36:53.001Z</time>
</trkpt>
<trkpt lat="44.7843300" lon="9.1770900">
<ele>738.438965</ele>
<time>2007-02-13T10:37:02.097Z</time>
</trkpt>
<trkpt lat="44.7843000" lon="9.1772200">
<ele>738.438965</ele>
<time>2007-02-13T10:37:16.000Z</time>
</trkpt>
<trkpt lat="44.7843100" lon="9.1773400">
<ele>738.438965</ele>
<time>2007-02-13T10:37:25.097Z</time>
</trkpt>
<trkpt lat="44.7843200" lon="9.1774700">
<ele>738.438965</ele>
<time>2007-02-13T10:37:35.000Z</time>
</trkpt>
<trkpt lat="44.7843100" lon="9.1776000">
<ele>739.383850</ele>
<time>2007-02-13T10:37:44.096Z</time>
</trkpt>
<trkpt lat="44.7843200" lon="9.1777300">
<ele>740.846924</ele>
<time>2007-02-13T10:37:55.001Z</time>
</trkpt>
<trkpt lat="44.7843100" lon="9.1778400">
<ele>739.871460</ele>
<time>2007-02-13T10:38:08.098Z</time>
</trkpt>
<trkpt lat="44.7843100" lon="9.1778500">
<ele>739.383850</ele>
<time>2007-02-13T10:38:14.001Z</time>
</trkpt>
<trkpt lat="44.7843100" lon="9.1778500">
<ele>740.846924</ele>
<time>2007-02-14T06:47:05.097Z</time>
</trkpt>
<trkpt lat="44.7843100" lon="9.1778500">
<ele>740.846924</ele>
<time>2007-02-14T09:00:40.003Z</time>
</trkpt>
<trkpt lat="44.7843400" lon="9.1779700">
<ele>711.037476</ele>
<time>2007-02-14T09:02:43.002Z</time>
</trkpt>
<trkpt lat="44.7843400" lon="9.1781200">
<ele>711.037476</ele>
<time>2007-02-14T09:02:52.099Z</time>
</trkpt>
<trkpt lat="44.7843300" lon="9.1782500">
<ele>711.525085</ele>
<time>2007-02-14T09:03:02.002Z</time>
</trkpt>
<trkpt lat="44.7843100" lon="9.1783800">
<ele>711.982300</ele>
<time>2007-02-14T09:03:10.096Z</time>
</trkpt>
<trkpt lat="44.7842700" lon="9.1785000">
<ele>710.549744</ele>
<time>2007-02-14T09:03:19.099Z</time>
</trkpt>
<trkpt lat="44.7842200" lon="9.1786100">
<ele>711.525085</ele>
<time>2007-02-14T09:03:27.099Z</time>
</trkpt>
<trkpt lat="44.7842000" lon="9.1787500">
<ele>711.525085</ele>
<time>2007-02-14T09:03:37.002Z</time>
</trkpt>
<trkpt lat="44.7841800" lon="9.1788900">
<ele>710.062134</ele>
<time>2007-02-14T09:03:46.099Z</time>
</trkpt>
<trkpt lat="44.7841400" lon="9.1790200">
<ele>709.117188</ele>
<time>2007-02-14T09:03:56.002Z</time>
</trkpt>
<trkpt lat="44.7840700" lon="9.1791000">
<ele>708.141846</ele>
<time>2007-02-14T09:04:04.096Z</time>
</trkpt>
<trkpt lat="44.7839900" lon="9.1791700">
<ele>708.141846</ele>
<time>2007-02-14T09:04:12.096Z</time>
</trkpt>
<trkpt lat="44.7838900" lon="9.1792500">
<ele>707.196960</ele>
<time>2007-02-14T09:04:21.099Z</time>
</trkpt>
<trkpt lat="44.7838000" lon="9.1793000">
<ele>707.654175</ele>
<time>2007-02-14T09:04:31.002Z</time>
</trkpt>
<trkpt lat="44.7836900" lon="9.1793200">
<ele>707.196960</ele>
<time>2007-02-14T09:04:39.003Z</time>
</trkpt>
<trkpt lat="44.7836000" lon="9.1793500">
<ele>706.709290</ele>
<time>2007-02-14T09:04:47.004Z</time>
</trkpt>
<trkpt lat="44.7835200" lon="9.1793700">
<ele>706.221619</ele>
<time>2007-02-14T09:04:55.004Z</time>
</trkpt>
<trkpt lat="44.7834300" lon="9.1793300">
<ele>705.276672</ele>
<time>2007-02-14T09:05:02.003Z</time>
</trkpt>
<trkpt lat="44.7833400" lon="9.1792900">
<ele>704.789063</ele>
<time>2007-02-14T09:05:09.001Z</time>
</trkpt>
<trkpt lat="44.7832600" lon="9.1793000">
<ele>703.813721</ele>
<time>2007-02-14T09:05:15.099Z</time>
</trkpt>
<trkpt lat="44.7832400" lon="9.1794400">
<ele>701.893433</ele>
<time>2007-02-14T09:05:24.000Z</time>
</trkpt>
<trkpt lat="44.7832400" lon="9.1795600">
<ele>699.973206</ele>
<time>2007-02-14T09:05:30.098Z</time>
</trkpt>
<trkpt lat="44.7832600" lon="9.1797000">
<ele>699.028320</ele>
<time>2007-02-14T09:05:38.099Z</time>
</trkpt>
<trkpt lat="44.7832900" lon="9.1798200">
<ele>697.565308</ele>
<time>2007-02-14T09:05:45.097Z</time>
</trkpt>
<trkpt lat="44.7833400" lon="9.1799600">
<ele>696.620422</ele>
<time>2007-02-14T09:05:53.098Z</time>
</trkpt>
<trkpt lat="44.7834100" lon="9.1800600">
<ele>696.620422</ele>
<time>2007-02-14T09:06:00.096Z</time>
</trkpt>
<trkpt lat="44.7834400" lon="9.1801800">
<ele>695.645081</ele>
<time>2007-02-14T09:06:08.097Z</time>
</trkpt>
<trkpt lat="44.7834500" lon="9.1803200">
<ele>695.645081</ele>
<time>2007-02-14T09:06:16.098Z</time>
</trkpt>
<trkpt lat="44.7834500" lon="9.1804700">
<ele>695.157349</ele>
<time>2007-02-14T09:06:24.098Z</time>
</trkpt>
<trkpt lat="44.7834300" lon="9.1806000">
<ele>694.700134</ele>
<time>2007-02-14T09:06:32.099Z</time>
</trkpt>
<trkpt lat="44.7833500" lon="9.1806300">
<ele>695.645081</ele>
<time>2007-02-14T09:06:39.097Z</time>
</trkpt>
<trkpt lat="44.7832500" lon="9.1806400">
<ele>695.645081</ele>
<time>2007-02-14T09:06:49.000Z</time>
</trkpt>
<trkpt lat="44.7831500" lon="9.1806200">
<ele>694.700134</ele>
<time>2007-02-14T09:06:57.001Z</time>
</trkpt>
<trkpt lat="44.7830600" lon="9.1806200">
<ele>693.724792</ele>
<time>2007-02-14T09:07:05.002Z</time>
</trkpt>
<trkpt lat="44.7829700" lon="9.1806200">
<ele>691.804565</ele>
<time>2007-02-14T09:07:13.002Z</time>
</trkpt>
<trkpt lat="44.7828800" lon="9.1806400">
<ele>691.316895</ele>
<time>2007-02-14T09:07:21.096Z</time>
</trkpt>
<trkpt lat="44.7827700" lon="9.1806600">
<ele>691.804565</ele>
<time>2007-02-14T09:07:29.097Z</time>
</trkpt>
<trkpt lat="44.7827100" lon="9.1807600">
<ele>692.779907</ele>
<time>2007-02-14T09:07:37.098Z</time>
</trkpt>
<trkpt lat="44.7826700" lon="9.1808900">
<ele>692.779907</ele>
<time>2007-02-14T09:07:45.098Z</time>
</trkpt>
<trkpt lat="44.7826300" lon="9.1809700">
<ele>693.724792</ele>
<time>2007-02-14T09:07:55.001Z</time>
</trkpt>
<trkpt lat="44.7825100" lon="9.1808400">
<ele>696.132690</ele>
<time>2007-02-14T09:08:39.098Z</time>
</trkpt>
<trkpt lat="44.7823600" lon="9.1807600">
<ele>697.565308</ele>
<time>2007-02-14T09:09:13.097Z</time>
</trkpt>
<trkpt lat="44.7822000" lon="9.1807500">
<ele>698.540649</ele>
<time>2007-02-14T09:09:40.097Z</time>
</trkpt>
<trkpt lat="44.7821700" lon="9.1807500">
<ele>700.948547</ele>
<time>2007-02-14T09:10:19.004Z</time>
</trkpt>
<trkpt lat="44.7821600" lon="9.1807600">
<ele>701.893433</ele>
<time>2007-02-14T09:10:53.003Z</time>
</trkpt>
<trkpt lat="44.7820900" lon="9.1807700">
<ele>701.893433</ele>
<time>2007-02-14T09:11:17.098Z</time>
</trkpt>
<trkpt lat="44.7820100" lon="9.1807000">
<ele>703.813721</ele>
<time>2007-02-14T09:11:32.004Z</time>
</trkpt>
<trkpt lat="44.7818900" lon="9.1806500">
<ele>703.813721</ele>
<time>2007-02-14T09:11:40.098Z</time>
</trkpt>
<trkpt lat="44.7817700" lon="9.1806400">
<ele>704.789063</ele>
<time>2007-02-14T09:11:50.001Z</time>
</trkpt>
<trkpt lat="44.7816800" lon="9.1806400">
<ele>705.733887</ele>
<time>2007-02-14T09:12:17.001Z</time>
</trkpt>
<trkpt lat="44.7815800" lon="9.1806900">
<ele>706.221619</ele>
<time>2007-02-14T09:12:29.002Z</time>
</trkpt>
<trkpt lat="44.7814800" lon="9.1807700">
<ele>706.709290</ele>
<time>2007-02-14T09:12:37.096Z</time>
</trkpt>
<trkpt lat="44.7813800" lon="9.1808600">
<ele>707.196960</ele>
<time>2007-02-14T09:12:49.003Z</time>
</trkpt>
<trkpt lat="44.7813200" lon="9.1809400">
<ele>710.062134</ele>
<time>2007-02-14T09:12:59.000Z</time>
</trkpt>
<trkpt lat="44.7812600" lon="9.1810400">
<ele>711.525085</ele>
<time>2007-02-14T09:13:09.098Z</time>
</trkpt>
<trkpt lat="44.7812100" lon="9.1811300">
<ele>712.469971</ele>
<time>2007-02-14T09:13:19.001Z</time>
</trkpt>
<trkpt lat="44.7811500" lon="9.1812200">
<ele>712.957703</ele>
<time>2007-02-14T09:13:30.000Z</time>
</trkpt>
<trkpt lat="44.7810800" lon="9.1813100">
<ele>713.902527</ele>
<time>2007-02-14T09:13:39.003Z</time>
</trkpt>
<trkpt lat="44.7810500" lon="9.1814400">
<ele>714.390259</ele>
<time>2007-02-14T09:13:48.099Z</time>
</trkpt>
<trkpt lat="44.7810900" lon="9.1815600">
<ele>716.310486</ele>
<time>2007-02-14T09:14:03.098Z</time>
</trkpt>
<trkpt lat="44.7811400" lon="9.1816700">
<ele>716.798157</ele>
<time>2007-02-14T09:14:18.004Z</time>
</trkpt>
<trkpt lat="44.7811400" lon="9.1817600">
<ele>717.773499</ele>
<time>2007-02-14T09:14:53.098Z</time>
</trkpt>
<trkpt lat="44.7810800" lon="9.1818700">
<ele>716.310486</ele>
<time>2007-02-14T09:15:01.099Z</time>
</trkpt>
<trkpt lat="44.7810100" lon="9.1819500">
<ele>715.365601</ele>
<time>2007-02-14T09:15:09.099Z</time>
</trkpt>
<trkpt lat="44.7809400" lon="9.1820400">
<ele>714.390259</ele>
<time>2007-02-14T09:15:18.000Z</time>
</trkpt>
<trkpt lat="44.7809000" lon="9.1821500">
<ele>712.957703</ele>
<time>2007-02-14T09:16:05.002Z</time>
</trkpt>
<trkpt lat="44.7809400" lon="9.1822600">
<ele>711.982300</ele>
<time>2007-02-14T09:16:13.002Z</time>
</trkpt>
<trkpt lat="44.7810300" lon="9.1823000">
<ele>710.549744</ele>
<time>2007-02-14T09:16:21.096Z</time>
</trkpt>
<trkpt lat="44.7811100" lon="9.1823700">
<ele>706.709290</ele>
<time>2007-02-14T09:16:32.002Z</time>
</trkpt>
<trkpt lat="44.7811500" lon="9.1824900">
<ele>703.356506</ele>
<time>2007-02-14T09:16:43.000Z</time>
</trkpt>
<trkpt lat="44.7812100" lon="9.1826100">
<ele>699.973206</ele>
<time>2007-02-14T09:16:52.097Z</time>
</trkpt>
<trkpt lat="44.7812700" lon="9.1827000">
<ele>696.620422</ele>
<time>2007-02-14T09:17:02.000Z</time>
</trkpt>
<trkpt lat="44.7813100" lon="9.1828100">
<ele>694.700134</ele>
<time>2007-02-14T09:17:11.003Z</time>
</trkpt>
<trkpt lat="44.7813500" lon="9.1829200">
<ele>692.292236</ele>
<time>2007-02-14T09:17:19.003Z</time>
</trkpt>
<trkpt lat="44.7814200" lon="9.1830000">
<ele>690.859680</ele>
<time>2007-02-14T09:17:27.097Z</time>
</trkpt>
<trkpt lat="44.7815200" lon="9.1829800">
<ele>687.476379</ele>
<time>2007-02-14T09:17:37.000Z</time>
</trkpt>
<trkpt lat="44.7815900" lon="9.1830800">
<ele>685.556152</ele>
<time>2007-02-14T09:17:46.003Z</time>
</trkpt>
<trkpt lat="44.7816500" lon="9.1831900">
<ele>684.123596</ele>
<time>2007-02-14T09:17:54.097Z</time>
</trkpt>
<trkpt lat="44.7816000" lon="9.1832800">
<ele>680.740295</ele>
<time>2007-02-14T09:18:05.003Z</time>
</trkpt>
<trkpt lat="44.7815100" lon="9.1832500">
<ele>677.875183</ele>
<time>2007-02-14T09:18:13.097Z</time>
</trkpt>
<trkpt lat="44.7814200" lon="9.1832300">
<ele>676.412170</ele>
<time>2007-02-14T09:18:21.097Z</time>
</trkpt>
<trkpt lat="44.7813200" lon="9.1832100">
<ele>675.467285</ele>
<time>2007-02-14T09:18:29.098Z</time>
</trkpt>
<trkpt lat="44.7812400" lon="9.1831500">
<ele>674.979614</ele>
<time>2007-02-14T09:18:37.099Z</time>
</trkpt>
<trkpt lat="44.7811600" lon="9.1830900">
<ele>674.979614</ele>
<time>2007-02-14T09:18:45.099Z</time>
</trkpt>
<trkpt lat="44.7810700" lon="9.1830600">
<ele>672.571716</ele>
<time>2007-02-14T09:18:54.000Z</time>
</trkpt>
<trkpt lat="44.7809800" lon="9.1830900">
<ele>669.706543</ele>
<time>2007-02-14T09:19:02.001Z</time>
</trkpt>
<trkpt lat="44.7808900" lon="9.1831200">
<ele>667.298645</ele>
<time>2007-02-14T09:19:10.001Z</time>
</trkpt>
<trkpt lat="44.7808000" lon="9.1831500">
<ele>664.890686</ele>
<time>2007-02-14T09:19:18.002Z</time>
</trkpt>
<trkpt lat="44.7807200" lon="9.1832100">
<ele>661.995117</ele>
<time>2007-02-14T09:19:26.096Z</time>
</trkpt>
<trkpt lat="44.7806700" lon="9.1833300">
<ele>659.130005</ele>
<time>2007-02-14T09:19:34.097Z</time>
</trkpt>
<trkpt lat="44.7805800" lon="9.1833500">
<ele>656.722107</ele>
<time>2007-02-14T09:19:42.097Z</time>
</trkpt>
<trkpt lat="44.7804900" lon="9.1833400">
<ele>654.801880</ele>
<time>2007-02-14T09:19:49.096Z</time>
</trkpt>
<trkpt lat="44.7804000" lon="9.1833600">
<ele>653.338806</ele>
<time>2007-02-14T09:19:57.096Z</time>
</trkpt>
<trkpt lat="44.7803100" lon="9.1833800">
<ele>651.418518</ele>
<time>2007-02-14T09:20:05.004Z</time>
</trkpt>
<trkpt lat="44.7802100" lon="9.1834100">
<ele>651.418518</ele>
<time>2007-02-14T09:20:13.004Z</time>
</trkpt>
<trkpt lat="44.7801200" lon="9.1834400">
<ele>649.986023</ele>
<time>2007-02-14T09:20:20.003Z</time>
</trkpt>
<trkpt lat="44.7800200" lon="9.1834600">
<ele>647.090393</ele>
<time>2007-02-14T09:20:28.003Z</time>
</trkpt>
<trkpt lat="44.7799400" lon="9.1834700">
<ele>645.657837</ele>
<time>2007-02-14T09:20:35.002Z</time>
</trkpt>
<trkpt lat="44.7798400" lon="9.1834700">
<ele>643.737610</ele>
<time>2007-02-14T09:20:43.002Z</time>
</trkpt>
<trkpt lat="44.7797500" lon="9.1834800">
<ele>642.305054</ele>
<time>2007-02-14T09:20:50.001Z</time>
</trkpt>
<trkpt lat="44.7796800" lon="9.1835700">
<ele>640.384827</ele>
<time>2007-02-14T09:20:58.001Z</time>
</trkpt>
<trkpt lat="44.7796000" lon="9.1836600">
<ele>639.409485</ele>
<time>2007-02-14T09:21:07.004Z</time>
</trkpt>
<trkpt lat="44.7795400" lon="9.1837600">
<ele>639.409485</ele>
<time>2007-02-14T09:21:14.096Z</time>
</trkpt>
<trkpt lat="44.7794800" lon="9.1838600">
<ele>638.921753</ele>
<time>2007-02-14T09:21:23.099Z</time>
</trkpt>
<trkpt lat="44.7794100" lon="9.1839400">
<ele>637.001465</ele>
<time>2007-02-14T09:21:34.004Z</time>
</trkpt>
<trkpt lat="44.7793100" lon="9.1839700">
<ele>636.056641</ele>
<time>2007-02-14T09:21:53.004Z</time>
</trkpt>
<trkpt lat="44.7792500" lon="9.1840700">
<ele>634.593628</ele>
<time>2007-02-14T09:22:03.000Z</time>
</trkpt>
<trkpt lat="44.7792100" lon="9.1842000">
<ele>632.673340</ele>
<time>2007-02-14T09:22:13.099Z</time>
</trkpt>
<trkpt lat="44.7791500" lon="9.1843000">
<ele>631.240784</ele>
<time>2007-02-14T09:22:23.002Z</time>
</trkpt>
<trkpt lat="44.7790700" lon="9.1843500">
<ele>629.320557</ele>
<time>2007-02-14T09:22:32.098Z</time>
</trkpt>
<trkpt lat="44.7790200" lon="9.1843500">
<ele>629.808228</ele>
<time>2007-02-14T09:22:54.002Z</time>
</trkpt>
<trkpt lat="44.7789900" lon="9.1843300">
<ele>631.728516</ele>
<time>2007-02-14T09:24:51.098Z</time>
</trkpt>
<trkpt lat="44.7788800" lon="9.1843400">
<ele>632.673340</ele>
<time>2007-02-14T09:24:55.099Z</time>
</trkpt>
<trkpt lat="44.7787900" lon="9.1843700">
<ele>633.648682</ele>
<time>2007-02-14T09:24:58.097Z</time>
</trkpt>
<trkpt lat="44.7786800" lon="9.1844200">
<ele>635.568970</ele>
<time>2007-02-14T09:25:02.004Z</time>
</trkpt>
<trkpt lat="44.7785600" lon="9.1844600">
<ele>635.568970</ele>
<time>2007-02-14T09:25:05.002Z</time>
</trkpt>
<trkpt lat="44.7784300" lon="9.1844900">
<ele>636.056641</ele>
<time>2007-02-14T09:25:08.000Z</time>
</trkpt>
<trkpt lat="44.7782900" lon="9.1844600">
<ele>636.056641</ele>
<time>2007-02-14T09:25:10.098Z</time>
</trkpt>
<trkpt lat="44.7782100" lon="9.1843900">
<ele>636.056641</ele>
<time>2007-02-14T09:25:13.002Z</time>
</trkpt>
<trkpt lat="44.7781200" lon="9.1842900">
<ele>635.568970</ele>
<time>2007-02-14T09:25:14.098Z</time>
</trkpt>
<trkpt lat="44.7780400" lon="9.1841800">
<ele>636.056641</ele>
<time>2007-02-14T09:25:17.003Z</time>
</trkpt>
<trkpt lat="44.7779700" lon="9.1840600">
<ele>635.568970</ele>
<time>2007-02-14T09:25:18.098Z</time>
</trkpt>
<trkpt lat="44.7779000" lon="9.1839300">
<ele>635.081299</ele>
<time>2007-02-14T09:25:21.003Z</time>
</trkpt>
<trkpt lat="44.7778300" lon="9.1838000">
<ele>636.056641</ele>
<time>2007-02-14T09:25:22.099Z</time>
</trkpt>
<trkpt lat="44.7777700" lon="9.1836700">
<ele>636.056641</ele>
<time>2007-02-14T09:25:25.003Z</time>
</trkpt>
<trkpt lat="44.7777100" lon="9.1835400">
<ele>636.544312</ele>
<time>2007-02-14T09:25:26.099Z</time>
</trkpt>
<trkpt lat="44.7776500" lon="9.1834000">
<ele>637.001465</ele>
<time>2007-02-14T09:25:29.004Z</time>
</trkpt>
<trkpt lat="44.7775900" lon="9.1832700">
<ele>637.489197</ele>
<time>2007-02-14T09:25:30.099Z</time>
</trkpt>
<trkpt lat="44.7775300" lon="9.1831300">
<ele>637.489197</ele>
<time>2007-02-14T09:25:33.004Z</time>
</trkpt>
<trkpt lat="44.7774900" lon="9.1829700">
<ele>637.001465</ele>
<time>2007-02-14T09:25:35.000Z</time>
</trkpt>
<trkpt lat="44.7774500" lon="9.1828000">
<ele>636.544312</ele>
<time>2007-02-14T09:25:37.004Z</time>
</trkpt>
<trkpt lat="44.7774100" lon="9.1826400">
<ele>636.544312</ele>
<time>2007-02-14T09:25:39.000Z</time>
</trkpt>
<trkpt lat="44.7773600" lon="9.1824400">
<ele>636.056641</ele>
<time>2007-02-14T09:25:41.098Z</time>
</trkpt>
<trkpt lat="44.7772900" lon="9.1823400">
<ele>635.081299</ele>
<time>2007-02-14T09:25:44.096Z</time>
</trkpt>
<trkpt lat="44.7771600" lon="9.1823400">
<ele>635.081299</ele>
<time>2007-02-14T09:25:48.003Z</time>
</trkpt>
<trkpt lat="44.7770600" lon="9.1823700">
<ele>633.648682</ele>
<time>2007-02-14T09:25:51.001Z</time>
</trkpt>
<trkpt lat="44.7769700" lon="9.1824100">
<ele>632.673340</ele>
<time>2007-02-14T09:25:55.001Z</time>
</trkpt>
<trkpt lat="44.7768700" lon="9.1824500">
<ele>633.161072</ele>
<time>2007-02-14T09:25:57.099Z</time>
</trkpt>
<trkpt lat="44.7767600" lon="9.1824900">
<ele>631.728516</ele>
<time>2007-02-14T09:26:00.097Z</time>
</trkpt>
<trkpt lat="44.7766800" lon="9.1825200">
<ele>631.240784</ele>
<time>2007-02-14T09:26:03.002Z</time>
</trkpt>
<trkpt lat="44.7765800" lon="9.1825400">
<ele>631.240784</ele>
<time>2007-02-14T09:26:06.000Z</time>
</trkpt>
<trkpt lat="44.7765100" lon="9.1826000">
<ele>630.295898</ele>
<time>2007-02-14T09:26:18.001Z</time>
</trkpt>
<trkpt lat="44.7764700" lon="9.1827700">
<ele>632.216125</ele>
<time>2007-02-14T09:26:22.001Z</time>
</trkpt>
<trkpt lat="44.7764600" lon="9.1829100">
<ele>633.161072</ele>
<time>2007-02-14T09:26:24.099Z</time>
</trkpt>
<trkpt lat="44.7764400" lon="9.1830800">
<ele>634.593628</ele>
<time>2007-02-14T09:26:27.097Z</time>
</trkpt>
<trkpt lat="44.7764300" lon="9.1832700">
<ele>636.056641</ele>
<time>2007-02-14T09:26:31.004Z</time>
</trkpt>
<trkpt lat="44.7764300" lon="9.1834100">
<ele>636.056641</ele>
<time>2007-02-14T09:26:33.000Z</time>
</trkpt>
<trkpt lat="44.7764300" lon="9.1836300">
<ele>638.464539</ele>
<time>2007-02-14T09:26:35.098Z</time>
</trkpt>
<trkpt lat="44.7764400" lon="9.1837800">
<ele>638.921753</ele>
<time>2007-02-14T09:26:38.003Z</time>
</trkpt>
<trkpt lat="44.7764300" lon="9.1838200">
<ele>637.976929</ele>
<time>2007-02-14T09:26:43.099Z</time>
</trkpt>
<trkpt lat="44.7764400" lon="9.1836800">
<ele>637.001465</ele>
<time>2007-02-14T09:26:50.004Z</time>
</trkpt>
<trkpt lat="44.7764300" lon="9.1835600">
<ele>636.544312</ele>
<time>2007-02-14T09:26:54.097Z</time>
</trkpt>
<trkpt lat="44.7764300" lon="9.1837400">
<ele>637.001465</ele>
<time>2007-02-14T09:27:02.098Z</time>
</trkpt>
<trkpt lat="44.7764300" lon="9.1839000">
<ele>638.921753</ele>
<time>2007-02-14T09:27:05.096Z</time>
</trkpt>
<trkpt lat="44.7764100" lon="9.1840300">
<ele>639.409485</ele>
<time>2007-02-14T09:27:08.001Z</time>
</trkpt>
<trkpt lat="44.7763800" lon="9.1841600">
<ele>640.841980</ele>
<time>2007-02-14T09:27:09.096Z</time>
</trkpt>
<trkpt lat="44.7763100" lon="9.1843100">
<ele>641.817322</ele>
<time>2007-02-14T09:27:13.003Z</time>
</trkpt>
<trkpt lat="44.7762000" lon="9.1843700">
<ele>643.249878</ele>
<time>2007-02-14T09:27:16.001Z</time>
</trkpt>
<trkpt lat="44.7760800" lon="9.1843700">
<ele>644.712952</ele>
<time>2007-02-14T09:27:18.099Z</time>
</trkpt>
<trkpt lat="44.7759600" lon="9.1843100">
<ele>646.633179</ele>
<time>2007-02-14T09:27:21.097Z</time>
</trkpt>
<trkpt lat="44.7758600" lon="9.1842700">
<ele>647.090393</ele>
<time>2007-02-14T09:27:24.002Z</time>
</trkpt>
<trkpt lat="44.7757600" lon="9.1842200">
<ele>648.065735</ele>
<time>2007-02-14T09:27:25.098Z</time>
</trkpt>
<trkpt lat="44.7756600" lon="9.1841800">
<ele>648.065735</ele>
<time>2007-02-14T09:27:28.002Z</time>
</trkpt>
<trkpt lat="44.7755600" lon="9.1841300">
<ele>649.041077</ele>
<time>2007-02-14T09:27:29.098Z</time>
</trkpt>
<trkpt lat="44.7754600" lon="9.1840900">
<ele>649.041077</ele>
<time>2007-02-14T09:27:32.003Z</time>
</trkpt>
<trkpt lat="44.7753600" lon="9.1840500">
<ele>649.041077</ele>
<time>2007-02-14T09:27:33.098Z</time>
</trkpt>
<trkpt lat="44.7752200" lon="9.1839900">
<ele>649.986023</ele>
<time>2007-02-14T09:27:36.096Z</time>
</trkpt>
<trkpt lat="44.7751200" lon="9.1839600">
<ele>650.473694</ele>
<time>2007-02-14T09:27:39.001Z</time>
</trkpt>
<trkpt lat="44.7750000" lon="9.1838800">
<ele>651.418518</ele>
<time>2007-02-14T09:27:41.099Z</time>
</trkpt>
<trkpt lat="44.7749300" lon="9.1837900">
<ele>652.393860</ele>
<time>2007-02-14T09:27:44.004Z</time>
</trkpt>
<trkpt lat="44.7748800" lon="9.1836200">
<ele>654.314148</ele>
<time>2007-02-14T09:27:47.002Z</time>
</trkpt>
<trkpt lat="44.7749000" lon="9.1835000">
<ele>655.746704</ele>
<time>2007-02-14T09:27:48.097Z</time>
</trkpt>
<trkpt lat="44.7749500" lon="9.1833500">
<ele>657.666931</ele>
<time>2007-02-14T09:27:52.004Z</time>
</trkpt>
<trkpt lat="44.7750000" lon="9.1832200">
<ele>658.642273</ele>
<time>2007-02-14T09:27:55.002Z</time>
</trkpt>
<trkpt lat="44.7750700" lon="9.1830800">
<ele>661.050232</ele>
<time>2007-02-14T09:27:58.000Z</time>
</trkpt>
<trkpt lat="44.7751300" lon="9.1829500">
<ele>663.915344</ele>
<time>2007-02-14T09:28:00.098Z</time>
</trkpt>
<trkpt lat="44.7751200" lon="9.1827900">
<ele>664.403076</ele>
<time>2007-02-14T09:28:03.096Z</time>
</trkpt>
<trkpt lat="44.7750300" lon="9.1827000">
<ele>665.378418</ele>
<time>2007-02-14T09:28:07.003Z</time>
</trkpt>
<trkpt lat="44.7749300" lon="9.1826300">
<ele>666.810974</ele>
<time>2007-02-14T09:28:10.001Z</time>
</trkpt>
<trkpt lat="44.7748500" lon="9.1825900">
<ele>667.786316</ele>
<time>2007-02-14T09:28:14.002Z</time>
</trkpt>
<trkpt lat="44.7747400" lon="9.1825500">
<ele>669.706543</ele>
<time>2007-02-14T09:28:21.000Z</time>
</trkpt>
<trkpt lat="44.7746400" lon="9.1825400">
<ele>670.651428</ele>
<time>2007-02-14T09:28:26.003Z</time>
</trkpt>
<trkpt lat="44.7745500" lon="9.1825200">
<ele>671.626770</ele>
<time>2007-02-14T09:28:30.003Z</time>
</trkpt>
<trkpt lat="44.7744400" lon="9.1825100">
<ele>672.083984</ele>
<time>2007-02-14T09:28:34.003Z</time>
</trkpt>
<trkpt lat="44.7743300" lon="9.1824900">
<ele>674.034668</ele>
<time>2007-02-14T09:28:38.004Z</time>
</trkpt>
<trkpt lat="44.7742100" lon="9.1824800">
<ele>675.954956</ele>
<time>2007-02-14T09:28:42.004Z</time>
</trkpt>
<trkpt lat="44.7741100" lon="9.1824700">
<ele>676.412170</ele>
<time>2007-02-14T09:28:46.004Z</time>
</trkpt>
<trkpt lat="44.7740200" lon="9.1824600">
<ele>677.387512</ele>
<time>2007-02-14T09:28:49.002Z</time>
</trkpt>
<trkpt lat="44.7739000" lon="9.1824400">
<ele>678.820129</ele>
<time>2007-02-14T09:28:53.003Z</time>
</trkpt>
<trkpt lat="44.7738000" lon="9.1824200">
<ele>678.820129</ele>
<time>2007-02-14T09:28:57.003Z</time>
</trkpt>
<trkpt lat="44.7737400" lon="9.1823900">
<ele>680.283081</ele>
<time>2007-02-14T09:29:16.096Z</time>
</trkpt>
<trkpt lat="44.7736500" lon="9.1823500">
<ele>681.228027</ele>
<time>2007-02-14T09:29:20.003Z</time>
</trkpt>
<trkpt lat="44.7735400" lon="9.1823100">
<ele>682.660522</ele>
<time>2007-02-14T09:29:24.003Z</time>
</trkpt>
<trkpt lat="44.7734500" lon="9.1822700">
<ele>683.148254</ele>
<time>2007-02-14T09:29:27.001Z</time>
</trkpt>
<trkpt lat="44.7733600" lon="9.1822200">
<ele>683.635864</ele>
<time>2007-02-14T09:29:31.001Z</time>
</trkpt>
<trkpt lat="44.7733000" lon="9.1821200">
<ele>684.123596</ele>
<time>2007-02-14T09:29:36.097Z</time>
</trkpt>
<trkpt lat="44.7732300" lon="9.1820100">
<ele>684.611328</ele>
<time>2007-02-14T09:29:42.000Z</time>
</trkpt>
<trkpt lat="44.7731300" lon="9.1819200">
<ele>685.556152</ele>
<time>2007-02-14T09:29:46.000Z</time>
</trkpt>
<trkpt lat="44.7730400" lon="9.1818300">
<ele>686.531494</ele>
<time>2007-02-14T09:29:48.098Z</time>
</trkpt>
<trkpt lat="44.7729500" lon="9.1817600">
<ele>686.988708</ele>
<time>2007-02-14T09:29:51.096Z</time>
</trkpt>
<trkpt lat="44.7728500" lon="9.1816700">
<ele>687.476379</ele>
<time>2007-02-14T09:29:55.003Z</time>
</trkpt>
<trkpt lat="44.7727400" lon="9.1815800">
<ele>688.451721</ele>
<time>2007-02-14T09:29:58.001Z</time>
</trkpt>
<trkpt lat="44.7726500" lon="9.1815000">
<ele>689.396667</ele>
<time>2007-02-14T09:30:00.099Z</time>
</trkpt>
<trkpt lat="44.7725500" lon="9.1814400">
<ele>689.884277</ele>
<time>2007-02-14T09:30:03.097Z</time>
</trkpt>
<trkpt lat="44.7724700" lon="9.1813900">
<ele>691.316895</ele>
<time>2007-02-14T09:30:07.004Z</time>
</trkpt>
<trkpt lat="44.7723600" lon="9.1812900">
<ele>693.237061</ele>
<time>2007-02-14T09:30:10.002Z</time>
</trkpt>
<trkpt lat="44.7722800" lon="9.1811800">
<ele>695.157349</ele>
<time>2007-02-14T09:30:13.000Z</time>
</trkpt>
<trkpt lat="44.7722200" lon="9.1810400">
<ele>696.620422</ele>
<time>2007-02-14T09:30:15.098Z</time>
</trkpt>
<trkpt lat="44.7721900" lon="9.1809100">
<ele>698.052917</ele>
<time>2007-02-14T09:30:18.096Z</time>
</trkpt>
<trkpt lat="44.7721600" lon="9.1808100">
<ele>699.973206</ele>
<time>2007-02-14T09:30:23.099Z</time>
</trkpt>
<trkpt lat="44.7720900" lon="9.1807100">
<ele>702.381104</ele>
<time>2007-02-14T09:30:27.099Z</time>
</trkpt>
<trkpt lat="44.7719800" lon="9.1807200">
<ele>704.301331</ele>
<time>2007-02-14T09:30:33.002Z</time>
</trkpt>
<trkpt lat="44.7719000" lon="9.1807800">
<ele>707.654175</ele>
<time>2007-02-14T09:30:37.002Z</time>
</trkpt>
<trkpt lat="44.7718000" lon="9.1808100">
<ele>710.062134</ele>
<time>2007-02-14T09:30:41.003Z</time>
</trkpt>
<trkpt lat="44.7717000" lon="9.1807700">
<ele>711.525085</ele>
<time>2007-02-14T09:30:45.003Z</time>
</trkpt>
<trkpt lat="44.7715900" lon="9.1807200">
<ele>713.902527</ele>
<time>2007-02-14T09:30:49.003Z</time>
</trkpt>
<trkpt lat="44.7714800" lon="9.1806700">
<ele>716.798157</ele>
<time>2007-02-14T09:30:53.004Z</time>
</trkpt>
<trkpt lat="44.7713800" lon="9.1806400">
<ele>719.206116</ele>
<time>2007-02-14T09:30:56.002Z</time>
</trkpt>
<trkpt lat="44.7712900" lon="9.1806000">
<ele>721.126282</ele>
<time>2007-02-14T09:30:59.000Z</time>
</trkpt>
<trkpt lat="44.7712100" lon="9.1805500">
<ele>721.614014</ele>
<time>2007-02-14T09:31:01.098Z</time>
</trkpt>
<trkpt lat="44.7711200" lon="9.1804900">
<ele>724.479065</ele>
<time>2007-02-14T09:31:04.096Z</time>
</trkpt>
<trkpt lat="44.7710000" lon="9.1804200">
<ele>726.887085</ele>
<time>2007-02-14T09:31:08.096Z</time>
</trkpt>
<trkpt lat="44.7709100" lon="9.1803800">
<ele>728.807312</ele>
<time>2007-02-14T09:31:12.003Z</time>
</trkpt>
<trkpt lat="44.7708200" lon="9.1803700">
<ele>729.782654</ele>
<time>2007-02-14T09:31:15.001Z</time>
</trkpt>
<trkpt lat="44.7707100" lon="9.1803500">
<ele>732.647766</ele>
<time>2007-02-14T09:31:19.001Z</time>
</trkpt>
<trkpt lat="44.7706100" lon="9.1803300">
<ele>733.623108</ele>
<time>2007-02-14T09:31:23.002Z</time>
</trkpt>
<trkpt lat="44.7705000" lon="9.1803000">
<ele>735.055725</ele>
<time>2007-02-14T09:31:27.002Z</time>
</trkpt>
<trkpt lat="44.7704200" lon="9.1802500">
<ele>735.543335</ele>
<time>2007-02-14T09:31:30.000Z</time>
</trkpt>
<trkpt lat="44.7703400" lon="9.1801300">
<ele>737.951294</ele>
<time>2007-02-14T09:31:34.000Z</time>
</trkpt>
<trkpt lat="44.7702800" lon="9.1799900">
<ele>739.871460</ele>
<time>2007-02-14T09:31:38.001Z</time>
</trkpt>
<trkpt lat="44.7702200" lon="9.1798400">
<ele>741.791748</ele>
<time>2007-02-14T09:31:42.001Z</time>
</trkpt>
<trkpt lat="44.7701400" lon="9.1797200">
<ele>743.711975</ele>
<time>2007-02-14T09:31:46.001Z</time>
</trkpt>
<trkpt lat="44.7700600" lon="9.1796100">
<ele>746.119873</ele>
<time>2007-02-14T09:31:50.002Z</time>
</trkpt>
<trkpt lat="44.7699600" lon="9.1795100">
<ele>748.527832</ele>
<time>2007-02-14T09:31:54.002Z</time>
</trkpt>
<trkpt lat="44.7698800" lon="9.1794600">
<ele>750.935730</ele>
<time>2007-02-14T09:31:57.000Z</time>
</trkpt>
<trkpt lat="44.7697900" lon="9.1794100">
<ele>753.343689</ele>
<time>2007-02-14T09:32:01.000Z</time>
</trkpt>
<trkpt lat="44.7697000" lon="9.1793200">
<ele>755.263916</ele>
<time>2007-02-14T09:32:05.001Z</time>
</trkpt>
<trkpt lat="44.7696000" lon="9.1792400">
<ele>759.104370</ele>
<time>2007-02-14T09:32:09.001Z</time>
</trkpt>
<trkpt lat="44.7695000" lon="9.1791700">
<ele>760.536926</ele>
<time>2007-02-14T09:32:13.001Z</time>
</trkpt>
<trkpt lat="44.7694100" lon="9.1791000">
<ele>760.536926</ele>
<time>2007-02-14T09:32:17.002Z</time>
</trkpt>
<trkpt lat="44.7693100" lon="9.1790100">
<ele>761.969482</ele>
<time>2007-02-14T09:32:21.002Z</time>
</trkpt>
<trkpt lat="44.7692200" lon="9.1789100">
<ele>762.944885</ele>
<time>2007-02-14T09:32:25.002Z</time>
</trkpt>
<trkpt lat="44.7691100" lon="9.1788400">
<ele>764.865112</ele>
<time>2007-02-14T09:32:29.003Z</time>
</trkpt>
<trkpt lat="44.7690200" lon="9.1787800">
<ele>766.785339</ele>
<time>2007-02-14T09:32:33.003Z</time>
</trkpt>
<trkpt lat="44.7689200" lon="9.1787200">
<ele>767.760681</ele>
<time>2007-02-14T09:32:37.003Z</time>
</trkpt>
<trkpt lat="44.7688400" lon="9.1787000">
<ele>768.705627</ele>
<time>2007-02-14T09:32:41.004Z</time>
</trkpt>
<trkpt lat="44.7687400" lon="9.1786400">
<ele>770.138123</ele>
<time>2007-02-14T09:32:45.097Z</time>
</trkpt>
<trkpt lat="44.7686600" lon="9.1785800">
<ele>770.625854</ele>
<time>2007-02-14T09:32:51.000Z</time>
</trkpt>
<trkpt lat="44.7686500" lon="9.1785800">
<ele>770.138123</ele>
<time>2007-02-14T09:35:45.001Z</time>
</trkpt>
<trkpt lat="44.7686500" lon="9.1785800">
<ele>782.665466</ele>
<time>2007-02-14T09:36:24.002Z</time>
</trkpt>
<trkpt lat="44.7684400" lon="9.1786100">
<ele>770.138123</ele>
<time>2007-02-14T09:36:32.003Z</time>
</trkpt>
<trkpt lat="44.7685000" lon="9.1785000">
<ele>770.625854</ele>
<time>2007-02-14T09:37:31.099Z</time>
</trkpt>
<trkpt lat="44.7684000" lon="9.1784400">
<ele>770.138123</ele>
<time>2007-02-14T09:37:41.002Z</time>
</trkpt>
<trkpt lat="44.7683300" lon="9.1783500">
<ele>769.680969</ele>
<time>2007-02-14T09:37:49.002Z</time>
</trkpt>
<trkpt lat="44.7682600" lon="9.1782700">
<ele>769.680969</ele>
<time>2007-02-14T09:37:56.001Z</time>
</trkpt>
<trkpt lat="44.7681900" lon="9.1781800">
<ele>769.680969</ele>
<time>2007-02-14T09:38:02.099Z</time>
</trkpt>
<trkpt lat="44.7681300" lon="9.1780700">
<ele>769.193298</ele>
<time>2007-02-14T09:38:11.000Z</time>
</trkpt>
<trkpt lat="44.7680700" lon="9.1779500">
<ele>769.193298</ele>
<time>2007-02-14T09:38:19.000Z</time>
</trkpt>
<trkpt lat="44.7680100" lon="9.1778500">
<ele>767.760681</ele>
<time>2007-02-14T09:38:25.099Z</time>
</trkpt>
<trkpt lat="44.7679500" lon="9.1777300">
<ele>768.217896</ele>
<time>2007-02-14T09:38:35.002Z</time>
</trkpt>
<trkpt lat="44.7678800" lon="9.1776600">
<ele>769.680969</ele>
<time>2007-02-14T09:38:56.099Z</time>
</trkpt>
<trkpt lat="44.7678000" lon="9.1776000">
<ele>769.680969</ele>
<time>2007-02-14T09:39:10.096Z</time>
</trkpt>
<trkpt lat="44.7677100" lon="9.1775400">
<ele>769.193298</ele>
<time>2007-02-14T09:39:18.096Z</time>
</trkpt>
<trkpt lat="44.7676100" lon="9.1775100">
<ele>768.217896</ele>
<time>2007-02-14T09:39:26.097Z</time>
</trkpt>
<trkpt lat="44.7675100" lon="9.1774700">
<ele>767.273071</ele>
<time>2007-02-14T09:39:34.098Z</time>
</trkpt>
<trkpt lat="44.7674300" lon="9.1774400">
<ele>766.297729</ele>
<time>2007-02-14T09:39:41.096Z</time>
</trkpt>
<trkpt lat="44.7673300" lon="9.1773900">
<ele>766.297729</ele>
<time>2007-02-14T09:39:50.099Z</time>
</trkpt>
<trkpt lat="44.7672600" lon="9.1772900">
<ele>766.785339</ele>
<time>2007-02-14T09:39:59.000Z</time>
</trkpt>
<trkpt lat="44.7671900" lon="9.1772100">
<ele>767.760681</ele>
<time>2007-02-14T09:40:07.000Z</time>
</trkpt>
<trkpt lat="44.7671000" lon="9.1771600">
<ele>767.760681</ele>
<time>2007-02-14T09:40:15.001Z</time>
</trkpt>
<trkpt lat="44.7670200" lon="9.1771400">
<ele>766.785339</ele>
<time>2007-02-14T09:40:47.004Z</time>
</trkpt>
<trkpt lat="44.7669200" lon="9.1771600">
<ele>765.352783</ele>
<time>2007-02-14T09:40:58.096Z</time>
</trkpt>
<trkpt lat="44.7668200" lon="9.1772100">
<ele>764.865112</ele>
<time>2007-02-14T09:41:06.096Z</time>
</trkpt>
<trkpt lat="44.7667300" lon="9.1772400">
<ele>764.377441</ele>
<time>2007-02-14T09:41:14.004Z</time>
</trkpt>
<trkpt lat="44.7666500" lon="9.1772500">
<ele>764.377441</ele>
<time>2007-02-14T09:41:21.002Z</time>
</trkpt>
<trkpt lat="44.7665400" lon="9.1772500">
<ele>764.377441</ele>
<time>2007-02-14T09:41:29.003Z</time>
</trkpt>
<trkpt lat="44.7664500" lon="9.1772300">
<ele>762.457214</ele>
<time>2007-02-14T09:41:37.003Z</time>
</trkpt>
<trkpt lat="44.7663600" lon="9.1772100">
<ele>761.969482</ele>
<time>2007-02-14T09:42:03.001Z</time>
</trkpt>
<trkpt lat="44.7662700" lon="9.1772000">
<ele>762.944885</ele>
<time>2007-02-14T09:42:12.004Z</time>
</trkpt>
<trkpt lat="44.7661600" lon="9.1771800">
<ele>762.457214</ele>
<time>2007-02-14T09:42:20.098Z</time>
</trkpt>
<trkpt lat="44.7660700" lon="9.1772000">
<ele>761.969482</ele>
<time>2007-02-14T09:42:28.099Z</time>
</trkpt>
<trkpt lat="44.7659800" lon="9.1772400">
<ele>761.512268</ele>
<time>2007-02-14T09:42:38.002Z</time>
</trkpt>
<trkpt lat="44.7658800" lon="9.1772700">
<ele>762.457214</ele>
<time>2007-02-14T09:42:46.096Z</time>
</trkpt>
<trkpt lat="44.7658000" lon="9.1772500">
<ele>762.457214</ele>
<time>2007-02-14T09:42:54.003Z</time>
</trkpt>
<trkpt lat="44.7657100" lon="9.1772300">
<ele>762.944885</ele>
<time>2007-02-14T09:43:02.004Z</time>
</trkpt>
<trkpt lat="44.7656100" lon="9.1771900">
<ele>762.457214</ele>
<time>2007-02-14T09:43:10.004Z</time>
</trkpt>
<trkpt lat="44.7655200" lon="9.1771500">
<ele>761.512268</ele>
<time>2007-02-14T09:43:17.096Z</time>
</trkpt>
<trkpt lat="44.7654400" lon="9.1770700">
<ele>759.104370</ele>
<time>2007-02-14T09:43:25.003Z</time>
</trkpt>
<trkpt lat="44.7653900" lon="9.1769700">
<ele>756.696533</ele>
<time>2007-02-14T09:43:32.002Z</time>
</trkpt>
<trkpt lat="44.7653500" lon="9.1768600">
<ele>756.208801</ele>
<time>2007-02-14T09:43:39.000Z</time>
</trkpt>
<trkpt lat="44.7652900" lon="9.1767500">
<ele>755.263916</ele>
<time>2007-02-14T09:43:45.098Z</time>
</trkpt>
<trkpt lat="44.7652100" lon="9.1766900">
<ele>754.288574</ele>
<time>2007-02-14T09:43:52.097Z</time>
</trkpt>
<trkpt lat="44.7651100" lon="9.1766500">
<ele>752.856018</ele>
<time>2007-02-14T09:44:00.097Z</time>
</trkpt>
<trkpt lat="44.7650300" lon="9.1766100">
<ele>752.368286</ele>
<time>2007-02-14T09:44:10.000Z</time>
</trkpt>
<trkpt lat="44.7649300" lon="9.1765700">
<ele>752.368286</ele>
<time>2007-02-14T09:44:19.003Z</time>
</trkpt>
<trkpt lat="44.7648600" lon="9.1765000">
<ele>752.856018</ele>
<time>2007-02-14T09:44:29.000Z</time>
</trkpt>
<trkpt lat="44.7648700" lon="9.1763600">
<ele>753.343689</ele>
<time>2007-02-14T09:44:38.003Z</time>
</trkpt>
<trkpt lat="44.7648700" lon="9.1762200">
<ele>754.288574</ele>
<time>2007-02-14T09:44:47.099Z</time>
</trkpt>
<trkpt lat="44.7648000" lon="9.1761300">
<ele>754.776245</ele>
<time>2007-02-14T09:44:57.002Z</time>
</trkpt>
<trkpt lat="44.7647100" lon="9.1760900">
<ele>755.263916</ele>
<time>2007-02-14T09:45:05.003Z</time>
</trkpt>
<trkpt lat="44.7646200" lon="9.1760600">
<ele>755.721069</ele>
<time>2007-02-14T09:45:12.001Z</time>
</trkpt>
<trkpt lat="44.7645200" lon="9.1760200">
<ele>756.208801</ele>
<time>2007-02-14T09:45:20.002Z</time>
</trkpt>
<trkpt lat="44.7644300" lon="9.1759900">
<ele>756.208801</ele>
<time>2007-02-14T09:45:27.000Z</time>
</trkpt>
<trkpt lat="44.7643300" lon="9.1759600">
<ele>756.696533</ele>
<time>2007-02-14T09:45:35.001Z</time>
</trkpt>
<trkpt lat="44.7642500" lon="9.1759300">
<ele>756.208801</ele>
<time>2007-02-14T09:45:41.099Z</time>
</trkpt>
<trkpt lat="44.7641500" lon="9.1758900">
<ele>754.776245</ele>
<time>2007-02-14T09:45:50.000Z</time>
</trkpt>
<trkpt lat="44.7640900" lon="9.1758100">
<ele>754.288574</ele>
<time>2007-02-14T09:45:59.003Z</time>
</trkpt>
<trkpt lat="44.7640400" lon="9.1756900">
<ele>752.856018</ele>
<time>2007-02-14T09:46:38.097Z</time>
</trkpt>
<trkpt lat="44.7640700" lon="9.1756000">
<ele>752.368286</ele>
<time>2007-02-14T09:47:09.004Z</time>
</trkpt>
<trkpt lat="44.7641300" lon="9.1754600">
<ele>751.392944</ele>
<time>2007-02-14T09:47:17.098Z</time>
</trkpt>
<trkpt lat="44.7641500" lon="9.1753500">
<ele>751.880676</ele>
<time>2007-02-14T09:47:24.096Z</time>
</trkpt>
<trkpt lat="44.7641400" lon="9.1752000">
<ele>751.392944</ele>
<time>2007-02-14T09:47:32.097Z</time>
</trkpt>
<trkpt lat="44.7641400" lon="9.1750600">
<ele>751.392944</ele>
<time>2007-02-14T09:47:40.098Z</time>
</trkpt>
<trkpt lat="44.7641500" lon="9.1749300">
<ele>750.935730</ele>
<time>2007-02-14T09:47:48.098Z</time>
</trkpt>
<trkpt lat="44.7641700" lon="9.1748000">
<ele>750.935730</ele>
<time>2007-02-14T09:47:56.099Z</time>
</trkpt>
<trkpt lat="44.7641900" lon="9.1746500">
<ele>750.448120</ele>
<time>2007-02-14T09:48:05.000Z</time>
</trkpt>
<trkpt lat="44.7642000" lon="9.1745100">
<ele>750.448120</ele>
<time>2007-02-14T09:48:13.000Z</time>
</trkpt>
<trkpt lat="44.7642200" lon="9.1743800">
<ele>749.960388</ele>
<time>2007-02-14T09:48:21.001Z</time>
</trkpt>
<trkpt lat="44.7642700" lon="9.1742600">
<ele>750.935730</ele>
<time>2007-02-14T09:48:29.002Z</time>
</trkpt>
<trkpt lat="44.7643300" lon="9.1741600">
<ele>752.856018</ele>
<time>2007-02-14T09:48:37.002Z</time>
</trkpt>
<trkpt lat="44.7644100" lon="9.1740800">
<ele>753.343689</ele>
<time>2007-02-14T09:48:45.003Z</time>
</trkpt>
<trkpt lat="44.7644700" lon="9.1739700">
<ele>754.288574</ele>
<time>2007-02-14T09:48:53.004Z</time>
</trkpt>
<trkpt lat="44.7645400" lon="9.1738800">
<ele>754.776245</ele>
<time>2007-02-14T09:49:01.004Z</time>
</trkpt>
<trkpt lat="44.7646000" lon="9.1737800">
<ele>756.208801</ele>
<time>2007-02-14T09:49:11.001Z</time>
</trkpt>
<trkpt lat="44.7645900" lon="9.1737700">
<ele>755.263916</ele>
<time>2007-02-14T09:49:26.000Z</time>
</trkpt>
<trkpt lat="44.7645900" lon="9.1737700">
<ele>761.969482</ele>
<time>2007-02-14T12:01:22.002Z</time>
</trkpt>
</trkseg>
</trk>
</gpx>
