<?xml version="1.0" encoding="utf-8"?>
<gpx xmlns:xsi="http://www.w3.org/2001/XMLSchema-instance" xmlns:xsd="http://www.w3.org/2001/XMLSchema" version="1.1" creator="Catasto Piemonte" xmlns="http://www.topografix.com/GPX/1/1">
  <trk>
    <name>EALA106000B</name>
    <trkseg>
      <trkpt lat="44.7166065727978" lon="9.15404169130178" />
      <trkpt lat="44.7166041126851" lon="9.15409037849281" />
      <trkpt lat="44.7165887" lon="9.1541772" />
      <trkpt lat="44.716528" lon="9.154366" />
      <trkpt lat="44.7164577" lon="9.1545766" />
      <trkpt lat="44.7164198" lon="9.1548224" />
      <trkpt lat="44.7164716" lon="9.1549613" />
      <trkpt lat="44.7165629" lon="9.155035" />
      <trkpt lat="44.7166694" lon="9.1550226" />
      <trkpt lat="44.7168004" lon="9.1550143" />
      <trkpt lat="44.7169335" lon="9.1549636" />
      <trkpt lat="44.7170756" lon="9.1549262" />
      <trkpt lat="44.7171307584488" lon="9.15495743550643" />
      <trkpt lat="44.7171351" lon="9.155025" />
      <trkpt lat="44.7170152" lon="9.1552112" />
      <trkpt lat="44.7169996482506" lon="9.15528502264998" />
      <trkpt lat="44.7170064400849" lon="9.15534773467142" />
      <trkpt lat="44.7170476632861" lon="9.15537678061418" />
      <trkpt lat="44.7171355" lon="9.1553573" />
      <trkpt lat="44.7172424" lon="9.1553373" />
      <trkpt lat="44.7173585" lon="9.1553564" />
      <trkpt lat="44.7174776" lon="9.1553734" />
      <trkpt lat="44.7176681" lon="9.1554127" />
      <trkpt lat="44.7177489955541" lon="9.15547511079278" />
      <trkpt lat="44.7178413" lon="9.1555656" />
      <trkpt lat="44.7179287" lon="9.1555818" />
      <trkpt lat="44.7180342701289" lon="9.1555675058238" />
      <trkpt lat="44.7181512398165" lon="9.15552441494537" />
      <trkpt lat="44.7182457" lon="9.1554744" />
      <trkpt lat="44.7183221" lon="9.1554157" />
      <trkpt lat="44.718393" lon="9.1553055" />
      <trkpt lat="44.718544" lon="9.1552594" />
      <trkpt lat="44.7186583" lon="9.1551933" />
      <trkpt lat="44.71875" lon="9.1550809" />
      <trkpt lat="44.7188505" lon="9.1549672" />
      <trkpt lat="44.718959" lon="9.1548469" />
      <trkpt lat="44.7190873" lon="9.154735" />
      <trkpt lat="44.719313" lon="9.154663" />
      <trkpt lat="44.7195584" lon="9.1546746" />
      <trkpt lat="44.7197041" lon="9.1546856" />
      <trkpt lat="44.7198604" lon="9.1546996" />
      <trkpt lat="44.7200451" lon="9.1546747" />
      <trkpt lat="44.7202378" lon="9.1546965" />
      <trkpt lat="44.7203356" lon="9.1547403" />
      <trkpt lat="44.7204429" lon="9.1547132" />
      <trkpt lat="44.7206102" lon="9.1546218" />
      <trkpt lat="44.7208001183325" lon="9.15464891679682" />
      <trkpt lat="44.7209357" lon="9.1547515" />
      <trkpt lat="44.721044" lon="9.1548417" />
      <trkpt lat="44.7211569" lon="9.1549477" />
      <trkpt lat="44.7212691" lon="9.1550174" />
      <trkpt lat="44.7213451" lon="9.1550492" />
      <trkpt lat="44.7214327" lon="9.1550214" />
      <trkpt lat="44.7215735" lon="9.15488" />
      <trkpt lat="44.7216155" lon="9.1546581" />
      <trkpt lat="44.7216681" lon="9.1545015" />
      <trkpt lat="44.7217365" lon="9.1543712" />
      <trkpt lat="44.721799" lon="9.1542275" />
      <trkpt lat="44.7218661" lon="9.154093" />
      <trkpt lat="44.7219489" lon="9.1539589" />
      <trkpt lat="44.7219978" lon="9.1538107" />
      <trkpt lat="44.7222174" lon="9.1537562" />
      <trkpt lat="44.72225" lon="9.1538922" />
      <trkpt lat="44.7222712" lon="9.1540261" />
      <trkpt lat="44.7222709" lon="9.1541547" />
      <trkpt lat="44.722287" lon="9.1543013" />
      <trkpt lat="44.7223342" lon="9.1544511" />
      <trkpt lat="44.7223686" lon="9.1546162" />
      <trkpt lat="44.7224003" lon="9.1547527" />
      <trkpt lat="44.722404" lon="9.1549363" />
      <trkpt lat="44.722391" lon="9.1551286" />
      <trkpt lat="44.7224663" lon="9.1551474" />
      <trkpt lat="44.7225686" lon="9.1551679" />
      <trkpt lat="44.7226464" lon="9.155298" />
      <trkpt lat="44.7227599" lon="9.1553506" />
      <trkpt lat="44.7229775" lon="9.1554265" />
      <trkpt lat="44.7230718630366" lon="9.15548936657558" />
      <trkpt lat="44.7231416" lon="9.1554995" />
      <trkpt lat="44.7232558" lon="9.1554114" />
      <trkpt lat="44.7233436851699" lon="9.15535987014779" />
      <trkpt lat="44.7234249" lon="9.1553957" />
      <trkpt lat="44.7235266" lon="9.1554907" />
      <trkpt lat="44.7236369" lon="9.1555465" />
      <trkpt lat="44.7237342" lon="9.1556305" />
      <trkpt lat="44.7238176654072" lon="9.15575663867267" />
      <trkpt lat="44.7238564" lon="9.1558292" />
      <trkpt lat="44.7238552787833" lon="9.15591108114593" />
      <trkpt lat="44.7238134" lon="9.1560212" />
      <trkpt lat="44.7238034107349" lon="9.15612316126934" />
      <trkpt lat="44.7238448" lon="9.1561889" />
      <trkpt lat="44.7239525" lon="9.1561538" />
      <trkpt lat="44.7240498" lon="9.1561092" />
      <trkpt lat="44.7241627" lon="9.1560386" />
      <trkpt lat="44.7242508" lon="9.1559608" />
      <trkpt lat="44.7243449" lon="9.1558453" />
      <trkpt lat="44.7244331513752" lon="9.15576793665184" />
      <trkpt lat="44.7246311" lon="9.1557501" />
      <trkpt lat="44.7246927" lon="9.1556231" />
      <trkpt lat="44.7247295" lon="9.1554674" />
      <trkpt lat="44.724707" lon="9.155299" />
      <trkpt lat="44.724643664182" lon="9.15520900586341" />
      <trkpt lat="44.7245921777929" lon="9.15514134290999" />
      <trkpt lat="44.7245923218856" lon="9.15503523213443" />
      <trkpt lat="44.7246646163757" lon="9.15497272309901" />
      <trkpt lat="44.7247621" lon="9.1549686" />
      <trkpt lat="44.7248779" lon="9.1549731" />
      <trkpt lat="44.7249618" lon="9.1548448" />
      <trkpt lat="44.7251171" lon="9.1547537" />
      <trkpt lat="44.7252421" lon="9.1547183" />
      <trkpt lat="44.7253416" lon="9.1546566" />
      <trkpt lat="44.7254354" lon="9.1545691" />
      <trkpt lat="44.7255509" lon="9.1544769" />
      <trkpt lat="44.7256121" lon="9.1543723" />
      <trkpt lat="44.725646" lon="9.1542347" />
      <trkpt lat="44.7257189" lon="9.1541469" />
      <trkpt lat="44.7257845" lon="9.1540422" />
      <trkpt lat="44.7258466" lon="9.1539281" />
      <trkpt lat="44.7258861" lon="9.1537863" />
      <trkpt lat="44.7259548" lon="9.1536594" />
      <trkpt lat="44.7260186" lon="9.153559" />
      <trkpt lat="44.7260818" lon="9.1534077" />
      <trkpt lat="44.726144" lon="9.1532582" />
      <trkpt lat="44.7262407" lon="9.1531326" />
      <trkpt lat="44.7263448" lon="9.1529996" />
      <trkpt lat="44.7264236" lon="9.1528733" />
      <trkpt lat="44.7265527" lon="9.1527554" />
      <trkpt lat="44.7266177" lon="9.1525899" />
      <trkpt lat="44.7266987" lon="9.1524069" />
      <trkpt lat="44.7266961" lon="9.1521635" />
      <trkpt lat="44.7267086" lon="9.1519163" />
      <trkpt lat="44.7267424158932" lon="9.15173211366671" />
      <trkpt lat="44.7267979" lon="9.1516635" />
      <trkpt lat="44.7268833" lon="9.1516382" />
      <trkpt lat="44.7269538" lon="9.1514895" />
      <trkpt lat="44.7269764" lon="9.1512863" />
      <trkpt lat="44.727013" lon="9.1511252" />
      <trkpt lat="44.727044" lon="9.1510031" />
      <trkpt lat="44.7270884" lon="9.1508378" />
      <trkpt lat="44.7271196" lon="9.1506199" />
      <trkpt lat="44.7271317" lon="9.1505518" />
      <trkpt lat="44.7271498294122" lon="9.15047425904074" />
      <trkpt lat="44.727187786782" lon="9.15037306499204" />
      <trkpt lat="44.7271844561749" lon="9.15029105771314" />
      <trkpt lat="44.7271799" lon="9.1502058" />
      <trkpt lat="44.7272211" lon="9.1500906" />
      <trkpt lat="44.7272982" lon="9.1500955" />
      <trkpt lat="44.7273514" lon="9.150202" />
      <trkpt lat="44.727359" lon="9.1503275" />
      <trkpt lat="44.7273819" lon="9.1504287" />
      <trkpt lat="44.7274277" lon="9.1505383" />
      <trkpt lat="44.7274027" lon="9.1506617" />
      <trkpt lat="44.727416" lon="9.1507857" />
      <trkpt lat="44.7274631" lon="9.1508873" />
      <trkpt lat="44.7275119908804" lon="9.15093342831119" />
      <trkpt lat="44.727554886572" lon="9.15099865685235" />
      <trkpt lat="44.7276108" lon="9.1509345" />
      <trkpt lat="44.7276375964184" lon="9.15085899089176" />
      <trkpt lat="44.7276807437716" lon="9.15073369226987" />
      <trkpt lat="44.7277170361664" lon="9.15059149344378" />
      <trkpt lat="44.7277363642935" lon="9.15027560461438" />
      <trkpt lat="44.7277039898865" lon="9.15005364010501" />
      <trkpt lat="44.7276664509074" lon="9.14983648600081" />
      <trkpt lat="44.7276254856111" lon="9.14960967637163" />
      <trkpt lat="44.7276566187953" lon="9.14946746369157" />
      <trkpt lat="44.727725512682" lon="9.14937358295996" />
      <trkpt lat="44.7277835536294" lon="9.14928121416765" />
    </trkseg>
  </trk>
</gpx>