<?xml version="1.0" encoding="utf-8"?>
<gpx xmlns:xsi="http://www.w3.org/2001/XMLSchema-instance" xmlns:xsd="http://www.w3.org/2001/XMLSchema" version="1.1" creator="Catasto Piemonte" xmlns="http://www.topografix.com/GPX/1/1">
  <trk>
    <name>EALA106000C</name>
    <trkseg>
      <trkpt lat="44.7138641601061" lon="9.14599203347662" />
      <trkpt lat="44.7139090820585" lon="9.14606238052645" />
      <trkpt lat="44.7140466915477" lon="9.14620010356812" />
      <trkpt lat="44.7140981" lon="9.1462462" />
      <trkpt lat="44.7142731610263" lon="9.14634915611004" />
      <trkpt lat="44.7143684572617" lon="9.14645814409954" />
      <trkpt lat="44.7144269" lon="9.1465871" />
      <trkpt lat="44.7144799070168" lon="9.14670691363126" />
      <trkpt lat="44.7144962370547" lon="9.14681817147372" />
      <trkpt lat="44.7144966647614" lon="9.14692663708754" />
      <trkpt lat="44.7144870559257" lon="9.14700009208054" />
      <trkpt lat="44.7144562872221" lon="9.14713683816198" />
      <trkpt lat="44.7144332873421" lon="9.14729703839389" />
      <trkpt lat="44.7144015032505" lon="9.14743068436938" />
      <trkpt lat="44.7143714202733" lon="9.14763137318458" />
      <trkpt lat="44.7143757883601" lon="9.147712945157" />
      <trkpt lat="44.7144054658794" lon="9.14782595114086" />
      <trkpt lat="44.7144842411838" lon="9.14802482596463" />
      <trkpt lat="44.7145064000851" lon="9.14818591324431" />
      <trkpt lat="44.7144987948776" lon="9.14830091581465" />
      <trkpt lat="44.7144898" lon="9.1483771" />
      <trkpt lat="44.7144668" lon="9.148516" />
      <trkpt lat="44.7144431698419" lon="9.14864793066202" />
      <trkpt lat="44.7144321848914" lon="9.14880181597265" />
      <trkpt lat="44.7144278083851" lon="9.14899295685203" />
      <trkpt lat="44.7144276091208" lon="9.14914562168911" />
      <trkpt lat="44.7144276" lon="9.1493711" />
      <trkpt lat="44.7144332" lon="9.1495473" />
      <trkpt lat="44.7144476646262" lon="9.14977306526139" />
      <trkpt lat="44.7144673830424" lon="9.1499660698758" />
      <trkpt lat="44.7144770434642" lon="9.15011193292255" />
      <trkpt lat="44.714502272658" lon="9.1502767880428" />
      <trkpt lat="44.7143944" lon="9.1505124" />
      <trkpt lat="44.7143351" lon="9.1505914" />
      <trkpt lat="44.7142842" lon="9.1507329" />
      <trkpt lat="44.7142868" lon="9.1509084" />
      <trkpt lat="44.7142682" lon="9.1510623" />
      <trkpt lat="44.7142064" lon="9.1511785" />
      <trkpt lat="44.7141385" lon="9.1512616" />
      <trkpt lat="44.714052" lon="9.1513127" />
      <trkpt lat="44.7139666" lon="9.1513566" />
      <trkpt lat="44.7138717" lon="9.151474" />
      <trkpt lat="44.7137516" lon="9.1515684" />
      <trkpt lat="44.7136561" lon="9.1517045" />
      <trkpt lat="44.7135426" lon="9.1517998" />
      <trkpt lat="44.7134204" lon="9.1518801" />
      <trkpt lat="44.7133045" lon="9.1519324" />
      <trkpt lat="44.7131726" lon="9.1519973" />
      <trkpt lat="44.7130869288679" lon="9.15205111791507" />
      <trkpt lat="44.7129352" lon="9.1521219" />
      <trkpt lat="44.7128322" lon="9.1521411" />
      <trkpt lat="44.7127133" lon="9.1521608" />
      <trkpt lat="44.7126154" lon="9.1521841" />
      <trkpt lat="44.7124653" lon="9.1522133" />
      <trkpt lat="44.7123619191388" lon="9.15227089012076" />
      <trkpt lat="44.7122091" lon="9.152431" />
      <trkpt lat="44.7121102" lon="9.1525877" />
      <trkpt lat="44.7120479" lon="9.1526701" />
      <trkpt lat="44.7119925" lon="9.1528555" />
      <trkpt lat="44.7119494" lon="9.1530876" />
      <trkpt lat="44.7119043" lon="9.1532764" />
      <trkpt lat="44.7119009" lon="9.1534616" />
      <trkpt lat="44.7118773" lon="9.1536708" />
      <trkpt lat="44.7118624" lon="9.1538799" />
      <trkpt lat="44.7118924" lon="9.1539926" />
      <trkpt lat="44.7119966" lon="9.154089" />
      <trkpt lat="44.7121333" lon="9.1541037" />
      <trkpt lat="44.7122592" lon="9.1541063" />
      <trkpt lat="44.7123117103251" lon="9.15412777064836" />
      <trkpt lat="44.7123354732586" lon="9.1541989355652" />
      <trkpt lat="44.712325" lon="9.1542547" />
      <trkpt lat="44.712253" lon="9.1543562" />
      <trkpt lat="44.7122226" lon="9.1545375" />
      <trkpt lat="44.7122371" lon="9.1547592" />
      <trkpt lat="44.7122273075912" lon="9.1547904655586" />
      <trkpt lat="44.7122024" lon="9.1547848" />
      <trkpt lat="44.7121796" lon="9.1547099" />
      <trkpt lat="44.7121290340888" lon="9.15468355121671" />
      <trkpt lat="44.712054" lon="9.1546851" />
      <trkpt lat="44.7120261" lon="9.1548068" />
      <trkpt lat="44.7120034857146" lon="9.15489652111764" />
      <trkpt lat="44.7119883639099" lon="9.15505123093608" />
      <trkpt lat="44.7119971349055" lon="9.15518090990819" />
      <trkpt lat="44.7120029063266" lon="9.15532312821006" />
      <trkpt lat="44.7119894" lon="9.1554015" />
      <trkpt lat="44.7119400091799" lon="9.15551953433568" />
      <trkpt lat="44.7119484" lon="9.1556963" />
      <trkpt lat="44.7119295" lon="9.1559034" />
      <trkpt lat="44.7119038" lon="9.1560768" />
      <trkpt lat="44.7118690304488" lon="9.15617389422976" />
      <trkpt lat="44.7118510104069" lon="9.15626585915509" />
      <trkpt lat="44.7118747204766" lon="9.15637466609486" />
      <trkpt lat="44.7119103541662" lon="9.15648768768456" />
      <trkpt lat="44.711910136288" lon="9.15664661947319" />
      <trkpt lat="44.7119277385224" lon="9.15686263987059" />
      <trkpt lat="44.7119291168439" lon="9.15694153215035" />
      <trkpt lat="44.7119341" lon="9.1570454" />
      <trkpt lat="44.7118796001441" lon="9.15716515826686" />
      <trkpt lat="44.7118963" lon="9.1572896" />
      <trkpt lat="44.7119240879666" lon="9.15734512324222" />
      <trkpt lat="44.7119951" lon="9.1573905" />
      <trkpt lat="44.7121536377334" lon="9.15741266438624" />
      <trkpt lat="44.7122374731394" lon="9.15747853437171" />
    </trkseg>
  </trk>
</gpx>