<?xml version="1.0" encoding="utf-8"?>
<gpx xmlns:xsi="http://www.w3.org/2001/XMLSchema-instance" xmlns:xsd="http://www.w3.org/2001/XMLSchema" version="1.1" creator="Catasto Piemonte" xmlns="http://www.topografix.com/GPX/1/1">
  <trk>
    <name>EALA107000A</name>
    <trkseg>
      <trkpt lat="44.7277909447721" lon="9.14928327309348" />
      <trkpt lat="44.7280522138525" lon="9.14927947565438" />
      <trkpt lat="44.7282051192136" lon="9.14930221626671" />
      <trkpt lat="44.7283197032483" lon="9.14939190052414" />
      <trkpt lat="44.7283896988441" lon="9.14946806185538" />
      <trkpt lat="44.7284816855303" lon="9.14960947167682" />
      <trkpt lat="44.7285772" lon="9.1499018" />
      <trkpt lat="44.728613" lon="9.1500319" />
      <trkpt lat="44.7286577263309" lon="9.15010149780893" />
      <trkpt lat="44.7287174" lon="9.1502524" />
      <trkpt lat="44.7287622" lon="9.150367" />
      <trkpt lat="44.7288289" lon="9.1504649" />
      <trkpt lat="44.7289222" lon="9.1505375" />
      <trkpt lat="44.7290063" lon="9.1506077" />
      <trkpt lat="44.7290843694304" lon="9.15061181672081" />
      <trkpt lat="44.7291481805475" lon="9.15054493924098" />
      <trkpt lat="44.7291663" lon="9.1504632" />
      <trkpt lat="44.7291260660347" lon="9.15040185670061" />
      <trkpt lat="44.72907" lon="9.150211" />
      <trkpt lat="44.7290508" lon="9.1500725" />
      <trkpt lat="44.7289951" lon="9.1499443" />
      <trkpt lat="44.7289783" lon="9.1497687" />
      <trkpt lat="44.7290675" lon="9.1496344" />
      <trkpt lat="44.7291498" lon="9.1495231" />
      <trkpt lat="44.729254" lon="9.1493744" />
      <trkpt lat="44.729254959987" lon="9.14929821269875" />
      <trkpt lat="44.7292325" lon="9.14924" />
      <trkpt lat="44.729178574497" lon="9.14923544262699" />
      <trkpt lat="44.729114758302" lon="9.14930679110442" />
      <trkpt lat="44.7290535" lon="9.1493517" />
      <trkpt lat="44.7289706" lon="9.1493125" />
      <trkpt lat="44.7288826" lon="9.1492653" />
      <trkpt lat="44.728867" lon="9.1491337" />
      <trkpt lat="44.7288920440215" lon="9.14906486413561" />
      <trkpt lat="44.7289225" lon="9.1490162" />
      <trkpt lat="44.7289496102037" lon="9.14889963963362" />
      <trkpt lat="44.7289784135878" lon="9.14880138397293" />
      <trkpt lat="44.7289458" lon="9.1486138" />
      <trkpt lat="44.7289193" lon="9.1484694" />
      <trkpt lat="44.7288832" lon="9.1483087" />
      <trkpt lat="44.7289032" lon="9.1481766" />
      <trkpt lat="44.7289645" lon="9.1480712" />
      <trkpt lat="44.7290033" lon="9.1479437" />
      <trkpt lat="44.7289836" lon="9.1478044" />
      <trkpt lat="44.7289121" lon="9.1476961" />
      <trkpt lat="44.7288463" lon="9.1476023" />
      <trkpt lat="44.7287781" lon="9.1475236" />
      <trkpt lat="44.7287179" lon="9.1474199" />
      <trkpt lat="44.7286654" lon="9.147311" />
      <trkpt lat="44.7286469" lon="9.1471919" />
      <trkpt lat="44.7286674" lon="9.1470607" />
      <trkpt lat="44.7286616" lon="9.1469265" />
      <trkpt lat="44.7286518" lon="9.1467953" />
      <trkpt lat="44.7286426" lon="9.146663" />
      <trkpt lat="44.72862" lon="9.1465354" />
      <trkpt lat="44.7285723" lon="9.1464322" />
      <trkpt lat="44.728523" lon="9.1463216" />
      <trkpt lat="44.7284959358638" lon="9.14616091415844" />
      <trkpt lat="44.7284913538917" lon="9.14600670528728" />
      <trkpt lat="44.7285067083443" lon="9.14583824834986" />
    </trkseg>
  </trk>
</gpx>