<?xml version="1.0" encoding="utf-8"?>
<gpx xmlns:xsi="http://www.w3.org/2001/XMLSchema-instance" xmlns:xsd="http://www.w3.org/2001/XMLSchema" version="1.1" creator="Catasto Piemonte" xmlns="http://www.topografix.com/GPX/1/1">
  <trk>
    <name>EALA107000B</name>
    <trkseg>
      <trkpt lat="44.7286734184464" lon="9.14490365121328" />
      <trkpt lat="44.7285247" lon="9.1448545" />
      <trkpt lat="44.7284356" lon="9.1448042" />
      <trkpt lat="44.728346" lon="9.1447802" />
      <trkpt lat="44.7282698921424" lon="9.14479817323062" />
      <trkpt lat="44.7282503" lon="9.1448028" />
      <trkpt lat="44.7281682" lon="9.1447165" />
      <trkpt lat="44.7281269" lon="9.1445984" />
      <trkpt lat="44.7281331" lon="9.1444565" />
      <trkpt lat="44.7281080250124" lon="9.14442783811293" />
      <trkpt lat="44.7280601" lon="9.1444506" />
      <trkpt lat="44.7279915" lon="9.1445389" />
      <trkpt lat="44.7279129" lon="9.1446078" />
      <trkpt lat="44.7278276" lon="9.1446345" />
      <trkpt lat="44.7277243" lon="9.1446446" />
      <trkpt lat="44.727627" lon="9.1446558" />
      <trkpt lat="44.7275393" lon="9.144625" />
      <trkpt lat="44.7274611" lon="9.144543" />
      <trkpt lat="44.7274039" lon="9.144442" />
      <trkpt lat="44.7273278" lon="9.1443687" />
      <trkpt lat="44.727259" lon="9.1442659" />
      <trkpt lat="44.7272152" lon="9.1441414" />
      <trkpt lat="44.7272076822535" lon="9.14407553410742" />
      <trkpt lat="44.7271957793638" lon="9.1440263518075" />
      <trkpt lat="44.7271744240784" lon="9.14401790688458" />
      <trkpt lat="44.7271556085081" lon="9.1440286498183" />
      <trkpt lat="44.7270811221934" lon="9.14413396336383" />
      <trkpt lat="44.7269887096473" lon="9.14422244828333" />
      <trkpt lat="44.7268765" lon="9.1442792" />
      <trkpt lat="44.7268125534284" lon="9.1443023328277" />
      <trkpt lat="44.7267249" lon="9.1443169" />
      <trkpt lat="44.7266773" lon="9.1443322" />
      <trkpt lat="44.7266301" lon="9.1444516" />
      <trkpt lat="44.7265486" lon="9.144535" />
      <trkpt lat="44.7264527" lon="9.1445792" />
      <trkpt lat="44.7263578" lon="9.1445446" />
      <trkpt lat="44.7262829" lon="9.1444889" />
      <trkpt lat="44.7261533" lon="9.1444776" />
      <trkpt lat="44.7260155" lon="9.1444987" />
      <trkpt lat="44.725962779626" lon="9.14451121287299" />
      <trkpt lat="44.725931933874" lon="9.14457347479547" />
      <trkpt lat="44.7259286" lon="9.1446859" />
      <trkpt lat="44.7259101" lon="9.1448986" />
      <trkpt lat="44.7258703" lon="9.1449714" />
      <trkpt lat="44.725748" lon="9.1449931" />
      <trkpt lat="44.725552" lon="9.145083" />
      <trkpt lat="44.7254259" lon="9.1452051" />
      <trkpt lat="44.7252974" lon="9.1452832" />
      <trkpt lat="44.7251638" lon="9.1453471" />
      <trkpt lat="44.7250518" lon="9.1453032" />
      <trkpt lat="44.7249388" lon="9.1452626" />
      <trkpt lat="44.7248104" lon="9.1452687" />
      <trkpt lat="44.7246645" lon="9.1452459" />
      <trkpt lat="44.7245443" lon="9.1452346" />
      <trkpt lat="44.7244365" lon="9.145235" />
      <trkpt lat="44.7243293" lon="9.1453085" />
      <trkpt lat="44.7241786" lon="9.1453602" />
      <trkpt lat="44.724071" lon="9.1454146" />
      <trkpt lat="44.7239807" lon="9.1455581" />
      <trkpt lat="44.7238657" lon="9.145718" />
      <trkpt lat="44.723744" lon="9.1457727" />
      <trkpt lat="44.7236332" lon="9.1457997" />
      <trkpt lat="44.7234913" lon="9.1458146" />
      <trkpt lat="44.7233919" lon="9.1458248" />
      <trkpt lat="44.7232564" lon="9.145741" />
      <trkpt lat="44.7231063" lon="9.145718" />
      <trkpt lat="44.7229861" lon="9.1456551" />
      <trkpt lat="44.7228783" lon="9.1456371" />
      <trkpt lat="44.7227915" lon="9.1455803" />
      <trkpt lat="44.7227062" lon="9.1456097" />
      <trkpt lat="44.722632" lon="9.1456556" />
      <trkpt lat="44.7225238" lon="9.1456311" />
      <trkpt lat="44.7224436639529" lon="9.14563407158678" />
      <trkpt lat="44.7223648845758" lon="9.14575374873545" />
      <trkpt lat="44.7223066591879" lon="9.14583991230245" />
      <trkpt lat="44.7222919" lon="9.1459576" />
      <trkpt lat="44.7223261" lon="9.1460866" />
      <trkpt lat="44.722447" lon="9.146226" />
      <trkpt lat="44.7225779" lon="9.1463689" />
      <trkpt lat="44.7226807" lon="9.1465507" />
      <trkpt lat="44.722761" lon="9.1467428" />
      <trkpt lat="44.7228455" lon="9.1469621" />
      <trkpt lat="44.7229255" lon="9.1471227" />
      <trkpt lat="44.7230232" lon="9.1472566" />
      <trkpt lat="44.723039691318" lon="9.14736418141228" />
    </trkseg>
  </trk>
</gpx>