<?xml version="1.0" encoding="UTF-8" standalone="yes"?>
<gpx
 xmlns="http://www.topografix.com/GPX/1/1"
 creator="OziExplorer Version 3955k - http://www.oziexplorer.com"
 version="1.1"
 xmlns:xsi="http://www.w3.org/2001/XMLSchema-instance"
 xsi:schemaLocation="http://www.topografix.com/GPX/1/1 http://www.topografix.com/GPX/1/1/gpx.xsd">
<metadata>
 <time>2013-08-30T07:27:08Z</time>
 <bounds minlat="44.697490" minlon="9.166835" maxlat="44.704040" maxlon="9.177554"/>
</metadata>
<wpt lat="44.7030682" lon="9.1775543">
 <ele>1376.999878</ele>
 <time>2010-09-03T12:32:44.049Z</time>
 <name>STALLE SALOGNI</name>
 <sym>Airport</sym>
</wpt>
<wpt lat="44.6992963" lon="9.1668349">
 <ele>1397.000000</ele>
 <time>2010-09-03T12:34:52.003Z</time>
 <name>RIFUGIO EZIO ORSI</name>
 <sym>Airport</sym>
</wpt>
<wpt lat="44.6981800" lon="9.1715800">
 <ele>1446.000122</ele>
 <time>2013-08-28T08:35:42.026Z</time>
 <name>INCROCIO CON SENTIERO 108</name>
 <sym>Flag, Blue</sym>
</wpt>
<trk>
<name>SENTIERO 113</name>
 <desc>SENTIERO 113</desc>
<trkseg>
<trkpt lat="44.7030600" lon="9.1775200">
<ele>1388.760132</ele>
<time>2007-05-30T06:46:07.003Z</time>
</trkpt>
<trkpt lat="44.7030900" lon="9.1774300">
<ele>1369.039673</ele>
<time>2007-05-30T06:52:59.002Z</time>
</trkpt>
<trkpt lat="44.7031900" lon="9.1774200">
<ele>1369.527466</ele>
<time>2007-05-30T06:53:07.096Z</time>
</trkpt>
<trkpt lat="44.7032800" lon="9.1773800">
<ele>1370.502686</ele>
<time>2007-05-30T06:53:15.096Z</time>
</trkpt>
<trkpt lat="44.7033600" lon="9.1773500">
<ele>1371.447632</ele>
<time>2007-05-30T06:53:23.097Z</time>
</trkpt>
<trkpt lat="44.7034500" lon="9.1772900">
<ele>1371.935303</ele>
<time>2007-05-30T06:53:37.000Z</time>
</trkpt>
<trkpt lat="44.7035400" lon="9.1772000">
<ele>1371.935303</ele>
<time>2007-05-30T06:53:45.001Z</time>
</trkpt>
<trkpt lat="44.7036100" lon="9.1771100">
<ele>1371.935303</ele>
<time>2007-05-30T06:53:53.002Z</time>
</trkpt>
<trkpt lat="44.7036900" lon="9.1770100">
<ele>1371.935303</ele>
<time>2007-05-30T06:54:01.002Z</time>
</trkpt>
<trkpt lat="44.7037500" lon="9.1769100">
<ele>1371.935303</ele>
<time>2007-05-30T06:54:08.001Z</time>
</trkpt>
<trkpt lat="44.7038000" lon="9.1767900">
<ele>1372.422974</ele>
<time>2007-05-30T06:54:16.001Z</time>
</trkpt>
<trkpt lat="44.7038400" lon="9.1767100">
<ele>1373.367798</ele>
<time>2007-05-30T06:54:28.096Z</time>
</trkpt>
<trkpt lat="44.7038700" lon="9.1765900">
<ele>1374.830933</ele>
<time>2007-05-30T06:54:39.001Z</time>
</trkpt>
<trkpt lat="44.7039000" lon="9.1764700">
<ele>1377.238770</ele>
<time>2007-05-30T06:54:50.000Z</time>
</trkpt>
<trkpt lat="44.7039300" lon="9.1763500">
<ele>1379.158936</ele>
<time>2007-05-30T06:54:59.096Z</time>
</trkpt>
<trkpt lat="44.7039700" lon="9.1762200">
<ele>1382.024170</ele>
<time>2007-05-30T06:55:11.004Z</time>
</trkpt>
<trkpt lat="44.7040100" lon="9.1761100">
<ele>1382.999512</ele>
<time>2007-05-30T06:55:22.002Z</time>
</trkpt>
<trkpt lat="44.7040400" lon="9.1759900">
<ele>1386.352295</ele>
<time>2007-05-30T06:55:34.097Z</time>
</trkpt>
<trkpt lat="44.7040400" lon="9.1758600">
<ele>1387.815430</ele>
<time>2007-05-30T06:56:05.097Z</time>
</trkpt>
<trkpt lat="44.7039600" lon="9.1757600">
<ele>1388.760132</ele>
<time>2007-05-30T06:56:33.099Z</time>
</trkpt>
<trkpt lat="44.7038800" lon="9.1756800">
<ele>1389.247925</ele>
<time>2007-05-30T06:56:42.000Z</time>
</trkpt>
<trkpt lat="44.7037900" lon="9.1756200">
<ele>1389.247925</ele>
<time>2007-05-30T06:56:50.001Z</time>
</trkpt>
<trkpt lat="44.7037000" lon="9.1755600">
<ele>1390.192749</ele>
<time>2007-05-30T06:57:05.000Z</time>
</trkpt>
<trkpt lat="44.7036100" lon="9.1755100">
<ele>1390.192749</ele>
<time>2007-05-30T06:57:44.001Z</time>
</trkpt>
<trkpt lat="44.7035200" lon="9.1754600">
<ele>1390.192749</ele>
<time>2007-05-30T06:57:52.001Z</time>
</trkpt>
<trkpt lat="44.7034300" lon="9.1754200">
<ele>1390.192749</ele>
<time>2007-05-30T06:57:59.000Z</time>
</trkpt>
<trkpt lat="44.7033400" lon="9.1753700">
<ele>1390.192749</ele>
<time>2007-05-30T06:58:08.003Z</time>
</trkpt>
<trkpt lat="44.7032500" lon="9.1753200">
<ele>1391.655762</ele>
<time>2007-05-30T06:58:21.099Z</time>
</trkpt>
<trkpt lat="44.7031700" lon="9.1752500">
<ele>1392.600708</ele>
<time>2007-05-30T06:58:30.000Z</time>
</trkpt>
<trkpt lat="44.7030900" lon="9.1751900">
<ele>1390.192749</ele>
<time>2007-05-30T06:58:38.001Z</time>
</trkpt>
<trkpt lat="44.7030100" lon="9.1751200">
<ele>1390.192749</ele>
<time>2007-05-30T06:58:46.001Z</time>
</trkpt>
<trkpt lat="44.7029300" lon="9.1750800">
<ele>1389.247925</ele>
<time>2007-05-30T07:00:00.003Z</time>
</trkpt>
<trkpt lat="44.7028100" lon="9.1750300">
<ele>1388.760132</ele>
<time>2007-05-30T07:00:11.002Z</time>
</trkpt>
<trkpt lat="44.7027200" lon="9.1749700">
<ele>1388.272583</ele>
<time>2007-05-30T07:00:23.003Z</time>
</trkpt>
<trkpt lat="44.7026100" lon="9.1749200">
<ele>1389.735596</ele>
<time>2007-05-30T07:00:31.097Z</time>
</trkpt>
<trkpt lat="44.7025100" lon="9.1749000">
<ele>1390.680542</ele>
<time>2007-05-30T07:00:39.097Z</time>
</trkpt>
<trkpt lat="44.7024100" lon="9.1748400">
<ele>1390.680542</ele>
<time>2007-05-30T07:00:47.098Z</time>
</trkpt>
<trkpt lat="44.7023000" lon="9.1747800">
<ele>1391.168213</ele>
<time>2007-05-30T07:00:58.003Z</time>
</trkpt>
<trkpt lat="44.7021800" lon="9.1747200">
<ele>1389.735596</ele>
<time>2007-05-30T07:01:06.097Z</time>
</trkpt>
<trkpt lat="44.7020800" lon="9.1746500">
<ele>1389.735596</ele>
<time>2007-05-30T07:01:16.000Z</time>
</trkpt>
<trkpt lat="44.7019500" lon="9.1746100">
<ele>1387.815430</ele>
<time>2007-05-30T07:01:25.097Z</time>
</trkpt>
<trkpt lat="44.7018400" lon="9.1745800">
<ele>1387.327759</ele>
<time>2007-05-30T07:01:35.000Z</time>
</trkpt>
<trkpt lat="44.7017300" lon="9.1745400">
<ele>1388.272583</ele>
<time>2007-05-30T07:01:44.096Z</time>
</trkpt>
<trkpt lat="44.7016200" lon="9.1745000">
<ele>1387.815430</ele>
<time>2007-05-30T07:01:53.099Z</time>
</trkpt>
<trkpt lat="44.7015200" lon="9.1744400">
<ele>1388.760132</ele>
<time>2007-05-30T07:02:03.002Z</time>
</trkpt>
<trkpt lat="44.7014300" lon="9.1743800">
<ele>1388.760132</ele>
<time>2007-05-30T07:02:12.098Z</time>
</trkpt>
<trkpt lat="44.7013400" lon="9.1743200">
<ele>1389.247925</ele>
<time>2007-05-30T07:02:20.099Z</time>
</trkpt>
<trkpt lat="44.7012200" lon="9.1743000">
<ele>1390.192749</ele>
<time>2007-05-30T07:02:27.097Z</time>
</trkpt>
<trkpt lat="44.7011100" lon="9.1742600">
<ele>1390.192749</ele>
<time>2007-05-30T07:02:35.098Z</time>
</trkpt>
<trkpt lat="44.7010300" lon="9.1741900">
<ele>1390.680542</ele>
<time>2007-05-30T07:02:43.099Z</time>
</trkpt>
<trkpt lat="44.7009200" lon="9.1741400">
<ele>1390.192749</ele>
<time>2007-05-30T07:02:51.099Z</time>
</trkpt>
<trkpt lat="44.7008000" lon="9.1740900">
<ele>1390.680542</ele>
<time>2007-05-30T07:03:00.000Z</time>
</trkpt>
<trkpt lat="44.7007100" lon="9.1740100">
<ele>1391.655762</ele>
<time>2007-05-30T07:03:09.096Z</time>
</trkpt>
<trkpt lat="44.7005800" lon="9.1739500">
<ele>1392.113037</ele>
<time>2007-05-30T07:03:21.004Z</time>
</trkpt>
<trkpt lat="44.7004700" lon="9.1738800">
<ele>1392.600708</ele>
<time>2007-05-30T07:03:29.098Z</time>
</trkpt>
<trkpt lat="44.7003600" lon="9.1738100">
<ele>1391.655762</ele>
<time>2007-05-30T07:03:37.099Z</time>
</trkpt>
<trkpt lat="44.7002700" lon="9.1737500">
<ele>1392.600708</ele>
<time>2007-05-30T07:03:47.002Z</time>
</trkpt>
<trkpt lat="44.7001700" lon="9.1736800">
<ele>1394.063843</ele>
<time>2007-05-30T07:03:55.096Z</time>
</trkpt>
<trkpt lat="44.7000700" lon="9.1736300">
<ele>1395.984009</ele>
<time>2007-05-30T07:04:04.099Z</time>
</trkpt>
<trkpt lat="44.6999700" lon="9.1736100">
<ele>1397.416626</ele>
<time>2007-05-30T07:04:14.002Z</time>
</trkpt>
<trkpt lat="44.6998700" lon="9.1736200">
<ele>1401.256958</ele>
<time>2007-05-30T07:04:27.098Z</time>
</trkpt>
<trkpt lat="44.6997700" lon="9.1736100">
<ele>1404.152588</ele>
<time>2007-05-30T07:04:41.002Z</time>
</trkpt>
<trkpt lat="44.6996700" lon="9.1736000">
<ele>1406.560669</ele>
<time>2007-05-30T07:04:53.096Z</time>
</trkpt>
<trkpt lat="44.6995700" lon="9.1736000">
<ele>1409.425659</ele>
<time>2007-05-30T07:05:09.004Z</time>
</trkpt>
<trkpt lat="44.6995000" lon="9.1736100">
<ele>1411.345947</ele>
<time>2007-05-30T07:05:20.096Z</time>
</trkpt>
<trkpt lat="44.6993900" lon="9.1736000">
<ele>1413.753784</ele>
<time>2007-05-30T07:05:32.097Z</time>
</trkpt>
<trkpt lat="44.6992700" lon="9.1736100">
<ele>1415.674072</ele>
<time>2007-05-30T07:05:46.000Z</time>
</trkpt>
<trkpt lat="44.6991500" lon="9.1736100">
<ele>1415.674072</ele>
<time>2007-05-30T07:05:56.099Z</time>
</trkpt>
<trkpt lat="44.6991200" lon="9.1735600">
<ele>1417.106567</ele>
<time>2007-05-30T07:06:10.002Z</time>
</trkpt>
<trkpt lat="44.6990700" lon="9.1734800">
<ele>1417.106567</ele>
<time>2007-05-30T07:06:21.001Z</time>
</trkpt>
<trkpt lat="44.6989700" lon="9.1734700">
<ele>1417.594238</ele>
<time>2007-05-30T07:06:30.004Z</time>
</trkpt>
<trkpt lat="44.6988400" lon="9.1734700">
<ele>1419.514648</ele>
<time>2007-05-30T07:06:40.000Z</time>
</trkpt>
<trkpt lat="44.6987300" lon="9.1734200">
<ele>1420.977539</ele>
<time>2007-05-30T07:06:50.099Z</time>
</trkpt>
<trkpt lat="44.6986000" lon="9.1734100">
<ele>1422.897827</ele>
<time>2007-05-30T07:07:01.004Z</time>
</trkpt>
<trkpt lat="44.6985100" lon="9.1733600">
<ele>1424.818115</ele>
<time>2007-05-30T07:07:12.003Z</time>
</trkpt>
<trkpt lat="44.6984600" lon="9.1732300">
<ele>1425.763062</ele>
<time>2007-05-30T07:07:21.099Z</time>
</trkpt>
<trkpt lat="44.6984600" lon="9.1731000">
<ele>1428.170898</ele>
<time>2007-05-30T07:07:32.098Z</time>
</trkpt>
<trkpt lat="44.6984600" lon="9.1729700">
<ele>1429.146240</ele>
<time>2007-05-30T07:07:43.003Z</time>
</trkpt>
<trkpt lat="44.6984300" lon="9.1728300">
<ele>1431.066528</ele>
<time>2007-05-30T07:07:55.004Z</time>
</trkpt>
<trkpt lat="44.6983700" lon="9.1727200">
<ele>1432.986694</ele>
<time>2007-05-30T07:08:05.001Z</time>
</trkpt>
<trkpt lat="44.6983300" lon="9.1726100">
<ele>1433.931641</ele>
<time>2007-05-30T07:08:14.097Z</time>
</trkpt>
<trkpt lat="44.6982600" lon="9.1725200">
<ele>1435.851807</ele>
<time>2007-05-30T07:08:25.096Z</time>
</trkpt>
<trkpt lat="44.6981600" lon="9.1724500">
<ele>1438.259766</ele>
<time>2007-05-30T07:08:37.097Z</time>
</trkpt>
<trkpt lat="44.6981300" lon="9.1723400">
<ele>1439.722778</ele>
<time>2007-05-30T07:08:49.004Z</time>
</trkpt>
<trkpt lat="44.6981400" lon="9.1722000">
<ele>1442.587891</ele>
<time>2007-05-30T07:09:11.002Z</time>
</trkpt>
<trkpt lat="44.6981500" lon="9.1720500">
<ele>1444.051025</ele>
<time>2007-05-30T07:09:30.001Z</time>
</trkpt>
<trkpt lat="44.6981400" lon="9.1719100">
<ele>1444.995728</ele>
<time>2007-05-30T07:09:57.001Z</time>
</trkpt>
<trkpt lat="44.6981400" lon="9.1717700">
<ele>1446.428345</ele>
<time>2007-05-30T07:10:06.097Z</time>
</trkpt>
<trkpt lat="44.6981300" lon="9.1716400">
<ele>1447.891357</ele>
<time>2007-05-30T07:10:17.003Z</time>
</trkpt>
<trkpt lat="44.6981100" lon="9.1715100">
<ele>1449.323975</ele>
<time>2007-05-30T07:10:29.004Z</time>
</trkpt>
<trkpt lat="44.6981500" lon="9.1713900">
<ele>1451.731934</ele>
<time>2007-05-30T07:11:41.001Z</time>
</trkpt>
<trkpt lat="44.6981500" lon="9.1712600">
<ele>1452.676758</ele>
<time>2007-05-30T07:11:51.099Z</time>
</trkpt>
<trkpt lat="44.6981300" lon="9.1711400">
<ele>1452.219604</ele>
<time>2007-05-30T07:12:01.002Z</time>
</trkpt>
<trkpt lat="44.6981000" lon="9.1710000">
<ele>1451.731934</ele>
<time>2007-05-30T07:12:09.096Z</time>
</trkpt>
<trkpt lat="44.6980700" lon="9.1708700">
<ele>1450.299438</ele>
<time>2007-05-30T07:12:17.097Z</time>
</trkpt>
<trkpt lat="44.6980400" lon="9.1707600">
<ele>1449.811768</ele>
<time>2007-05-30T07:12:25.098Z</time>
</trkpt>
<trkpt lat="44.6979900" lon="9.1706500">
<ele>1449.811768</ele>
<time>2007-05-30T07:12:33.098Z</time>
</trkpt>
<trkpt lat="44.6979200" lon="9.1705400">
<ele>1449.811768</ele>
<time>2007-05-30T07:12:41.099Z</time>
</trkpt>
<trkpt lat="44.6978600" lon="9.1704400">
<ele>1447.891357</ele>
<time>2007-05-30T07:12:51.002Z</time>
</trkpt>
<trkpt lat="44.6978000" lon="9.1703300">
<ele>1446.428345</ele>
<time>2007-05-30T07:12:59.096Z</time>
</trkpt>
<trkpt lat="44.6977300" lon="9.1702200">
<ele>1444.051025</ele>
<time>2007-05-30T07:13:08.099Z</time>
</trkpt>
<trkpt lat="44.6976700" lon="9.1701000">
<ele>1443.075562</ele>
<time>2007-05-30T07:13:18.002Z</time>
</trkpt>
<trkpt lat="44.6976100" lon="9.1699900">
<ele>1441.642944</ele>
<time>2007-05-30T07:13:27.098Z</time>
</trkpt>
<trkpt lat="44.6975400" lon="9.1698700">
<ele>1440.180054</ele>
<time>2007-05-30T07:13:38.097Z</time>
</trkpt>
<trkpt lat="44.6974900" lon="9.1697500">
<ele>1440.667725</ele>
<time>2007-05-30T07:13:48.000Z</time>
</trkpt>
<trkpt lat="44.6975100" lon="9.1696000">
<ele>1440.180054</ele>
<time>2007-05-30T07:13:57.003Z</time>
</trkpt>
<trkpt lat="44.6975500" lon="9.1694700">
<ele>1440.667725</ele>
<time>2007-05-30T07:14:05.004Z</time>
</trkpt>
<trkpt lat="44.6975900" lon="9.1693400">
<ele>1440.667725</ele>
<time>2007-05-30T07:14:13.004Z</time>
</trkpt>
<trkpt lat="44.6976300" lon="9.1692200">
<ele>1440.667725</ele>
<time>2007-05-30T07:14:20.096Z</time>
</trkpt>
<trkpt lat="44.6976600" lon="9.1690800">
<ele>1438.747437</ele>
<time>2007-05-30T07:14:29.099Z</time>
</trkpt>
<trkpt lat="44.6976300" lon="9.1689500">
<ele>1437.802612</ele>
<time>2007-05-30T07:14:39.002Z</time>
</trkpt>
<trkpt lat="44.6976000" lon="9.1688300">
<ele>1432.986694</ele>
<time>2007-05-30T07:14:47.096Z</time>
</trkpt>
<trkpt lat="44.6975700" lon="9.1687100">
<ele>1430.091064</ele>
<time>2007-05-30T07:14:59.004Z</time>
</trkpt>
<trkpt lat="44.6976400" lon="9.1686300">
<ele>1426.738281</ele>
<time>2007-05-30T07:15:10.002Z</time>
</trkpt>
<trkpt lat="44.6977300" lon="9.1686000">
<ele>1425.305786</ele>
<time>2007-05-30T07:15:18.003Z</time>
</trkpt>
<trkpt lat="44.6978300" lon="9.1686300">
<ele>1423.354980</ele>
<time>2007-05-30T07:15:29.002Z</time>
</trkpt>
<trkpt lat="44.6979300" lon="9.1687400">
<ele>1422.410278</ele>
<time>2007-05-30T07:15:56.002Z</time>
</trkpt>
<trkpt lat="44.6979600" lon="9.1688800">
<ele>1419.514648</ele>
<time>2007-05-30T07:16:07.000Z</time>
</trkpt>
<trkpt lat="44.6980500" lon="9.1689600">
<ele>1417.106567</ele>
<time>2007-05-30T07:16:16.003Z</time>
</trkpt>
<trkpt lat="44.6981500" lon="9.1689500">
<ele>1413.753784</ele>
<time>2007-05-30T07:16:31.096Z</time>
</trkpt>
<trkpt lat="44.6982500" lon="9.1689000">
<ele>1408.937988</ele>
<time>2007-05-30T07:16:46.001Z</time>
</trkpt>
<trkpt lat="44.6983300" lon="9.1688200">
<ele>1407.505371</ele>
<time>2007-05-30T07:16:57.000Z</time>
</trkpt>
<trkpt lat="44.6983600" lon="9.1686900">
<ele>1404.152588</ele>
<time>2007-05-30T07:17:10.003Z</time>
</trkpt>
<trkpt lat="44.6983700" lon="9.1685500">
<ele>1400.769409</ele>
<time>2007-05-30T07:17:22.004Z</time>
</trkpt>
<trkpt lat="44.6983200" lon="9.1684000">
<ele>1399.824463</ele>
<time>2007-05-30T07:17:49.004Z</time>
</trkpt>
<trkpt lat="44.6982900" lon="9.1682700">
<ele>1397.416626</ele>
<time>2007-05-30T07:17:57.098Z</time>
</trkpt>
<trkpt lat="44.6983200" lon="9.1681500">
<ele>1395.008545</ele>
<time>2007-05-30T07:18:08.004Z</time>
</trkpt>
<trkpt lat="44.6984300" lon="9.1681400">
<ele>1394.063843</ele>
<time>2007-05-30T07:18:16.004Z</time>
</trkpt>
<trkpt lat="44.6985500" lon="9.1681200">
<ele>1392.113037</ele>
<time>2007-05-30T07:18:23.096Z</time>
</trkpt>
<trkpt lat="44.6986500" lon="9.1681300">
<ele>1392.113037</ele>
<time>2007-05-30T07:18:31.003Z</time>
</trkpt>
<trkpt lat="44.6987600" lon="9.1681000">
<ele>1391.655762</ele>
<time>2007-05-30T07:18:39.004Z</time>
</trkpt>
<trkpt lat="44.6988500" lon="9.1680400">
<ele>1392.113037</ele>
<time>2007-05-30T07:18:46.096Z</time>
</trkpt>
<trkpt lat="44.6989300" lon="9.1679600">
<ele>1390.680542</ele>
<time>2007-05-30T07:18:55.099Z</time>
</trkpt>
<trkpt lat="44.6990300" lon="9.1678600">
<ele>1388.272583</ele>
<time>2007-05-30T07:19:06.097Z</time>
</trkpt>
<trkpt lat="44.6990600" lon="9.1677200">
<ele>1387.815430</ele>
<time>2007-05-30T07:19:17.003Z</time>
</trkpt>
<trkpt lat="44.6990800" lon="9.1676000">
<ele>1389.247925</ele>
<time>2007-05-30T07:19:26.099Z</time>
</trkpt>
<trkpt lat="44.6991200" lon="9.1674600">
<ele>1390.192749</ele>
<time>2007-05-30T07:19:35.000Z</time>
</trkpt>
<trkpt lat="44.6991800" lon="9.1673200">
<ele>1391.655762</ele>
<time>2007-05-30T07:19:44.096Z</time>
</trkpt>
<trkpt lat="44.6992400" lon="9.1672200">
<ele>1392.113037</ele>
<time>2007-05-30T07:19:55.001Z</time>
</trkpt>
<trkpt lat="44.6992200" lon="9.1670600">
<ele>1391.655762</ele>
<time>2007-05-30T07:22:19.098Z</time>
</trkpt>
<trkpt lat="44.6992600" lon="9.1669800">
<ele>1390.680542</ele>
<time>2007-05-30T07:22:34.003Z</time>
</trkpt>
</trkseg>
<trkseg>
<trkpt lat="44.6992600" lon="9.1669800">
<ele>1392.600708</ele>
<time>2007-05-30T07:47:23.004Z</time>
</trkpt>
<trkpt lat="44.6992960" lon="9.1668460">
<ele>1392.600708</ele>
<time>2007-05-31T07:22:48.042Z</time>
</trkpt>
<trkpt lat="44.6992960" lon="9.1668460">
<ele>1392.600708</ele>
<time>2007-05-31T07:23:21.038Z</time>
</trkpt>
</trkseg>
</trk>
</gpx>