<?xml version="1.0" encoding="utf-8"?>
<gpx xmlns:xsi="http://www.w3.org/2001/XMLSchema-instance" xmlns:xsd="http://www.w3.org/2001/XMLSchema" version="1.1" creator="Catasto Piemonte" xmlns="http://www.topografix.com/GPX/1/1">
  <trk>
    <name>EALA1170000</name>
    <trkseg>
      <trkpt lat="44.8678479054797" lon="8.88571690840166" />
      <trkpt lat="44.867898" lon="8.885713" />
      <trkpt lat="44.8681104772725" lon="8.88580848773303" />
      <trkpt lat="44.8681845960836" lon="8.88584179705674" />
      <trkpt lat="44.8684676728165" lon="8.88593927838586" />
      <trkpt lat="44.8686481806265" lon="8.88599659316953" />
      <trkpt lat="44.8689558237822" lon="8.88605365747489" />
      <trkpt lat="44.8692429841906" lon="8.8861338315253" />
      <trkpt lat="44.8694642485231" lon="8.88617735244971" />
      <trkpt lat="44.8697066486195" lon="8.88636937391114" />
      <trkpt lat="44.8700760092005" lon="8.88662817431997" />
      <trkpt lat="44.8703427034924" lon="8.88674876399821" />
      <trkpt lat="44.8706504318969" lon="8.88689234371312" />
      <trkpt lat="44.8708678694041" lon="8.88696977705716" />
      <trkpt lat="44.8711468410594" lon="8.88706439275751" />
      <trkpt lat="44.8711422611136" lon="8.88704994913372" />
      <trkpt lat="44.8712791232163" lon="8.88712957358758" />
      <trkpt lat="44.8714955918145" lon="8.88721943084532" />
      <trkpt lat="44.8716708401687" lon="8.88725539195091" />
      <trkpt lat="44.8718852399221" lon="8.88725904202099" />
      <trkpt lat="44.8721722798042" lon="8.88721810926755" />
      <trkpt lat="44.8723034934688" lon="8.88719478303" />
      <trkpt lat="44.8723774622277" lon="8.8872097029732" />
      <trkpt lat="44.8723815631263" lon="8.887344585536" />
      <trkpt lat="44.8724062495801" lon="8.88742528241694" />
      <trkpt lat="44.8724632987107" lon="8.88753038626386" />
      <trkpt lat="44.8725489258633" lon="8.88763901830473" />
      <trkpt lat="44.8726344677168" lon="8.88766100664175" />
      <trkpt lat="44.8727182153009" lon="8.88770824466908" />
      <trkpt lat="44.8728460803496" lon="8.88772467949442" />
      <trkpt lat="44.8728191966143" lon="8.88780400957153" />
      <trkpt lat="44.8727267573053" lon="8.88805428015473" />
      <trkpt lat="44.8724949907814" lon="8.88870069077556" />
      <trkpt lat="44.8724617572481" lon="8.88879448551848" />
      <trkpt lat="44.8723777465678" lon="8.88903158675509" />
      <trkpt lat="44.8722894822986" lon="8.88929598204558" />
      <trkpt lat="44.8722168601503" lon="8.88947022470678" />
      <trkpt lat="44.872136784471" lon="8.88964560838536" />
      <trkpt lat="44.8719983928789" lon="8.88973979109671" />
      <trkpt lat="44.8719875943722" lon="8.88974570327145" />
      <trkpt lat="44.8719761469435" lon="8.88975197072786" />
      <trkpt lat="44.8719168503604" lon="8.88978443550816" />
      <trkpt lat="44.8718644928249" lon="8.8898131011115" />
      <trkpt lat="44.871758063324" lon="8.89002093196245" />
      <trkpt lat="44.8716490396898" lon="8.89037487513647" />
      <trkpt lat="44.8715425946181" lon="8.89068932183976" />
      <trkpt lat="44.8714445605347" lon="8.89097891855974" />
      <trkpt lat="44.8712508976805" lon="8.89145989979661" />
      <trkpt lat="44.8712017680077" lon="8.89154842533749" />
      <trkpt lat="44.8710926121694" lon="8.89176779045657" />
      <trkpt lat="44.8709643645129" lon="8.8920371742323" />
      <trkpt lat="44.8708606686622" lon="8.8922488375401" />
      <trkpt lat="44.8705880470034" lon="8.89308753024063" />
      <trkpt lat="44.8704286664588" lon="8.89363746732066" />
      <trkpt lat="44.8704271645364" lon="8.8936426495943" />
      <trkpt lat="44.8704163518357" lon="8.89367995799632" />
      <trkpt lat="44.8702038235335" lon="8.89446854460531" />
      <trkpt lat="44.8701739330668" lon="8.89466853159902" />
      <trkpt lat="44.8701618" lon="8.8949067" />
      <trkpt lat="44.8701221129901" lon="8.89503112143415" />
      <trkpt lat="44.8701114134547" lon="8.89506466509224" />
      <trkpt lat="44.8700444345036" lon="8.89510694583114" />
      <trkpt lat="44.86988178837" lon="8.89510737549884" />
      <trkpt lat="44.8697040616276" lon="8.89509616383259" />
      <trkpt lat="44.8696854204238" lon="8.8950846700002" />
      <trkpt lat="44.869598831845" lon="8.89511013510007" />
      <trkpt lat="44.8695809572264" lon="8.89525139367379" />
      <trkpt lat="44.8695869746632" lon="8.89561927125416" />
      <trkpt lat="44.8695533498882" lon="8.89622157335273" />
      <trkpt lat="44.8695155" lon="8.8965049" />
      <trkpt lat="44.8695004" lon="8.8966121" />
      <trkpt lat="44.8693533000581" lon="8.89722681944902" />
      <trkpt lat="44.8692578417062" lon="8.89748843520039" />
      <trkpt lat="44.8690956489599" lon="8.89790286743822" />
      <trkpt lat="44.8690314280157" lon="8.89806555367503" />
      <trkpt lat="44.8689086352775" lon="8.89839284465639" />
      <trkpt lat="44.8688316" lon="8.8987462" />
      <trkpt lat="44.8687936" lon="8.8989071" />
      <trkpt lat="44.8687632" lon="8.899025" />
      <trkpt lat="44.8687398167277" lon="8.89917244313989" />
      <trkpt lat="44.8686418129828" lon="8.89960221949708" />
      <trkpt lat="44.8685574034621" lon="8.89999837504042" />
      <trkpt lat="44.8684701578148" lon="8.90027919211971" />
      <trkpt lat="44.8683802242333" lon="8.90061383925324" />
      <trkpt lat="44.8682712043345" lon="8.90101003370472" />
      <trkpt lat="44.8682084699603" lon="8.90118315374149" />
      <trkpt lat="44.8681210919228" lon="8.90131402360934" />
      <trkpt lat="44.8680581696627" lon="8.90144622553267" />
      <trkpt lat="44.8680337" lon="8.9014807" />
      <trkpt lat="44.8679729" lon="8.901588" />
      <trkpt lat="44.867912" lon="8.901706" />
      <trkpt lat="44.8678664" lon="8.901824" />
      <trkpt lat="44.8677979" lon="8.9019635" />
      <trkpt lat="44.8677523" lon="8.9020707" />
      <trkpt lat="44.8677067" lon="8.9021994" />
      <trkpt lat="44.867677" lon="8.902306" />
      <trkpt lat="44.8676473168429" lon="8.90238456768452" />
      <trkpt lat="44.867641" lon="8.902379" />
      <trkpt lat="44.867561507648" lon="8.90236842191864" />
      <trkpt lat="44.8672634878599" lon="8.90236508103141" />
      <trkpt lat="44.8669764011554" lon="8.90235787705323" />
      <trkpt lat="44.8667932184721" lon="8.90233682677001" />
      <trkpt lat="44.8667312" lon="8.9023297" />
      <trkpt lat="44.8665580777934" lon="8.90235089502103" />
      <trkpt lat="44.8664405116318" lon="8.90235109378438" />
      <trkpt lat="44.8664201363122" lon="8.90235112823181" />
      <trkpt lat="44.8664147679737" lon="8.90235113730776" />
      <trkpt lat="44.8663448182427" lon="8.90235125556761" />
      <trkpt lat="44.8662738911826" lon="8.90238629749595" />
      <trkpt lat="44.8662355003756" lon="8.90240526466008" />
      <trkpt lat="44.8661563166305" lon="8.90252842520448" />
      <trkpt lat="44.8661210616174" lon="8.90286680805046" />
      <trkpt lat="44.8660641411004" lon="8.90345127989501" />
      <trkpt lat="44.866061481723" lon="8.90353970967048" />
      <trkpt lat="44.8661519436269" lon="8.90382021334293" />
      <trkpt lat="44.8662753462578" lon="8.90425829154693" />
      <trkpt lat="44.8662919600626" lon="8.90450816267691" />
      <trkpt lat="44.8661338983018" lon="8.90512740208492" />
      <trkpt lat="44.8659621563436" lon="8.9057389712809" />
      <trkpt lat="44.8658967123349" lon="8.90595052935613" />
      <trkpt lat="44.86582" lon="8.9062646" />
      <trkpt lat="44.8657331682501" lon="8.90656208033049" />
      <trkpt lat="44.865638" lon="8.906888" />
      <trkpt lat="44.8655897246404" lon="8.9070561974105" />
      <trkpt lat="44.8655522021369" lon="8.90702999884976" />
      <trkpt lat="44.8655503664923" lon="8.90703141060458" />
      <trkpt lat="44.8653589170387" lon="8.90695482809676" />
      <trkpt lat="44.8651291117493" lon="8.90678219499468" />
      <trkpt lat="44.8649184071413" lon="8.90656339834032" />
      <trkpt lat="44.8647514918" lon="8.90639835517403" />
      <trkpt lat="44.864603749615" lon="8.90627557114452" />
      <trkpt lat="44.8644477892032" lon="8.90613357873392" />
      <trkpt lat="44.8643081793838" lon="8.90592620461005" />
      <trkpt lat="44.8641711889454" lon="8.90558042687747" />
      <trkpt lat="44.8640890164734" lon="8.90539987212722" />
      <trkpt lat="44.8639356422184" lon="8.90508103495067" />
      <trkpt lat="44.863857" lon="8.90489" />
      <trkpt lat="44.863804" lon="8.904781" />
      <trkpt lat="44.863748" lon="8.904681" />
      <trkpt lat="44.863687" lon="8.904578" />
      <trkpt lat="44.863619" lon="8.904468" />
      <trkpt lat="44.86356" lon="8.90437" />
      <trkpt lat="44.863503" lon="8.904272" />
      <trkpt lat="44.863439" lon="8.904178" />
      <trkpt lat="44.863382" lon="8.904071" />
      <trkpt lat="44.863319" lon="8.903979" />
      <trkpt lat="44.863252" lon="8.903878" />
      <trkpt lat="44.8631962" lon="8.9037718" />
      <trkpt lat="44.8631351" lon="8.9036647" />
      <trkpt lat="44.8630741" lon="8.9035576" />
      <trkpt lat="44.863018" lon="8.903462" />
      <trkpt lat="44.862974" lon="8.903344" />
      <trkpt lat="44.862931" lon="8.90323" />
      <trkpt lat="44.862893" lon="8.903108" />
      <trkpt lat="44.862871" lon="8.902965" />
      <trkpt lat="44.862868" lon="8.902816" />
      <trkpt lat="44.862898" lon="8.9026362" />
      <trkpt lat="44.862936" lon="8.9024754" />
      <trkpt lat="44.8630197" lon="8.9023681" />
      <trkpt lat="44.8630882" lon="8.9022608" />
      <trkpt lat="44.8632404" lon="8.9020462" />
      <trkpt lat="44.8633089" lon="8.9019389" />
      <trkpt lat="44.863364" lon="8.90183" />
      <trkpt lat="44.863385" lon="8.9017244" />
      <trkpt lat="44.8634153" lon="8.9015958" />
      <trkpt lat="44.8634868638648" lon="8.90139882932693" />
      <trkpt lat="44.863486" lon="8.90113" />
      <trkpt lat="44.8634646851739" lon="8.90104518176568" />
      <trkpt lat="44.8633843" lon="8.9009207" />
      <trkpt lat="44.863308" lon="8.900835" />
      <trkpt lat="44.8631936" lon="8.9007495" />
      <trkpt lat="44.8631097" lon="8.9006853" />
      <trkpt lat="44.8630105" lon="8.9005891" />
      <trkpt lat="44.8629267" lon="8.9005249" />
      <trkpt lat="44.862846" lon="8.900469" />
      <trkpt lat="44.862761" lon="8.900392" />
      <trkpt lat="44.862674" lon="8.900316" />
      <trkpt lat="44.86259" lon="8.900225" />
      <trkpt lat="44.8625529" lon="8.9001076" />
      <trkpt lat="44.8625222" lon="8.8999576" />
      <trkpt lat="44.862495" lon="8.899827" />
      <trkpt lat="44.862515" lon="8.899682" />
      <trkpt lat="44.862562" lon="8.899549" />
      <trkpt lat="44.8626741" lon="8.8993357" />
      <trkpt lat="44.862735" lon="8.899207" />
      <trkpt lat="44.862787" lon="8.899091" />
      <trkpt lat="44.862805" lon="8.898952" />
      <trkpt lat="44.86281" lon="8.898813" />
      <trkpt lat="44.862793" lon="8.898685" />
      <trkpt lat="44.862767" lon="8.898549" />
      <trkpt lat="44.862717" lon="8.898437" />
      <trkpt lat="44.862661" lon="8.898329" />
      <trkpt lat="44.8625511" lon="8.8981035" />
      <trkpt lat="44.8625053" lon="8.8980178" />
      <trkpt lat="44.862424" lon="8.897908" />
      <trkpt lat="44.862399" lon="8.897776" />
      <trkpt lat="44.8623844682581" lon="8.8976630564656" />
      <trkpt lat="44.8623843588205" lon="8.89754099902858" />
      <trkpt lat="44.8623751" lon="8.8972786" />
      <trkpt lat="44.8623749" lon="8.8971071" />
      <trkpt lat="44.8623595" lon="8.8969249" />
      <trkpt lat="44.8623441" lon="8.8967964" />
      <trkpt lat="44.8623211" lon="8.8966249" />
      <trkpt lat="44.8623132" lon="8.8963463" />
      <trkpt lat="44.8623055" lon="8.8961748" />
      <trkpt lat="44.8623054" lon="8.896057" />
      <trkpt lat="44.8622976" lon="8.8959498" />
      <trkpt lat="44.8623031661408" lon="8.89573055603153" />
      <trkpt lat="44.8622593" lon="8.8957355" />
      <trkpt lat="44.862168" lon="8.8958214" />
      <trkpt lat="44.8620848436092" lon="8.89588463054559" />
      <trkpt lat="44.8620302282065" lon="8.89595777089433" />
      <trkpt lat="44.8619320000769" lon="8.89617707317789" />
      <trkpt lat="44.8618407" lon="8.8963793" />
      <trkpt lat="44.8617600832907" lon="8.89654259001715" />
      <trkpt lat="44.8616180841244" lon="8.89673505851689" />
      <trkpt lat="44.8614527" lon="8.8970766" />
      <trkpt lat="44.8614299" lon="8.8972052" />
      <trkpt lat="44.8614072" lon="8.8973232" />
      <trkpt lat="44.8613844" lon="8.8974518" />
      <trkpt lat="44.861383" lon="8.897679" />
      <trkpt lat="44.861399" lon="8.897815" />
      <trkpt lat="44.861413" lon="8.897956" />
      <trkpt lat="44.8614766" lon="8.8982233" />
      <trkpt lat="44.8615224" lon="8.8983732" />
      <trkpt lat="44.8615531" lon="8.8985125" />
      <trkpt lat="44.8615989" lon="8.8986196" />
      <trkpt lat="44.8616554855768" lon="8.89881090627489" />
      <trkpt lat="44.8616754" lon="8.8989302" />
      <trkpt lat="44.8616908" lon="8.8991338" />
      <trkpt lat="44.861661" lon="8.899279" />
      <trkpt lat="44.8615691" lon="8.8993912" />
      <trkpt lat="44.8614397" lon="8.8995844" />
      <trkpt lat="44.8614016" lon="8.899638" />
      <trkpt lat="44.861288" lon="8.899805" />
      <trkpt lat="44.8611733" lon="8.8999814" />
      <trkpt lat="44.8610972" lon="8.900153" />
      <trkpt lat="44.8610592" lon="8.9002709" />
      <trkpt lat="44.861018145383" lon="8.9004203581983" />
      <trkpt lat="44.8609986" lon="8.9006675" />
      <trkpt lat="44.8609911" lon="8.9008605" />
      <trkpt lat="44.8609913" lon="8.9009998" />
      <trkpt lat="44.8609838" lon="8.9011284" />
      <trkpt lat="44.86096" lon="8.901246" />
      <trkpt lat="44.8608438595134" lon="8.90161861751775" />
      <trkpt lat="44.8608058837391" lon="8.90187563633329" />
      <trkpt lat="44.86071" lon="8.902146" />
      <trkpt lat="44.860669" lon="8.902275" />
      <trkpt lat="44.8606076876999" lon="8.90243838421524" />
      <trkpt lat="44.8604370425589" lon="8.90307818620884" />
      <trkpt lat="44.8603635100807" lon="8.90341852130586" />
      <trkpt lat="44.8603350600737" lon="8.90372418264662" />
      <trkpt lat="44.8603271053057" lon="8.90401827704531" />
      <trkpt lat="44.8603026581706" lon="8.90420860537958" />
      <trkpt lat="44.8602905865387" lon="8.90448540747221" />
      <trkpt lat="44.8602745140016" lon="8.90488330816954" />
      <trkpt lat="44.8602257551207" lon="8.90543118569311" />
      <trkpt lat="44.8601563643358" lon="8.90582917259338" />
      <trkpt lat="44.860104" lon="8.906306" />
      <trkpt lat="44.860062776068" lon="8.90672886334948" />
      <trkpt lat="44.8600217073961" lon="8.90696096627126" />
      <trkpt lat="44.8599974584578" lon="8.90709800970003" />
      <trkpt lat="44.8599608336893" lon="8.90744981047726" />
      <trkpt lat="44.8598994984508" lon="8.90767479265124" />
      <trkpt lat="44.8597683361774" lon="8.90776726212006" />
      <trkpt lat="44.859629045921" lon="8.90795200376748" />
      <trkpt lat="44.859575851696" lon="8.90810201029136" />
      <trkpt lat="44.8596826669802" lon="8.90833248968371" />
      <trkpt lat="44.8596848443887" lon="8.90833383466917" />
      <trkpt lat="44.8596785750854" lon="8.90834402864071" />
      <trkpt lat="44.8599332617447" lon="8.9088625877584" />
      <trkpt lat="44.8602701153149" lon="8.90956554387926" />
      <trkpt lat="44.8604139472134" lon="8.90993436228081" />
      <trkpt lat="44.8604263233865" lon="8.91002660389504" />
      <trkpt lat="44.860405" lon="8.910147" />
      <trkpt lat="44.8601475631618" lon="8.91017696129435" />
      <trkpt lat="44.859778486795" lon="8.91021213258518" />
      <trkpt lat="44.8594955345678" lon="8.91024716962425" />
      <trkpt lat="44.8593627523017" lon="8.91019565102988" />
      <trkpt lat="44.8592454220869" lon="8.91013881529616" />
      <trkpt lat="44.8590688662695" lon="8.91005899036031" />
      <trkpt lat="44.8589181" lon="8.9099516" />
      <trkpt lat="44.8587611344428" lon="8.90987495293168" />
      <trkpt lat="44.858634" lon="8.909824" />
      <trkpt lat="44.858547" lon="8.909761" />
      <trkpt lat="44.8584377" lon="8.9097165" />
      <trkpt lat="44.8583386" lon="8.9096631" />
      <trkpt lat="44.8581919945231" lon="8.90958955636519" />
      <trkpt lat="44.8580641" lon="8.9094707" />
      <trkpt lat="44.858001" lon="8.909394" />
      <trkpt lat="44.8579039" lon="8.9092994" />
      <trkpt lat="44.8578353" lon="8.9092245" />
      <trkpt lat="44.8577514" lon="8.9091604" />
      <trkpt lat="44.8576532018831" lon="8.90909250112919" />
      <trkpt lat="44.857576" lon="8.9090321" />
      <trkpt lat="44.857413" lon="8.908919" />
      <trkpt lat="44.857323" lon="8.908857" />
      <trkpt lat="44.857234" lon="8.908801" />
      <trkpt lat="44.8571792509265" lon="8.90875737836094" />
      <trkpt lat="44.8570193" lon="8.9086472" />
      <trkpt lat="44.8569507" lon="8.9086044" />
      <trkpt lat="44.8568668" lon="8.9085295" />
      <trkpt lat="44.8568272874146" lon="8.90848345847152" />
      <trkpt lat="44.856674211055" lon="8.90843387277208" />
      <trkpt lat="44.8566228" lon="8.9083692" />
      <trkpt lat="44.8565389" lon="8.9082836" />
      <trkpt lat="44.8564083224142" lon="8.90802929189836" />
      <trkpt lat="44.856341" lon="8.907908" />
      <trkpt lat="44.8563357011277" lon="8.90780877869436" />
      <trkpt lat="44.8563427383818" lon="8.90763579048822" />
      <trkpt lat="44.8563794690119" lon="8.90741374450886" />
      <trkpt lat="44.8563834649178" lon="8.9072840052811" />
      <trkpt lat="44.8563422940674" lon="8.90708803077379" />
      <trkpt lat="44.8562662701304" lon="8.90690076154722" />
      <trkpt lat="44.8561820836014" lon="8.90676251599948" />
      <trkpt lat="44.8560056374547" lon="8.90664460048226" />
      <trkpt lat="44.8557020082202" lon="8.906469233081" />
      <trkpt lat="44.8554166638646" lon="8.90628075911596" />
      <trkpt lat="44.855416713162" lon="8.90614680971214" />
      <trkpt lat="44.8553848464406" lon="8.90590389952628" />
      <trkpt lat="44.855318940294" lon="8.90569723635168" />
      <trkpt lat="44.855191637719" lon="8.90549564166516" />
      <trkpt lat="44.855099285385" lon="8.90540354030974" />
      <trkpt lat="44.855099799188" lon="8.90540326151677" />
      <trkpt lat="44.8550513256228" lon="8.90537011802575" />
      <trkpt lat="44.8552104" lon="8.9053174" />
      <trkpt lat="44.8552866" lon="8.9053494" />
      <trkpt lat="44.8553629" lon="8.9054243" />
      <trkpt lat="44.8554315" lon="8.9054349" />
      <trkpt lat="44.8555229" lon="8.9054026" />
      <trkpt lat="44.8556296" lon="8.9053596" />
      <trkpt lat="44.8556981" lon="8.9053059" />
      <trkpt lat="44.855785" lon="8.905268" />
      <trkpt lat="44.855867" lon="8.905213" />
      <trkpt lat="44.855927107143" lon="8.90516743601092" />
      <trkpt lat="44.8560177381193" lon="8.90515410435859" />
      <trkpt lat="44.8563745048984" lon="8.90511315739766" />
      <trkpt lat="44.8565713362732" lon="8.90508400454022" />
      <trkpt lat="44.8566983857004" lon="8.90498000900229" />
      <trkpt lat="44.8567165060562" lon="8.9049610377382" />
      <trkpt lat="44.8567853699889" lon="8.90488893990557" />
      <trkpt lat="44.8568418012098" lon="8.90482985846937" />
      <trkpt lat="44.8569482820808" lon="8.90465093832613" />
      <trkpt lat="44.8569588060847" lon="8.90462225012304" />
      <trkpt lat="44.8569596103582" lon="8.90462005768996" />
      <trkpt lat="44.8570096596393" lon="8.90448362402759" />
      <trkpt lat="44.8570197348433" lon="8.90444096155815" />
      <trkpt lat="44.8570414987276" lon="8.9043488042296" />
      <trkpt lat="44.8570546130174" lon="8.904293272692" />
      <trkpt lat="44.8570671729128" lon="8.90418142726452" />
      <trkpt lat="44.8570771887896" lon="8.90409223549886" />
      <trkpt lat="44.8570870857091" lon="8.9038924837414" />
      <trkpt lat="44.8571013377809" lon="8.9037713745603" />
      <trkpt lat="44.8571788285672" lon="8.90326095603066" />
      <trkpt lat="44.8571724224721" lon="8.90296113569034" />
      <trkpt lat="44.8571844756879" lon="8.90266705030085" />
      <trkpt lat="44.8572333941407" lon="8.90232100860352" />
      <trkpt lat="44.8573929980876" lon="8.90192288449259" />
      <trkpt lat="44.8575199057021" lon="8.90165743229423" />
      <trkpt lat="44.8576304926825" lon="8.90149002925598" />
      <trkpt lat="44.8577000753736" lon="8.90133134466103" />
      <trkpt lat="44.8577368216323" lon="8.90123339967671" />
      <trkpt lat="44.857737" lon="8.901233" />
      <trkpt lat="44.85779" lon="8.901118" />
      <trkpt lat="44.857837" lon="8.90101" />
      <trkpt lat="44.857887" lon="8.900894" />
      <trkpt lat="44.857939" lon="8.900771" />
      <trkpt lat="44.857985" lon="8.900648" />
      <trkpt lat="44.858029" lon="8.900528" />
      <trkpt lat="44.85807" lon="8.900405" />
      <trkpt lat="44.858106" lon="8.900283" />
      <trkpt lat="44.85813" lon="8.900157" />
      <trkpt lat="44.858153" lon="8.900022" />
      <trkpt lat="44.858183" lon="8.899884" />
      <trkpt lat="44.858226" lon="8.899759" />
      <trkpt lat="44.858265" lon="8.899647" />
      <trkpt lat="44.858306" lon="8.899523" />
      <trkpt lat="44.85836" lon="8.899408" />
      <trkpt lat="44.858426" lon="8.899311" />
      <trkpt lat="44.8585245126885" lon="8.89910421551947" />
      <trkpt lat="44.8586116" lon="8.898957" />
      <trkpt lat="44.8586649" lon="8.8988605" />
      <trkpt lat="44.8587638" lon="8.8986353" />
      <trkpt lat="44.8588399" lon="8.8985173" />
      <trkpt lat="44.8588855" lon="8.8984422" />
      <trkpt lat="44.8589237191298" lon="8.89836400873488" />
      <trkpt lat="44.858954" lon="8.8982491" />
      <trkpt lat="44.8589539" lon="8.8981634" />
      <trkpt lat="44.8589309" lon="8.8980349" />
      <trkpt lat="44.858886" lon="8.89794" />
      <trkpt lat="44.8588621" lon="8.8978421" />
      <trkpt lat="44.8587753810289" lon="8.89758439898442" />
      <trkpt lat="44.858726333782" lon="8.89741047212955" />
      <trkpt lat="44.8586787" lon="8.8972316" />
      <trkpt lat="44.8586786" lon="8.8970923" />
      <trkpt lat="44.8586989617611" lon="8.89700431268821" />
      <trkpt lat="44.8587377934041" lon="8.89683198457235" />
      <trkpt lat="44.8587909780428" lon="8.89668773601007" />
      <trkpt lat="44.8588728078464" lon="8.89647424206576" />
      <trkpt lat="44.8589361977866" lon="8.89627807910165" />
      <trkpt lat="44.8589597" lon="8.8961809" />
      <trkpt lat="44.8590282062007" lon="8.8959838393871" />
      <trkpt lat="44.8590916005572" lon="8.89579344152258" />
      <trkpt lat="44.859189793732" lon="8.89553666924915" />
      <trkpt lat="44.8592511684637" lon="8.89538087115659" />
      <trkpt lat="44.859296" lon="8.895237" />
      <trkpt lat="44.859341" lon="8.895103" />
      <trkpt lat="44.859376" lon="8.894977" />
      <trkpt lat="44.8594167751702" lon="8.89484719720552" />
      <trkpt lat="44.8594710848246" lon="8.89474287851214" />
      <trkpt lat="44.8594903885807" lon="8.89462218089856" />
      <trkpt lat="44.8595069" lon="8.8944545" />
      <trkpt lat="44.8594992" lon="8.8943581" />
      <trkpt lat="44.8594761" lon="8.8941974" />
      <trkpt lat="44.8594075562053" lon="8.893748751912" />
      <trkpt lat="44.8593841" lon="8.8935867" />
      <trkpt lat="44.8593535" lon="8.8934903" />
      <trkpt lat="44.859307" lon="8.893275" />
      <trkpt lat="44.859287" lon="8.893146" />
      <trkpt lat="44.85926" lon="8.893016" />
      <trkpt lat="44.859228" lon="8.892886" />
      <trkpt lat="44.859192" lon="8.892759" />
      <trkpt lat="44.859148" lon="8.892646" />
      <trkpt lat="44.859099" lon="8.892531" />
      <trkpt lat="44.859046" lon="8.892426" />
      <trkpt lat="44.858991" lon="8.892311" />
      <trkpt lat="44.858941" lon="8.892203" />
      <trkpt lat="44.858901" lon="8.892087" />
      <trkpt lat="44.85887" lon="8.891963" />
      <trkpt lat="44.858846" lon="8.891828" />
      <trkpt lat="44.858817" lon="8.891575" />
      <trkpt lat="44.8587970887793" lon="8.89118357184399" />
      <trkpt lat="44.8588104339653" lon="8.89101783061819" />
      <trkpt lat="44.8588481" lon="8.8908871" />
      <trkpt lat="44.8589013" lon="8.8907692" />
      <trkpt lat="44.8589394" lon="8.8907048" />
      <trkpt lat="44.8590538" lon="8.8907796" />
      <trkpt lat="44.8592139" lon="8.8909186" />
      <trkpt lat="44.8594112108034" lon="8.8910977322256" />
      <trkpt lat="44.8596985109198" lon="8.89132784002159" />
      <trkpt lat="44.8597559489456" lon="8.89135079693696" />
      <trkpt lat="44.8598051462704" lon="8.89133340567904" />
      <trkpt lat="44.8598583788705" lon="8.89124681179878" />
      <trkpt lat="44.8599198027101" lon="8.89114866981434" />
      <trkpt lat="44.8600672625293" lon="8.89095810503267" />
      <trkpt lat="44.8601942769338" lon="8.89083100705523" />
      <trkpt lat="44.8603500599149" lon="8.89076728338216" />
      <trkpt lat="44.8605263265197" lon="8.89068045534428" />
      <trkpt lat="44.8607066886762" lon="8.89058785268446" />
      <trkpt lat="44.8609034332238" lon="8.89047215297412" />
      <trkpt lat="44.8611924174746" lon="8.89031879591548" />
      <trkpt lat="44.8612969524205" lon="8.89027246629341" />
      <trkpt lat="44.8615121601072" lon="8.89016537883899" />
      <trkpt lat="44.8616658282723" lon="8.89003534198267" />
      <trkpt lat="44.8618651" lon="8.8898312" />
      <trkpt lat="44.861961" lon="8.889756" />
      <trkpt lat="44.8620643213972" lon="8.88967850388001" />
      <trkpt lat="44.8622208346409" lon="8.88954667272099" />
      <trkpt lat="44.8621617152752" lon="8.88966966816052" />
      <trkpt lat="44.862085056659" lon="8.88991633126544" />
      <trkpt lat="44.8620012759455" lon="8.89022067189724" />
      <trkpt lat="44.86187564819" lon="8.89072403352543" />
      <trkpt lat="44.8617940876921" lon="8.89120856904749" />
      <trkpt lat="44.8617658181733" lon="8.89166993752578" />
      <trkpt lat="44.8617635806986" lon="8.89181349299299" />
      <trkpt lat="44.8617519294882" lon="8.89187274727027" />
      <trkpt lat="44.8617373723547" lon="8.89194677987674" />
      <trkpt lat="44.8616597338614" lon="8.8922467794523" />
      <trkpt lat="44.8616394346572" lon="8.89246594157533" />
      <trkpt lat="44.8616519225356" lon="8.89266197691971" />
      <trkpt lat="44.8617424075864" lon="8.89293859782186" />
      <trkpt lat="44.8619046997802" lon="8.89325545203352" />
      <trkpt lat="44.8619642903024" lon="8.8933879705073" />
      <trkpt lat="44.8620423573362" lon="8.89354352106992" />
      <trkpt lat="44.86209416142" lon="8.89361038595708" />
      <trkpt lat="44.8621305213649" lon="8.89353317567513" />
      <trkpt lat="44.8621795625723" lon="8.89348247567227" />
      <trkpt lat="44.8622329154439" lon="8.89338747474537" />
      <trkpt lat="44.8623148333599" lon="8.89327487690175" />
      <trkpt lat="44.8623543078259" lon="8.89320830798306" />
      <trkpt lat="44.8624356230111" lon="8.89306705947478" />
      <trkpt lat="44.8625052101386" lon="8.89292565105954" />
      <trkpt lat="44.8625665433543" lon="8.89272947567891" />
      <trkpt lat="44.8626074084748" lon="8.8925737036315" />
      <trkpt lat="44.8626216810927" lon="8.89248717920006" />
      <trkpt lat="44.8626666443105" lon="8.89232851592894" />
      <trkpt lat="44.8627177998534" lon="8.89221308986815" />
      <trkpt lat="44.8627299030133" lon="8.89220421181302" />
      <trkpt lat="44.8628202577412" lon="8.89213793359385" />
      <trkpt lat="44.8629022398159" lon="8.89209453135917" />
      <trkpt lat="44.8629493294196" lon="8.89201659485444" />
      <trkpt lat="44.862961482809" lon="8.89185799173964" />
      <trkpt lat="44.8629569136108" lon="8.89180211802491" />
      <trkpt lat="44.8629568597065" lon="8.89180145886656" />
      <trkpt lat="44.8629511097447" lon="8.89173114686499" />
      <trkpt lat="44.8629397424848" lon="8.89167548637631" />
      <trkpt lat="44.8629387488886" lon="8.89167062117815" />
      <trkpt lat="44.8629530673408" lon="8.8916331116927" />
      <trkpt lat="44.862962431165" lon="8.89163638461176" />
      <trkpt lat="44.8629858874543" lon="8.89164458324725" />
      <trkpt lat="44.8630536657331" lon="8.89175978749052" />
      <trkpt lat="44.8631769457665" lon="8.8920190526493" />
      <trkpt lat="44.8632446746363" lon="8.89208235851174" />
      <trkpt lat="44.8632919004624" lon="8.89214858610078" />
      <trkpt lat="44.8633309375625" lon="8.89222924556954" />
      <trkpt lat="44.8634027864933" lon="8.89231272727827" />
      <trkpt lat="44.8634622966019" lon="8.89235874921532" />
      <trkpt lat="44.8635258888209" lon="8.89238458048681" />
      <trkpt lat="44.8636161058819" lon="8.89237576247319" />
      <trkpt lat="44.8637965046625" lon="8.8923206432475" />
      <trkpt lat="44.8639871481146" lon="8.89225685457572" />
      <trkpt lat="44.8640711726257" lon="8.89220479781274" />
      <trkpt lat="44.8641428664435" lon="8.89212393053133" />
      <trkpt lat="44.8641981665226" lon="8.892054627055" />
      <trkpt lat="44.8642499423496" lon="8.89198838866611" />
      <trkpt lat="44.8643087638238" lon="8.89191313636213" />
      <trkpt lat="44.8643763453618" lon="8.8918207426841" />
      <trkpt lat="44.8645053729067" lon="8.89165326633142" />
      <trkpt lat="44.8645954831487" lon="8.89153199612548" />
      <trkpt lat="44.8647224679193" lon="8.89137317243692" />
      <trkpt lat="44.8648699664292" lon="8.89122295954035" />
      <trkpt lat="44.8649457799209" lon="8.89116226580889" />
      <trkpt lat="44.8650151978652" lon="8.89109679096381" />
      <trkpt lat="44.865088" lon="8.890969" />
      <trkpt lat="44.865120742964" lon="8.89081367194987" />
      <trkpt lat="44.8651889" lon="8.8908323" />
      <trkpt lat="44.865265" lon="8.890782" />
      <trkpt lat="44.8653965149027" lon="8.89075197348506" />
      <trkpt lat="44.8655891748671" lon="8.89065357310928" />
      <trkpt lat="44.8657080693936" lon="8.89061298018918" />
      <trkpt lat="44.8658433076809" lon="8.89050892081449" />
      <trkpt lat="44.865982635945" lon="8.89039331946845" />
      <trkpt lat="44.8660604912439" lon="8.89032396929538" />
      <trkpt lat="44.866192" lon="8.890122" />
      <trkpt lat="44.86625" lon="8.890025" />
      <trkpt lat="44.866315" lon="8.889924" />
      <trkpt lat="44.866381" lon="8.889822" />
      <trkpt lat="44.866443" lon="8.889723" />
      <trkpt lat="44.866512" lon="8.889631" />
      <trkpt lat="44.866578" lon="8.889529" />
      <trkpt lat="44.8666869981687" lon="8.88931933349917" />
      <trkpt lat="44.8667729207882" lon="8.88911155899285" />
      <trkpt lat="44.8667849382694" lon="8.88881742190038" />
      <trkpt lat="44.8667805673063" lon="8.8885406171399" />
      <trkpt lat="44.8667557125232" lon="8.88828691980329" />
      <trkpt lat="44.8666568215438" lon="8.88781422291467" />
      <trkpt lat="44.8665826605491" lon="8.88746835167821" />
      <trkpt lat="44.8665043859635" lon="8.88711095554191" />
      <trkpt lat="44.8664879044089" lon="8.88703313444446" />
      <trkpt lat="44.8664837148137" lon="8.88694375551056" />
      <trkpt lat="44.8665287988403" lon="8.8869148326828" />
      <trkpt lat="44.8665739114143" lon="8.8869147443564" />
      <trkpt lat="44.8666990647801" lon="8.88698370251214" />
      <trkpt lat="44.8668590635571" lon="8.88703817545201" />
      <trkpt lat="44.8670345676913" lon="8.88707971488519" />
      <trkpt lat="44.8670785260232" lon="8.88708964896378" />
      <trkpt lat="44.8671380920712" lon="8.88707951248533" />
      <trkpt lat="44.8671810004129" lon="8.88703466231346" />
      <trkpt lat="44.867276" lon="8.886898" />
      <trkpt lat="44.8673419" lon="8.886809" />
      <trkpt lat="44.8674027" lon="8.886691" />
      <trkpt lat="44.8674712" lon="8.8865729" />
      <trkpt lat="44.867532" lon="8.8864442" />
      <trkpt lat="44.8676232" lon="8.8862082" />
      <trkpt lat="44.8676917" lon="8.8860795" />
      <trkpt lat="44.8677829" lon="8.8858435" />
      <trkpt lat="44.8678479054797" lon="8.88571690840166" />
    </trkseg>
  </trk>
</gpx>