<?xml version="1.0" encoding="utf-8"?>
<gpx xmlns:xsi="http://www.w3.org/2001/XMLSchema-instance" xmlns:xsd="http://www.w3.org/2001/XMLSchema" version="1.1" creator="Catasto Piemonte" xmlns="http://www.topografix.com/GPX/1/1">
  <trk>
    <name>EALA118000A</name>
    <trkseg>
      <trkpt lat="44.816790650784" lon="8.92818189391195" />
      <trkpt lat="44.8170375016595" lon="8.92852568057472" />
      <trkpt lat="44.8171787226269" lon="8.92870917741975" />
      <trkpt lat="44.8173094933576" lon="8.92877315561714" />
      <trkpt lat="44.817469293513" lon="8.92880211321283" />
      <trkpt lat="44.8176555" lon="8.9287873" />
      <trkpt lat="44.8177369620118" lon="8.92877262936902" />
      <trkpt lat="44.8178552312566" lon="8.92875499105869" />
      <trkpt lat="44.8179612211741" lon="8.92863221147137" />
      <trkpt lat="44.818012876247" lon="8.92865567131024" />
      <trkpt lat="44.8181623246215" lon="8.92872254276238" />
      <trkpt lat="44.8181893262624" lon="8.92876332605442" />
      <trkpt lat="44.8181893862334" lon="8.92885953643762" />
      <trkpt lat="44.8181999665116" lon="8.92893150917889" />
      <trkpt lat="44.8184613463803" lon="8.92905745481279" />
      <trkpt lat="44.818587964898" lon="8.92911852481049" />
      <trkpt lat="44.8186727172334" lon="8.92914791862073" />
      <trkpt lat="44.8187312166219" lon="8.92912373974794" />
      <trkpt lat="44.8187820215495" lon="8.92917586815104" />
      <trkpt lat="44.81880593839" lon="8.92926184610698" />
      <trkpt lat="44.8188101264761" lon="8.92932306647948" />
      <trkpt lat="44.818801882012" lon="8.9294134570282" />
      <trkpt lat="44.8187677060477" lon="8.92951554113885" />
      <trkpt lat="44.8187469965116" lon="8.92958262278859" />
      <trkpt lat="44.8187252592673" lon="8.92966574086466" />
      <trkpt lat="44.8187268" lon="8.929732" />
      <trkpt lat="44.818733" lon="8.9297812" />
      <trkpt lat="44.8187522" lon="8.9299104" />
      <trkpt lat="44.8187711761715" lon="8.93009717870505" />
      <trkpt lat="44.8187605" lon="8.9302728" />
      <trkpt lat="44.8187486" lon="8.9303945" />
      <trkpt lat="44.8187475" lon="8.930499" />
      <trkpt lat="44.8187052" lon="8.9306307" />
      <trkpt lat="44.8187068" lon="8.9307554" />
      <trkpt lat="44.8187642" lon="8.9308535" />
      <trkpt lat="44.8187652" lon="8.9309444" />
      <trkpt lat="44.8187719" lon="8.9310301" />
      <trkpt lat="44.818804" lon="8.9310853" />
      <trkpt lat="44.8189444" lon="8.9311204" />
      <trkpt lat="44.8190394" lon="8.9310795" />
      <trkpt lat="44.819133" lon="8.9310397" />
      <trkpt lat="44.8191685" lon="8.9310474" />
      <trkpt lat="44.8191811" lon="8.9310547" />
      <trkpt lat="44.8192134" lon="8.9310643" />
      <trkpt lat="44.8192466" lon="8.9310793" />
      <trkpt lat="44.8192865" lon="8.9311472" />
      <trkpt lat="44.8193122" lon="8.9311866" />
      <trkpt lat="44.8193488" lon="8.9312359" />
      <trkpt lat="44.8194375" lon="8.931415" />
      <trkpt lat="44.8195149" lon="8.9314889" />
      <trkpt lat="44.8196207394905" lon="8.93150144273656" />
      <trkpt lat="44.8196705608791" lon="8.93153345472103" />
      <trkpt lat="44.8196726709113" lon="8.9315917630868" />
      <trkpt lat="44.8196396" lon="8.9316547" />
      <trkpt lat="44.8195774" lon="8.9317853" />
      <trkpt lat="44.819523" lon="8.9319464" />
      <trkpt lat="44.8194795" lon="8.9320919" />
      <trkpt lat="44.8194182" lon="8.9322145" />
      <trkpt lat="44.8193763189051" lon="8.93223936076758" />
      <trkpt lat="44.819345237505" lon="8.93231520086414" />
      <trkpt lat="44.8193224753955" lon="8.93242310193758" />
      <trkpt lat="44.8193067" lon="8.9325355" />
      <trkpt lat="44.8192916" lon="8.9326717" />
      <trkpt lat="44.8192637" lon="8.9327832" />
      <trkpt lat="44.8192353" lon="8.9329036" />
      <trkpt lat="44.8192045" lon="8.9330321" />
      <trkpt lat="44.8191875" lon="8.9331301" />
      <trkpt lat="44.8191478" lon="8.9332558" />
      <trkpt lat="44.8191296" lon="8.9333829" />
      <trkpt lat="44.8190927973548" lon="8.93354292756091" />
      <trkpt lat="44.8190638663589" lon="8.93374996217889" />
      <trkpt lat="44.819037028619" lon="8.93398906482252" />
      <trkpt lat="44.8190350259215" lon="8.93411443408108" />
      <trkpt lat="44.8190247378312" lon="8.93426605234299" />
      <trkpt lat="44.8190102792632" lon="8.93438268916136" />
      <trkpt lat="44.8189626358492" lon="8.93452851856571" />
      <trkpt lat="44.81892" lon="8.9346767" />
      <trkpt lat="44.818866" lon="8.9347971" />
      <trkpt lat="44.8188294" lon="8.9348935" />
      <trkpt lat="44.8187527" lon="8.9350024" />
      <trkpt lat="44.8186802" lon="8.935202" />
      <trkpt lat="44.8186124023909" lon="8.93533067457798" />
      <trkpt lat="44.8185326" lon="8.9354192" />
      <trkpt lat="44.8184697" lon="8.9354967" />
      <trkpt lat="44.8183905439277" lon="8.93564287876846" />
      <trkpt lat="44.8183302" lon="8.9358305" />
      <trkpt lat="44.8183085" lon="8.9359058" />
      <trkpt lat="44.8182619" lon="8.9360931" />
      <trkpt lat="44.8182065" lon="8.9362392" />
      <trkpt lat="44.8181585" lon="8.9363836" />
      <trkpt lat="44.818115062603" lon="8.93654697924699" />
      <trkpt lat="44.818079876655" lon="8.93671028375796" />
      <trkpt lat="44.8180695625428" lon="8.93682108261041" />
      <trkpt lat="44.8180737530217" lon="8.93689396459872" />
      <trkpt lat="44.8180815" lon="8.9369604" />
      <trkpt lat="44.8180824" lon="8.9369955" />
      <trkpt lat="44.8180493" lon="8.937223" />
      <trkpt lat="44.818024" lon="8.9372663" />
      <trkpt lat="44.8179925" lon="8.9372635" />
      <trkpt lat="44.8179536289668" lon="8.93731392136083" />
      <trkpt lat="44.8179059402635" lon="8.93738394392902" />
      <trkpt lat="44.8178824" lon="8.937459" />
      <trkpt lat="44.8178811253822" lon="8.93754140523995" />
      <trkpt lat="44.8178626" lon="8.9376082" />
      <trkpt lat="44.8178406" lon="8.9376551" />
      <trkpt lat="44.8178239" lon="8.9377129" />
      <trkpt lat="44.8178278" lon="8.9378858" />
      <trkpt lat="44.8178186" lon="8.9379663" />
      <trkpt lat="44.8177689" lon="8.9381098" />
      <trkpt lat="44.8177637" lon="8.9381155" />
      <trkpt lat="44.81771" lon="8.93826" />
      <trkpt lat="44.8176975" lon="8.9383438" />
      <trkpt lat="44.8177011" lon="8.9383845" />
      <trkpt lat="44.8176948" lon="8.9384225" />
      <trkpt lat="44.8176657" lon="8.9385432" />
      <trkpt lat="44.8176311" lon="8.9387462" />
      <trkpt lat="44.8176083" lon="8.9389364" />
      <trkpt lat="44.8175632" lon="8.939079" />
      <trkpt lat="44.8175437729867" lon="8.93918607525076" />
      <trkpt lat="44.8175348" lon="8.9392877" />
      <trkpt lat="44.8175765" lon="8.9394005" />
      <trkpt lat="44.8175849" lon="8.9394557" />
      <trkpt lat="44.8175885" lon="8.9394658" />
      <trkpt lat="44.8176003" lon="8.93971" />
      <trkpt lat="44.8175929" lon="8.9398886" />
      <trkpt lat="44.8175968" lon="8.9399289" />
      <trkpt lat="44.8176037" lon="8.9399586" />
      <trkpt lat="44.8176369" lon="8.9400051" />
      <trkpt lat="44.8176495" lon="8.9400172" />
      <trkpt lat="44.817661" lon="8.9400292" />
      <trkpt lat="44.8176711" lon="8.940038" />
      <trkpt lat="44.8176778" lon="8.9400425" />
      <trkpt lat="44.8176918" lon="8.9400566" />
      <trkpt lat="44.8177035" lon="8.9400686" />
      <trkpt lat="44.817743" lon="8.9401245" />
      <trkpt lat="44.8177488" lon="8.9401352" />
      <trkpt lat="44.8177511" lon="8.9402202" />
      <trkpt lat="44.8177098" lon="8.940364" />
      <trkpt lat="44.8176731082982" lon="8.940476022561" />
      <trkpt lat="44.8176482482061" lon="8.94055476504786" />
      <trkpt lat="44.8176379439916" lon="8.9406918013437" />
      <trkpt lat="44.8176442433616" lon="8.94083465149194" />
      <trkpt lat="44.8176339342904" lon="8.94096294141218" />
      <trkpt lat="44.8176008005774" lon="8.9410941699649" />
      <trkpt lat="44.8175780241586" lon="8.94119040259468" />
      <trkpt lat="44.817528269976" lon="8.94128374709048" />
      <trkpt lat="44.8175106609161" lon="8.94134061592781" />
      <trkpt lat="44.8175086052855" lon="8.94137851865518" />
      <trkpt lat="44.8175241894119" lon="8.94141931895359" />
      <trkpt lat="44.8175553329704" lon="8.94145281493987" />
      <trkpt lat="44.8176062160128" lon="8.9415373111815" />
      <trkpt lat="44.8176342841657" lon="8.94164369639527" />
      <trkpt lat="44.8176260878987" lon="8.94184778546335" />
      <trkpt lat="44.8176148155891" lon="8.94212476354069" />
      <trkpt lat="44.8176304694931" lon="8.94230404745648" />
      <trkpt lat="44.8176348" lon="8.9424312" />
      <trkpt lat="44.8176719538498" lon="8.9424637696095" />
      <trkpt lat="44.8176441052306" lon="8.94259703567161" />
      <trkpt lat="44.8176317322442" lon="8.9427515662834" />
      <trkpt lat="44.8176214326822" lon="8.94290317934324" />
      <trkpt lat="44.8176173465604" lon="8.943031462717" />
      <trkpt lat="44.8175841916015" lon="8.94312478937563" />
      <trkpt lat="44.8175240864605" lon="8.94327062020426" />
      <trkpt lat="44.817434921188" lon="8.94339898656776" />
      <trkpt lat="44.8173789355965" lon="8.94348358873665" />
      <trkpt lat="44.8173167232273" lon="8.94356528139064" />
      <trkpt lat="44.8172482682571" lon="8.94361199489736" />
      <trkpt lat="44.8171881050012" lon="8.94364120771145" />
      <trkpt lat="44.8171424760026" lon="8.94368789880834" />
      <trkpt lat="44.8170968699561" lon="8.94378123642284" />
      <trkpt lat="44.8170558" lon="8.9439193" />
      <trkpt lat="44.8170181224809" lon="8.94399705323294" />
      <trkpt lat="44.8169236" lon="8.9440963" />
      <trkpt lat="44.8168133" lon="8.9441638" />
      <trkpt lat="44.816723565088" lon="8.94421307753769" />
      <trkpt lat="44.8166032723694" lon="8.94434147061502" />
      <trkpt lat="44.8164476958585" lon="8.94445532011828" />
      <trkpt lat="44.8163626553593" lon="8.94453411691774" />
      <trkpt lat="44.8162568497455" lon="8.94458377965286" />
      <trkpt lat="44.8161946295122" lon="8.9446508927065" />
      <trkpt lat="44.8161240947562" lon="8.94468885991641" />
      <trkpt lat="44.8160037436716" lon="8.94469772103969" />
      <trkpt lat="44.8159166039309" lon="8.94472695786527" />
      <trkpt lat="44.8158315533714" lon="8.94478534610391" />
      <trkpt lat="44.8157610241994" lon="8.94483497429008" />
      <trkpt lat="44.815683" lon="8.944904" />
      <trkpt lat="44.8155474" lon="8.9450879" />
      <trkpt lat="44.8154208985534" lon="8.94522886796702" />
      <trkpt lat="44.8152887" lon="8.9454178" />
      <trkpt lat="44.8151388671639" lon="8.94560812584254" />
      <trkpt lat="44.8150227063974" lon="8.94570152491896" />
      <trkpt lat="44.8149106874329" lon="8.94577742792099" />
      <trkpt lat="44.8148443121501" lon="8.94583579611755" />
      <trkpt lat="44.8147364791498" lon="8.94598749236733" />
      <trkpt lat="44.8145936" lon="8.9462021" />
      <trkpt lat="44.8145264" lon="8.9463145" />
      <trkpt lat="44.814446174935" lon="8.94643088587958" />
      <trkpt lat="44.8143642" lon="8.9465272" />
      <trkpt lat="44.814144" lon="8.9466659" />
      <trkpt lat="44.8139815041882" lon="8.94675199426019" />
      <trkpt lat="44.8137200968289" lon="8.94686884453866" />
      <trkpt lat="44.8136011" lon="8.9469374" />
      <trkpt lat="44.8134084" lon="8.9470414" />
      <trkpt lat="44.813280280026" lon="8.94709080516944" />
      <trkpt lat="44.8131848338573" lon="8.94710838373692" />
      <trkpt lat="44.8130696763262" lon="8.94713035307269" />
      <trkpt lat="44.8128870748947" lon="8.94714509591181" />
      <trkpt lat="44.8127634988091" lon="8.94713056613924" />
      <trkpt lat="44.8125975845733" lon="8.94711329327371" />
      <trkpt lat="44.8125301399978" lon="8.94710460936336" />
      <trkpt lat="44.8124108234937" lon="8.94710763360474" />
      <trkpt lat="44.8122842515848" lon="8.94712669790444" />
      <trkpt lat="44.8121738588816" lon="8.94714296739736" />
      <trkpt lat="44.8120435704432" lon="8.94719105130297" />
      <trkpt lat="44.8119011" lon="8.9472522" />
      <trkpt lat="44.8117378" lon="8.9473614" />
      <trkpt lat="44.8116452601176" lon="8.94742462587946" />
      <trkpt lat="44.8115168795021" lon="8.94753994667537" />
      <trkpt lat="44.8114316085502" lon="8.94760555791629" />
      <trkpt lat="44.8113341112296" lon="8.94767560914109" />
      <trkpt lat="44.811255903133" lon="8.94773225740711" />
      <trkpt lat="44.8111411715593" lon="8.9477719823296" />
      <trkpt lat="44.8109004" lon="8.9478616" />
      <trkpt lat="44.810738350458" lon="8.94789712711779" />
    </trkseg>
  </trk>
</gpx>