<?xml version="1.0" encoding="utf-8"?>
<gpx xmlns:xsi="http://www.w3.org/2001/XMLSchema-instance" xmlns:xsd="http://www.w3.org/2001/XMLSchema" version="1.1" creator="Catasto Piemonte" xmlns="http://www.topografix.com/GPX/1/1">
  <trk>
    <name>EALA118000B</name>
    <trkseg>
      <trkpt lat="44.8086910779683" lon="8.94953266630246" />
      <trkpt lat="44.8086414560661" lon="8.94949262324057" />
      <trkpt lat="44.8085791916228" lon="8.94946644271986" />
      <trkpt lat="44.8084671184479" lon="8.94942573087484" />
      <trkpt lat="44.8083301402441" lon="8.94937629605264" />
      <trkpt lat="44.8082222016988" lon="8.94930060134226" />
      <trkpt lat="44.8080976493799" lon="8.94919577188934" />
      <trkpt lat="44.8080166830472" lon="8.94911130924006" />
      <trkpt lat="44.8079377904448" lon="8.94902393004866" />
      <trkpt lat="44.8078858870371" lon="8.94896567677681" />
      <trkpt lat="44.8077862368479" lon="8.94886374159442" />
      <trkpt lat="44.8076658421548" lon="8.94877639981902" />
      <trkpt lat="44.8075558320329" lon="8.94870945372936" />
      <trkpt lat="44.8074562065187" lon="8.94866290317315" />
      <trkpt lat="44.8073254650476" lon="8.94863969977036" />
      <trkpt lat="44.8072320831478" lon="8.94863395280328" />
      <trkpt lat="44.8071511649249" lon="8.94865734391538" />
      <trkpt lat="44.8070910081236" lon="8.94870403582781" />
      <trkpt lat="44.8070370805118" lon="8.94875946684718" />
      <trkpt lat="44.8069956165039" lon="8.94884403578596" />
      <trkpt lat="44.8069645578697" lon="8.94899563818943" />
      <trkpt lat="44.806935555951" lon="8.94910643000255" />
      <trkpt lat="44.806898237985" lon="8.949182250206" />
      <trkpt lat="44.8068546778402" lon="8.94922018211794" />
      <trkpt lat="44.8067882851582" lon="8.94924355951947" />
      <trkpt lat="44.8067281151667" lon="8.94926110163086" />
      <trkpt lat="44.8066534039646" lon="8.94924367780146" />
      <trkpt lat="44.8065499" lon="8.9491924" />
      <trkpt lat="44.806489432536" lon="8.94915637522246" />
      <trkpt lat="44.8063690263377" lon="8.94904280094649" />
      <trkpt lat="44.8062756040845" lon="8.94894669254289" />
      <trkpt lat="44.8061323677052" lon="8.94882439472132" />
      <trkpt lat="44.8059814" lon="8.9486746" />
      <trkpt lat="44.8059754" lon="8.9486646" />
      <trkpt lat="44.8058774" lon="8.9485095" />
      <trkpt lat="44.805845831464" lon="8.94843988831313" />
      <trkpt lat="44.8057627366632" lon="8.94823883820726" />
      <trkpt lat="44.8057107" lon="8.9481003" />
      <trkpt lat="44.8057066204028" lon="8.94804359413808" />
      <trkpt lat="44.8057273461504" lon="8.94798819356204" />
      <trkpt lat="44.8057543064583" lon="8.94795319123188" />
      <trkpt lat="44.8057916395745" lon="8.94791234984787" />
      <trkpt lat="44.8058393361765" lon="8.94784526546129" />
      <trkpt lat="44.8058759" lon="8.9477878" />
      <trkpt lat="44.8059382" lon="8.9476313" />
      <trkpt lat="44.8059774" lon="8.9473978" />
      <trkpt lat="44.8059485" lon="8.9472137" />
      <trkpt lat="44.8059213" lon="8.9471324" />
      <trkpt lat="44.8059185" lon="8.9471204" />
      <trkpt lat="44.8058868" lon="8.9469506" />
      <trkpt lat="44.8058497" lon="8.9467596" />
      <trkpt lat="44.805878" lon="8.9464751" />
      <trkpt lat="44.8058809" lon="8.9464415" />
      <trkpt lat="44.8058832738175" lon="8.9463834293598" />
      <trkpt lat="44.8058780641743" lon="8.94633679661421" />
      <trkpt lat="44.8058543" lon="8.9462216" />
      <trkpt lat="44.8058382" lon="8.9461722" />
      <trkpt lat="44.8058063" lon="8.9460993" />
      <trkpt lat="44.8057173" lon="8.946059" />
      <trkpt lat="44.8056491" lon="8.9459776" />
      <trkpt lat="44.805686" lon="8.9458827" />
      <trkpt lat="44.8057689" lon="8.9458659" />
      <trkpt lat="44.8058317" lon="8.9458679" />
      <trkpt lat="44.8059697" lon="8.9458453" />
      <trkpt lat="44.8060856" lon="8.94584" />
      <trkpt lat="44.8061779" lon="8.9458431" />
      <trkpt lat="44.8062222912645" lon="8.94583074829564" />
      <trkpt lat="44.8062471" lon="8.9457896" />
      <trkpt lat="44.8062725" lon="8.9456917" />
      <trkpt lat="44.8062918" lon="8.9455802" />
      <trkpt lat="44.8063456" lon="8.9453961" />
      <trkpt lat="44.8063863" lon="8.9452566" />
      <trkpt lat="44.8064169938525" lon="8.94508435798526" />
      <trkpt lat="44.806423" lon="8.9448794" />
      <trkpt lat="44.8063668" lon="8.9447139" />
      <trkpt lat="44.806315" lon="8.9445084" />
      <trkpt lat="44.8062838" lon="8.9443058" />
      <trkpt lat="44.8062714" lon="8.9441558" />
      <trkpt lat="44.806281601836" lon="8.94403221890177" />
      <trkpt lat="44.8063415" lon="8.943888" />
      <trkpt lat="44.8063935625393" lon="8.94383972894465" />
      <trkpt lat="44.8064318" lon="8.9437945" />
      <trkpt lat="44.8064495327158" lon="8.94372307955771" />
      <trkpt lat="44.8064445" lon="8.9436418" />
      <trkpt lat="44.8064339" lon="8.9435415" />
      <trkpt lat="44.8064165" lon="8.9435036" />
      <trkpt lat="44.8063954145691" lon="8.94338792163642" />
      <trkpt lat="44.8064205" lon="8.9432868" />
      <trkpt lat="44.8064614" lon="8.9432142" />
      <trkpt lat="44.8065142" lon="8.943125" />
      <trkpt lat="44.8066237" lon="8.9429706" />
      <trkpt lat="44.8066752852918" lon="8.94285130843616" />
      <trkpt lat="44.8067561512107" lon="8.94272588821638" />
      <trkpt lat="44.806812143672" lon="8.94265587532319" />
      <trkpt lat="44.8068542" lon="8.9425894" />
      <trkpt lat="44.8068943" lon="8.9424715" />
      <trkpt lat="44.8069305" lon="8.9422865" />
      <trkpt lat="44.806934364222" lon="8.9422389233307" />
      <trkpt lat="44.8069156721462" lon="8.94220687807959" />
      <trkpt lat="44.8068924" lon="8.9422111" />
      <trkpt lat="44.8067768" lon="8.9423012" />
      <trkpt lat="44.806665" lon="8.9423114" />
      <trkpt lat="44.8065612" lon="8.9422613" />
      <trkpt lat="44.8064242" lon="8.9422052" />
      <trkpt lat="44.8062885" lon="8.9422473" />
      <trkpt lat="44.8062578832223" lon="8.94223959842282" />
      <trkpt lat="44.8062225933327" lon="8.94221339984954" />
      <trkpt lat="44.806201821725" lon="8.94217261248428" />
      <trkpt lat="44.806203" lon="8.9421283" />
      <trkpt lat="44.8063108" lon="8.9420768" />
      <trkpt lat="44.8063566" lon="8.942027" />
      <trkpt lat="44.8063673" lon="8.9419334" />
      <trkpt lat="44.8063676457552" lon="8.94181100257584" />
      <trkpt lat="44.8063791" lon="8.9417028" />
      <trkpt lat="44.8063952" lon="8.9415024" />
      <trkpt lat="44.8063893" lon="8.941321" />
      <trkpt lat="44.8063716" lon="8.9411718" />
      <trkpt lat="44.8063374" lon="8.9410292" />
      <trkpt lat="44.8063124" lon="8.9409618" />
      <trkpt lat="44.8062527" lon="8.9408547" />
      <trkpt lat="44.8061677" lon="8.9407513" />
      <trkpt lat="44.8060652" lon="8.9406086" />
      <trkpt lat="44.8060794" lon="8.9405813" />
      <trkpt lat="44.8061242247498" lon="8.94057826125761" />
      <trkpt lat="44.8062279961872" lon="8.94061021824688" />
      <trkpt lat="44.8063525367393" lon="8.94067713251643" />
      <trkpt lat="44.8065414188052" lon="8.94077021513682" />
      <trkpt lat="44.8066233" lon="8.9407975" />
      <trkpt lat="44.8067668" lon="8.9408483" />
      <trkpt lat="44.8069066717836" lon="8.94083979896067" />
      <trkpt lat="44.8070207" lon="8.9408007" />
      <trkpt lat="44.8071412" lon="8.9407591" />
      <trkpt lat="44.8073083" lon="8.9406785" />
      <trkpt lat="44.8073729" lon="8.9406299" />
      <trkpt lat="44.8074306" lon="8.9405843" />
      <trkpt lat="44.8074965" lon="8.9405388" />
      <trkpt lat="44.8075507" lon="8.9405263" />
      <trkpt lat="44.807732" lon="8.9404776" />
      <trkpt lat="44.807808" lon="8.9404748" />
      <trkpt lat="44.8078332" lon="8.9404694" />
      <trkpt lat="44.8079042" lon="8.9404555" />
      <trkpt lat="44.8080916" lon="8.9404236" />
      <trkpt lat="44.8082521" lon="8.9403548" />
      <trkpt lat="44.8083527397538" lon="8.9403136257138" />
      <trkpt lat="44.8083817636415" lon="8.94026112624456" />
      <trkpt lat="44.8083879" lon="8.9401351" />
      <trkpt lat="44.8084072" lon="8.9399046" />
      <trkpt lat="44.8084105546788" lon="8.93976555064865" />
      <trkpt lat="44.8084108" lon="8.9396594" />
      <trkpt lat="44.8084119" lon="8.9395786" />
      <trkpt lat="44.8084215" lon="8.9394672" />
      <trkpt lat="44.8084253" lon="8.9393934" />
      <trkpt lat="44.8084193" lon="8.9392744" />
      <trkpt lat="44.8084153" lon="8.9391675" />
      <trkpt lat="44.8084018" lon="8.9390407" />
      <trkpt lat="44.8084097" lon="8.9388895" />
      <trkpt lat="44.8084131" lon="8.9387573" />
      <trkpt lat="44.8084083" lon="8.9386371" />
      <trkpt lat="44.8084078" lon="8.9384988" />
      <trkpt lat="44.8083934" lon="8.9383589" />
      <trkpt lat="44.8083328" lon="8.9382641" />
      <trkpt lat="44.8082299" lon="8.9382814" />
      <trkpt lat="44.8080927" lon="8.9384372" />
      <trkpt lat="44.8079775" lon="8.938567" />
      <trkpt lat="44.8079326495182" lon="8.93857674773637" />
      <trkpt lat="44.8078869754842" lon="8.93853598691766" />
      <trkpt lat="44.8078678" lon="8.9384385" />
      <trkpt lat="44.8078879" lon="8.9383102" />
      <trkpt lat="44.8079782" lon="8.9381906" />
      <trkpt lat="44.8080466" lon="8.938088" />
      <trkpt lat="44.8081152" lon="8.9379289" />
      <trkpt lat="44.8081314452806" lon="8.93781281679419" />
      <trkpt lat="44.8081510457954" lon="8.93760583338334" />
      <trkpt lat="44.8081851851741" lon="8.93742361130397" />
      <trkpt lat="44.8082255615561" lon="8.93726324449471" />
      <trkpt lat="44.8083214199858" lon="8.93705472014046" />
      <trkpt lat="44.8084214894203" lon="8.93695695959978" />
      <trkpt lat="44.8084629643419" lon="8.93690808853385" />
      <trkpt lat="44.8085438329784" lon="8.93679941727982" />
      <trkpt lat="44.8086165" lon="8.9367329" />
      <trkpt lat="44.8086210810011" lon="8.93671042584043" />
      <trkpt lat="44.8086143312908" lon="8.9367002307705" />
      <trkpt lat="44.8085977264983" lon="8.9366929614686" />
      <trkpt lat="44.808541" lon="8.936676" />
      <trkpt lat="44.80842" lon="8.9366585" />
      <trkpt lat="44.808378" lon="8.9366366" />
      <trkpt lat="44.8083196" lon="8.9366231" />
      <trkpt lat="44.8083149" lon="8.9366239" />
      <trkpt lat="44.8083011" lon="8.936622" />
      <trkpt lat="44.8082112" lon="8.936627" />
      <trkpt lat="44.8081274" lon="8.9366373" />
      <trkpt lat="44.8080409" lon="8.9366243" />
      <trkpt lat="44.8079561" lon="8.9365737" />
      <trkpt lat="44.8079387967066" lon="8.93653627481797" />
      <trkpt lat="44.8079283912553" lon="8.93648235962571" />
      <trkpt lat="44.8079356208356" lon="8.93642259517897" />
      <trkpt lat="44.807986421681" lon="8.93635258046908" />
      <trkpt lat="44.8080590077207" lon="8.93627671173641" />
      <trkpt lat="44.8081046" lon="8.9362316" />
      <trkpt lat="44.8082255" lon="8.9360985" />
      <trkpt lat="44.8083518" lon="8.9359508" />
      <trkpt lat="44.8084762" lon="8.9358569" />
      <trkpt lat="44.8085464" lon="8.9357484" />
      <trkpt lat="44.808567" lon="8.9356721" />
      <trkpt lat="44.8085868" lon="8.9355376" />
      <trkpt lat="44.8086049" lon="8.9354147" />
      <trkpt lat="44.8086249" lon="8.9352896" />
      <trkpt lat="44.808641" lon="8.9351737" />
      <trkpt lat="44.8086686" lon="8.9350292" />
      <trkpt lat="44.8086889" lon="8.9348044" />
      <trkpt lat="44.8087179701879" lon="8.9346523360753" />
      <trkpt lat="44.8087573335393" lon="8.93454152188736" />
      <trkpt lat="44.8088198635797" lon="8.93443886072807" />
      <trkpt lat="44.8089419014428" lon="8.9343401779614" />
      <trkpt lat="44.8090082692378" lon="8.93427888754306" />
      <trkpt lat="44.8090849788729" lon="8.93415928503474" />
      <trkpt lat="44.8091575365103" lon="8.93403677192797" />
      <trkpt lat="44.8092052215538" lon="8.93396384218372" />
      <trkpt lat="44.8092985417361" lon="8.93386170998588" />
      <trkpt lat="44.8094374851343" lon="8.93370996977264" />
      <trkpt lat="44.8095472" lon="8.9335262" />
      <trkpt lat="44.8095763680766" lon="8.93345474517614" />
      <trkpt lat="44.8096775700342" lon="8.93342423263555" />
      <trkpt lat="44.809789035437" lon="8.9334034873508" />
      <trkpt lat="44.8098824044469" lon="8.93338588960837" />
      <trkpt lat="44.8101407722859" lon="8.93341765790616" />
      <trkpt lat="44.810304708065" lon="8.93342329943907" />
      <trkpt lat="44.8103959985763" lon="8.93339987381108" />
      <trkpt lat="44.8104437121214" lon="8.93337649827602" />
      <trkpt lat="44.8105329020021" lon="8.93330934869708" />
      <trkpt lat="44.8105972043519" lon="8.9332655483072" />
      <trkpt lat="44.8107963280408" lon="8.93311956389059" />
      <trkpt lat="44.8109539736174" lon="8.93301443796296" />
      <trkpt lat="44.8112319402249" lon="8.93285086961304" />
      <trkpt lat="44.8115645" lon="8.9326633" />
      <trkpt lat="44.8117173333138" lon="8.93254713158374" />
      <trkpt lat="44.811966275519" lon="8.93243023521829" />
      <trkpt lat="44.8121446955296" lon="8.9323658932825" />
      <trkpt lat="44.8123604913502" lon="8.93234231967011" />
      <trkpt lat="44.8126758950524" lon="8.93232445976132" />
      <trkpt lat="44.8130026" lon="8.9323273" />
      <trkpt lat="44.8132465" lon="8.9322949" />
      <trkpt lat="44.8134374262917" lon="8.93227692547193" />
      <trkpt lat="44.8137382990912" lon="8.93225033614578" />
      <trkpt lat="44.8138399751437" lon="8.9322443866025" />
      <trkpt lat="44.8140806754378" lon="8.93222661318976" />
      <trkpt lat="44.8142404384821" lon="8.93219435810365" />
      <trkpt lat="44.8142051099615" lon="8.93210694147261" />
      <trkpt lat="44.8141635682432" lon="8.93203993910656" />
      <trkpt lat="44.8140763379803" lon="8.93191177006524" />
      <trkpt lat="44.8140019565124" lon="8.93177761151019" />
      <trkpt lat="44.8139514" lon="8.9317388" />
      <trkpt lat="44.8139274" lon="8.9317135" />
      <trkpt lat="44.8138082" lon="8.9315915" />
      <trkpt lat="44.8136988" lon="8.9313675" />
      <trkpt lat="44.8136592" lon="8.9311854" />
      <trkpt lat="44.8136115" lon="8.9309497" />
      <trkpt lat="44.813599" lon="8.9307732" />
      <trkpt lat="44.8135761" lon="8.9306614" />
      <trkpt lat="44.8135306" lon="8.9304962" />
      <trkpt lat="44.8134788" lon="8.9302625" />
      <trkpt lat="44.8134433788028" lon="8.93010215747289" />
      <trkpt lat="44.8134198" lon="8.9299448" />
      <trkpt lat="44.8134078517191" lon="8.92969406854059" />
      <trkpt lat="44.8133641111664" lon="8.92942883618483" />
      <trkpt lat="44.8133037764929" lon="8.92917528543259" />
      <trkpt lat="44.8132351408876" lon="8.92892174540523" />
      <trkpt lat="44.8131728045858" lon="8.92878772205506" />
      <trkpt lat="44.8131167061489" lon="8.92867409779224" />
      <trkpt lat="44.8130232541159" lon="8.9285576046567" />
      <trkpt lat="44.8129577" lon="8.928451" />
      <trkpt lat="44.8128929" lon="8.9282598" />
      <trkpt lat="44.8128619" lon="8.9281035" />
      <trkpt lat="44.8128401" lon="8.9279373" />
      <trkpt lat="44.8128208" lon="8.9277375" />
      <trkpt lat="44.8127977" lon="8.9275996" />
      <trkpt lat="44.812779719955" lon="8.92737142062067" />
      <trkpt lat="44.8128003111675" lon="8.92712068784616" />
      <trkpt lat="44.8128334046205" lon="8.9269515646523" />
      <trkpt lat="44.8128499269787" lon="8.92682910542185" />
      <trkpt lat="44.8129038083471" lon="8.92671825961134" />
      <trkpt lat="44.812953" lon="8.9266625" />
      <trkpt lat="44.8130614741773" lon="8.92665392532401" />
      <trkpt lat="44.8132408" lon="8.9266048" />
      <trkpt lat="44.8134281" lon="8.9265768" />
      <trkpt lat="44.8136342945376" lon="8.92648717280579" />
      <trkpt lat="44.813743084748" lon="8.9265641464101" />
      <trkpt lat="44.8139137" lon="8.9266834" />
      <trkpt lat="44.8141333666715" lon="8.92682019433729" />
      <trkpt lat="44.8143326519976" lon="8.92693946854049" />
      <trkpt lat="44.8144235461144" lon="8.92702543146366" />
      <trkpt lat="44.8144854027439" lon="8.92710855881389" />
      <trkpt lat="44.8145719" lon="8.9271031" />
      <trkpt lat="44.8146647765541" lon="8.92711105134436" />
      <trkpt lat="44.8147208151872" lon="8.92712847251541" />
      <trkpt lat="44.8147869869763" lon="8.92712398791797" />
      <trkpt lat="44.8147304" lon="8.926918" />
      <trkpt lat="44.8146603427008" lon="8.92666793276208" />
      <trkpt lat="44.814602140823" lon="8.92651349627815" />
      <trkpt lat="44.8144463981532" lon="8.92634169256274" />
      <trkpt lat="44.8143529475298" lon="8.92623103106833" />
      <trkpt lat="44.8142750901496" lon="8.92616699436066" />
      <trkpt lat="44.8141515429749" lon="8.92604471087573" />
      <trkpt lat="44.8140051630396" lon="8.92591225374142" />
      <trkpt lat="44.813881415588" lon="8.92580667708678" />
      <trkpt lat="44.8138463115522" lon="8.92574774552818" />
      <trkpt lat="44.8138369" lon="8.9256984" />
      <trkpt lat="44.813841951476" lon="8.92542561607061" />
      <trkpt lat="44.8138480662177" lon="8.92525652371036" />
      <trkpt lat="44.813862358541" lon="8.92490084470383" />
      <trkpt lat="44.813868421565" lon="8.92465449815286" />
      <trkpt lat="44.8138682529934" lon="8.92439941393894" />
      <trkpt lat="44.8138714275874" lon="8.92430446504109" />
    </trkseg>
  </trk>
</gpx>