<?xml version="1.0" encoding="utf-8"?>
<gpx xmlns:xsi="http://www.w3.org/2001/XMLSchema-instance" xmlns:xsd="http://www.w3.org/2001/XMLSchema" version="1.1" creator="Catasto Piemonte" xmlns="http://www.topografix.com/GPX/1/1">
  <trk>
    <name>EALA1400000</name>
    <trkseg>
      <trkpt lat="44.7245062585734" lon="9.15013200861034" />
      <trkpt lat="44.72438" lon="9.149954" />
      <trkpt lat="44.724296" lon="9.149832" />
      <trkpt lat="44.724216" lon="9.149715" />
      <trkpt lat="44.7241854341594" lon="9.14961594959391" />
      <trkpt lat="44.7241732689762" lon="9.14944798547398" />
      <trkpt lat="44.7242037657064" lon="9.14927820087629" />
      <trkpt lat="44.724246" lon="9.149078" />
      <trkpt lat="44.72419" lon="9.14897" />
      <trkpt lat="44.724167" lon="9.14881" />
      <trkpt lat="44.724191" lon="9.148656" />
      <trkpt lat="44.724218" lon="9.148513" />
      <trkpt lat="44.724275" lon="9.148408" />
      <trkpt lat="44.724359" lon="9.148342" />
      <trkpt lat="44.724443" lon="9.148289" />
      <trkpt lat="44.724525" lon="9.14823" />
      <trkpt lat="44.7245643526175" lon="9.14818852301872" />
      <trkpt lat="44.724583" lon="9.148138" />
      <trkpt lat="44.724587881812" lon="9.14808434821358" />
      <trkpt lat="44.7245698457514" lon="9.14803897187262" />
      <trkpt lat="44.724460038004" lon="9.14797978742053" />
      <trkpt lat="44.7244229028426" lon="9.14796425059063" />
      <trkpt lat="44.724361" lon="9.147932" />
      <trkpt lat="44.724262" lon="9.147889" />
      <trkpt lat="44.724186" lon="9.147835" />
      <trkpt lat="44.7241221000115" lon="9.147799040528" />
      <trkpt lat="44.724079" lon="9.147771" />
      <trkpt lat="44.723957" lon="9.147738" />
      <trkpt lat="44.723858" lon="9.147717" />
      <trkpt lat="44.7237613326439" lon="9.14769812025822" />
      <trkpt lat="44.723607" lon="9.147663" />
      <trkpt lat="44.723485" lon="9.14763" />
      <trkpt lat="44.723409" lon="9.147598" />
      <trkpt lat="44.723317" lon="9.147566" />
      <trkpt lat="44.723236" lon="9.147523" />
      <trkpt lat="44.7231149200748" lon="9.1474163757787" />
      <trkpt lat="44.723039691318" lon="9.14736418141228" />
      <trkpt lat="44.722921" lon="9.147255" />
      <trkpt lat="44.722838" lon="9.147158" />
      <trkpt lat="44.7227383479113" lon="9.14703924467412" />
      <trkpt lat="44.7226504204487" lon="9.14692706971621" />
      <trkpt lat="44.7225899655996" lon="9.14685356875993" />
      <trkpt lat="44.7225349804411" lon="9.14680710468759" />
      <trkpt lat="44.722472" lon="9.146773" />
      <trkpt lat="44.722335" lon="9.14674" />
      <trkpt lat="44.722206" lon="9.14674" />
      <trkpt lat="44.722084" lon="9.14675" />
      <trkpt lat="44.721962" lon="9.146771" />
      <trkpt lat="44.721885" lon="9.14676" />
      <trkpt lat="44.721801" lon="9.146771" />
      <trkpt lat="44.721733" lon="9.14676" />
      <trkpt lat="44.721685" lon="9.14669" />
      <trkpt lat="44.721634" lon="9.146567" />
      <trkpt lat="44.7216175434177" lon="9.14646700365272" />
      <trkpt lat="44.7215737203971" lon="9.14630089801701" />
      <trkpt lat="44.7215326098506" lon="9.14616568224194" />
      <trkpt lat="44.721423" lon="9.145958" />
      <trkpt lat="44.721329" lon="9.145806" />
      <trkpt lat="44.721262" lon="9.145711" />
      <trkpt lat="44.721216" lon="9.145572" />
      <trkpt lat="44.721186" lon="9.145337" />
      <trkpt lat="44.721179" lon="9.145176" />
      <trkpt lat="44.721141" lon="9.144973" />
      <trkpt lat="44.721103" lon="9.144845" />
      <trkpt lat="44.7210720653888" lon="9.14472655456775" />
      <trkpt lat="44.721036" lon="9.144585" />
      <trkpt lat="44.721019" lon="9.144481" />
      <trkpt lat="44.720997" lon="9.144331" />
      <trkpt lat="44.7209746341165" lon="9.14423846491892" />
      <trkpt lat="44.720944" lon="9.144139" />
      <trkpt lat="44.7209263689365" lon="9.14404581216854" />
      <trkpt lat="44.7209210104687" lon="9.1439299896615" />
      <trkpt lat="44.7209196976605" lon="9.14374565773514" />
      <trkpt lat="44.7209372500905" lon="9.14360093865642" />
      <trkpt lat="44.720946409513" lon="9.14343014265178" />
      <trkpt lat="44.7209699658627" lon="9.14330088045654" />
      <trkpt lat="44.7209941484139" lon="9.14322083867757" />
      <trkpt lat="44.7210273010781" lon="9.14312055230032" />
      <trkpt lat="44.7210390742606" lon="9.14305978136556" />
      <trkpt lat="44.721052" lon="9.142975" />
      <trkpt lat="44.721126" lon="9.142927" />
      <trkpt lat="44.721203" lon="9.14283" />
      <trkpt lat="44.721296" lon="9.142793" />
      <trkpt lat="44.721384" lon="9.142792" />
      <trkpt lat="44.7214983515482" lon="9.14278779373136" />
      <trkpt lat="44.7215822633953" lon="9.14281309240662" />
      <trkpt lat="44.7217005781941" lon="9.14283847580486" />
      <trkpt lat="44.7218216717785" lon="9.14284263412757" />
      <trkpt lat="44.7218945915632" lon="9.14285439467083" />
      <trkpt lat="44.7219702635822" lon="9.14286616201721" />
      <trkpt lat="44.7220376909626" lon="9.14286825814921" />
      <trkpt lat="44.722088" lon="9.142871" />
      <trkpt lat="44.722178" lon="9.14287" />
      <trkpt lat="44.7222317381203" lon="9.14285715453376" />
      <trkpt lat="44.722265" lon="9.142837" />
      <trkpt lat="44.7223130135776" lon="9.14278979755185" />
      <trkpt lat="44.7223640481605" lon="9.1426953432106" />
      <trkpt lat="44.722396" lon="9.142638" />
      <trkpt lat="44.722437" lon="9.1425" />
      <trkpt lat="44.722478" lon="9.142364" />
      <trkpt lat="44.722505" lon="9.142239" />
      <trkpt lat="44.722543" lon="9.142109" />
      <trkpt lat="44.722576" lon="9.141954" />
      <trkpt lat="44.722587" lon="9.141808" />
      <trkpt lat="44.722586" lon="9.141676" />
      <trkpt lat="44.722625599542" lon="9.14151855791911" />
      <trkpt lat="44.7226574438871" lon="9.14136228843972" />
      <trkpt lat="44.7226975160873" lon="9.14122920135425" />
      <trkpt lat="44.7227582203665" lon="9.14110388509206" />
      <trkpt lat="44.7228243384161" lon="9.14105192995451" />
      <trkpt lat="44.72289" lon="9.141047" />
      <trkpt lat="44.723029" lon="9.141073" />
      <trkpt lat="44.723139" lon="9.141071" />
      <trkpt lat="44.723231" lon="9.140986" />
      <trkpt lat="44.723311" lon="9.140916" />
      <trkpt lat="44.723411" lon="9.140843" />
      <trkpt lat="44.723533" lon="9.140784" />
      <trkpt lat="44.723698" lon="9.140755" />
      <trkpt lat="44.723809" lon="9.140733" />
      <trkpt lat="44.723921" lon="9.140665" />
      <trkpt lat="44.72405" lon="9.140615" />
      <trkpt lat="44.724173" lon="9.140537" />
      <trkpt lat="44.724321" lon="9.140409" />
      <trkpt lat="44.72438" lon="9.14025" />
      <trkpt lat="44.724402" lon="9.140014" />
      <trkpt lat="44.7244358044436" lon="9.13991119540224" />
      <trkpt lat="44.724488" lon="9.139846" />
      <trkpt lat="44.7245487643" lon="9.13981495396697" />
      <trkpt lat="44.724658" lon="9.139837" />
      <trkpt lat="44.72478" lon="9.139873" />
      <trkpt lat="44.724892" lon="9.139928" />
      <trkpt lat="44.724967" lon="9.140022" />
      <trkpt lat="44.725059" lon="9.140089" />
      <trkpt lat="44.725152" lon="9.140152" />
      <trkpt lat="44.7252969322454" lon="9.14017579172726" />
      <trkpt lat="44.7253629621976" lon="9.14019525420018" />
      <trkpt lat="44.725445491337" lon="9.14022633839772" />
      <trkpt lat="44.725516" lon="9.140196" />
      <trkpt lat="44.725629" lon="9.140103" />
      <trkpt lat="44.725749" lon="9.139992" />
      <trkpt lat="44.725847" lon="9.139872" />
      <trkpt lat="44.72595" lon="9.13976" />
      <trkpt lat="44.726019" lon="9.139619" />
      <trkpt lat="44.726104" lon="9.13948" />
      <trkpt lat="44.726222" lon="9.139426" />
      <trkpt lat="44.726349" lon="9.139416" />
      <trkpt lat="44.72646" lon="9.139432" />
      <trkpt lat="44.726551" lon="9.139511" />
      <trkpt lat="44.726673" lon="9.139571" />
      <trkpt lat="44.726779" lon="9.139514" />
      <trkpt lat="44.726876" lon="9.13947" />
      <trkpt lat="44.726993" lon="9.139418" />
      <trkpt lat="44.72713" lon="9.139434" />
      <trkpt lat="44.727203" lon="9.139539" />
      <trkpt lat="44.727258" lon="9.139654" />
      <trkpt lat="44.727343" lon="9.139682" />
      <trkpt lat="44.727457" lon="9.139602" />
      <trkpt lat="44.72758" lon="9.139496" />
      <trkpt lat="44.727696" lon="9.139401" />
      <trkpt lat="44.727789" lon="9.139249" />
      <trkpt lat="44.727861" lon="9.139045" />
      <trkpt lat="44.727997" lon="9.138885" />
      <trkpt lat="44.728126" lon="9.13888" />
      <trkpt lat="44.728262" lon="9.138911" />
      <trkpt lat="44.7283094335383" lon="9.13890900391334" />
      <trkpt lat="44.728337" lon="9.138872" />
      <trkpt lat="44.728322" lon="9.138751" />
      <trkpt lat="44.728345" lon="9.138629" />
      <trkpt lat="44.728408" lon="9.138517" />
      <trkpt lat="44.728471" lon="9.138428" />
      <trkpt lat="44.728563" lon="9.138361" />
      <trkpt lat="44.728633" lon="9.138312" />
      <trkpt lat="44.728681" lon="9.138168" />
      <trkpt lat="44.72864" lon="9.138049" />
      <trkpt lat="44.728568" lon="9.137959" />
      <trkpt lat="44.728502" lon="9.137896" />
      <trkpt lat="44.728401" lon="9.137862" />
      <trkpt lat="44.728291" lon="9.137864" />
      <trkpt lat="44.72821" lon="9.137788" />
      <trkpt lat="44.728127" lon="9.137733" />
      <trkpt lat="44.7280481167462" lon="9.13765169424549" />
      <trkpt lat="44.7280306786061" lon="9.13760391043957" />
      <trkpt lat="44.7281026785835" lon="9.13749391035093" />
      <trkpt lat="44.72812" lon="9.137409" />
      <trkpt lat="44.728136" lon="9.137313" />
      <trkpt lat="44.728054" lon="9.137423" />
      <trkpt lat="44.727936" lon="9.137539" />
      <trkpt lat="44.7279119834908" lon="9.13756643439337" />
      <trkpt lat="44.7278418061662" lon="9.13756240728974" />
      <trkpt lat="44.727801" lon="9.137539" />
      <trkpt lat="44.727741" lon="9.137441" />
      <trkpt lat="44.727703" lon="9.137286" />
      <trkpt lat="44.7275992710772" lon="9.13711738356814" />
      <trkpt lat="44.727482" lon="9.137114" />
      <trkpt lat="44.727369" lon="9.137122" />
      <trkpt lat="44.727263" lon="9.137087" />
      <trkpt lat="44.727172" lon="9.137087" />
      <trkpt lat="44.72705" lon="9.137086" />
      <trkpt lat="44.726929" lon="9.137097" />
      <trkpt lat="44.726829" lon="9.137171" />
      <trkpt lat="44.726722" lon="9.13731" />
      <trkpt lat="44.7267039720831" lon="9.13738115353479" />
      <trkpt lat="44.726684" lon="9.137492" />
      <trkpt lat="44.726661" lon="9.137609" />
      <trkpt lat="44.7266403429528" lon="9.13765318139213" />
      <trkpt lat="44.726592" lon="9.137673" />
      <trkpt lat="44.7265357207959" lon="9.13768381871235" />
      <trkpt lat="44.726485" lon="9.137673" />
      <trkpt lat="44.726379" lon="9.137598" />
      <trkpt lat="44.72631" lon="9.137555" />
      <trkpt lat="44.726226" lon="9.137491" />
      <trkpt lat="44.726142" lon="9.137416" />
      <trkpt lat="44.726059" lon="9.137362" />
      <trkpt lat="44.725967" lon="9.137308" />
      <trkpt lat="44.725878" lon="9.137251" />
      <trkpt lat="44.725749" lon="9.137219" />
      <trkpt lat="44.72564" lon="9.137158" />
      <trkpt lat="44.725533" lon="9.137104" />
      <trkpt lat="44.725465" lon="9.137051" />
      <trkpt lat="44.725373" lon="9.136986" />
      <trkpt lat="44.725305" lon="9.136922" />
      <trkpt lat="44.725225" lon="9.136881" />
      <trkpt lat="44.725114" lon="9.136861" />
      <trkpt lat="44.7250374185433" lon="9.13686664726187" />
      <trkpt lat="44.7249451862558" lon="9.1368934538071" />
      <trkpt lat="44.7248461057659" lon="9.13689322013704" />
      <trkpt lat="44.7247498075853" lon="9.13686789937897" />
      <trkpt lat="44.724641128961" lon="9.13683868896407" />
      <trkpt lat="44.7245489568063" lon="9.13681530838583" />
      <trkpt lat="44.7244443787739" lon="9.13680927108264" />
      <trkpt lat="44.724325" lon="9.136791" />
      <trkpt lat="44.724224" lon="9.1368" />
      <trkpt lat="44.724125" lon="9.136829" />
      <trkpt lat="44.724024" lon="9.136848" />
      <trkpt lat="44.723922" lon="9.136873" />
      <trkpt lat="44.723821" lon="9.136904" />
      <trkpt lat="44.723727" lon="9.136916" />
      <trkpt lat="44.723635" lon="9.136933" />
      <trkpt lat="44.723541" lon="9.136912" />
      <trkpt lat="44.723444" lon="9.136912" />
      <trkpt lat="44.723349" lon="9.136904" />
      <trkpt lat="44.723259" lon="9.136878" />
      <trkpt lat="44.723164" lon="9.136874" />
      <trkpt lat="44.723062" lon="9.136897" />
      <trkpt lat="44.72297" lon="9.136914" />
      <trkpt lat="44.722876" lon="9.136911" />
      <trkpt lat="44.72278" lon="9.136889" />
      <trkpt lat="44.722687" lon="9.136869" />
      <trkpt lat="44.722599" lon="9.136824" />
      <trkpt lat="44.722514" lon="9.136784" />
      <trkpt lat="44.722426" lon="9.136741" />
      <trkpt lat="44.722337" lon="9.136698" />
      <trkpt lat="44.722249" lon="9.136666" />
      <trkpt lat="44.72216" lon="9.13664" />
      <trkpt lat="44.722072" lon="9.136603" />
      <trkpt lat="44.721984" lon="9.136554" />
      <trkpt lat="44.7219491138547" lon="9.13653123390715" />
      <trkpt lat="44.721883" lon="9.136465" />
      <trkpt lat="44.7218632177349" lon="9.13643790046879" />
      <trkpt lat="44.7218341500767" lon="9.13637219836957" />
    </trkseg>
  </trk>
</gpx>