<?xml version="1.0" encoding="utf-8"?>
<gpx xmlns:xsi="http://www.w3.org/2001/XMLSchema-instance" xmlns:xsd="http://www.w3.org/2001/XMLSchema" version="1.1" creator="Catasto Piemonte" xmlns="http://www.topografix.com/GPX/1/1">
  <trk>
    <name>EALA140000A</name>
    <trkseg>
      <trkpt lat="44.7182977349749" lon="9.1529436389481" />
      <trkpt lat="44.7182700709638" lon="9.15280943875639" />
      <trkpt lat="44.7181887" lon="9.1525344" />
      <trkpt lat="44.7181128" lon="9.1522563" />
      <trkpt lat="44.7180979" lon="9.1520424" />
      <trkpt lat="44.7180905" lon="9.1518286" />
      <trkpt lat="44.7180908" lon="9.1516469" />
      <trkpt lat="44.71812042592" lon="9.15151204430271" />
      <trkpt lat="44.7181729589695" lon="9.15133075555169" />
      <trkpt lat="44.7182199719298" lon="9.15116103248411" />
      <trkpt lat="44.7182449412209" lon="9.15101055245911" />
      <trkpt lat="44.7182340700318" lon="9.15090630071725" />
      <trkpt lat="44.718217625452" lon="9.15085414625636" />
      <trkpt lat="44.7181467" lon="9.1507701" />
      <trkpt lat="44.7180689" lon="9.1506775" />
      <trkpt lat="44.718028014028" lon="9.15063169699882" />
      <trkpt lat="44.7179277100344" lon="9.15051563352611" />
      <trkpt lat="44.7178466283711" lon="9.1504324311212" />
      <trkpt lat="44.7178205329514" lon="9.15039376249931" />
      <trkpt lat="44.7178247680244" lon="9.15031271134521" />
      <trkpt lat="44.7178358557051" lon="9.1502529084711" />
      <trkpt lat="44.7178642" lon="9.1500855" />
      <trkpt lat="44.7178965722894" lon="9.14996952968854" />
      <trkpt lat="44.7179478107837" lon="9.14988069764975" />
      <trkpt lat="44.7180084688956" lon="9.14979786180164" />
      <trkpt lat="44.7180291790162" lon="9.14974580368636" />
      <trkpt lat="44.7180311533339" lon="9.14968106503176" />
      <trkpt lat="44.7180183395437" lon="9.14961646190934" />
      <trkpt lat="44.7179689812282" lon="9.1494773707282" />
      <trkpt lat="44.7179443979292" lon="9.14933448339986" />
      <trkpt lat="44.7179201374029" lon="9.14916073773156" />
      <trkpt lat="44.7178595171818" lon="9.14899843607694" />
      <trkpt lat="44.7178376704264" lon="9.14886713654298" />
      <trkpt lat="44.717848835292" lon="9.1487475019845" />
      <trkpt lat="44.7178929665955" lon="9.1486742730398" />
      <trkpt lat="44.7179573" lon="9.1486126" />
      <trkpt lat="44.7180925" lon="9.1484902" />
      <trkpt lat="44.7182125776066" lon="9.14840488259466" />
      <trkpt lat="44.7183237" lon="9.1481998" />
      <trkpt lat="44.718411" lon="9.1479811" />
      <trkpt lat="44.7185474" lon="9.1478465" />
      <trkpt lat="44.7187226972345" lon="9.14766889580821" />
      <trkpt lat="44.7187916727945" lon="9.14753782562098" />
      <trkpt lat="44.7188466" lon="9.1473981" />
      <trkpt lat="44.7189046" lon="9.147201" />
      <trkpt lat="44.7189841" lon="9.1470185" />
      <trkpt lat="44.7191132" lon="9.1469478" />
      <trkpt lat="44.719234" lon="9.1468442" />
      <trkpt lat="44.7193349029429" lon="9.14673242398281" />
      <trkpt lat="44.7194532789025" lon="9.14670956191066" />
      <trkpt lat="44.7195634179743" lon="9.14667123806724" />
      <trkpt lat="44.7197863838861" lon="9.1466447797433" />
      <trkpt lat="44.7199818274129" lon="9.14661825171074" />
      <trkpt lat="44.7200589" lon="9.1465698" />
      <trkpt lat="44.7201878" lon="9.1464612" />
      <trkpt lat="44.720260130143" lon="9.14636417720312" />
      <trkpt lat="44.7203025" lon="9.1461797" />
      <trkpt lat="44.7203459780851" lon="9.14595134487655" />
      <trkpt lat="44.7203809081312" lon="9.14580812012655" />
      <trkpt lat="44.7204346974572" lon="9.14571367849235" />
      <trkpt lat="44.7204748608248" lon="9.14551304487716" />
      <trkpt lat="44.7205274138178" lon="9.14530858171535" />
      <trkpt lat="44.7205371448505" lon="9.14523140044165" />
      <trkpt lat="44.7205330827528" lon="9.14517927648289" />
      <trkpt lat="44.7205153109453" lon="9.14508658531848" />
      <trkpt lat="44.7205140647362" lon="9.14498428478452" />
      <trkpt lat="44.7205128845336" lon="9.144829870641" />
      <trkpt lat="44.7205888669781" lon="9.14459651295756" />
      <trkpt lat="44.7206744598157" lon="9.14438054986965" />
      <trkpt lat="44.7207461521312" lon="9.14427457004545" />
      <trkpt lat="44.7207887" lon="9.1442323" />
      <trkpt lat="44.7209263689365" lon="9.14404581216854" />
    </trkseg>
  </trk>
</gpx>