<?xml version="1.0" encoding="UTF-8" standalone="yes"?>
<gpx
 xmlns="http://www.topografix.com/GPX/1/1"
 creator="OziExplorer Version 3955k - http://www.oziexplorer.com"
 version="1.1"
 xmlns:xsi="http://www.w3.org/2001/XMLSchema-instance"
 xsi:schemaLocation="http://www.topografix.com/GPX/1/1 http://www.topografix.com/GPX/1/1/gpx.xsd">
<metadata>
 <time>2014-04-08T14:34:05Z</time>
 <bounds minlat="44.883256" minlon="8.982479" maxlat="44.891122" maxlon="9.011277"/>
</metadata>
<wpt lat="44.8893462" lon="8.9870890">
 <ele>193.000000</ele>
 <time>2014-04-02T12:20:53.837Z</time>
 <name>INIZIO ANELLO</name>
 <sym>Flag, Blue</sym>
</wpt>
<wpt lat="44.8905400" lon="8.9995400">
 <ele>225.999985</ele>
 <time>2014-04-02T12:20:53.854Z</time>
 <name>LA MONTA' DI BOGINO</name>
 <sym>Flag, Blue</sym>
</wpt>
<wpt lat="44.8850400" lon="9.0076330">
 <ele>240.000000</ele>
 <time>2014-04-02T12:20:53.854Z</time>
 <name>CASCINA BOFFALORA - ROVERE CENTENARIA</name>
 <sym>Flag, Blue</sym>
</wpt>
<wpt lat="44.8896733" lon="8.9824785">
 <ele>185.000000</ele>
 <time>2014-04-02T12:20:53.854Z</time>
 <name>PIAZZETTA QUARTO STATO</name>
 <sym>Flag, Blue</sym>
</wpt>
<trk>
 <name>TRACCIA SENTIERO 150</name>
 <desc>SENTIERO 150</desc>
<trkseg>
<trkpt lat="44.8896810" lon="8.9832720">
<ele>190.957199</ele>
<time>2014-04-01T07:23:36.997Z</time>
</trkpt>
</trkseg>
<trkseg>
<trkpt lat="44.8896885" lon="8.9824892">
<ele>190.012329</ele>
<time>2014-04-01T07:25:54.002Z</time>
</trkpt>
<trkpt lat="44.8897420" lon="8.9826930">
<ele>190.957199</ele>
<time>2014-04-01T07:26:22.004Z</time>
</trkpt>
<trkpt lat="44.8896960" lon="8.9830470">
<ele>191.444870</ele>
<time>2014-04-01T07:26:30.998Z</time>
</trkpt>
<trkpt lat="44.8895590" lon="8.9836370">
<ele>191.932556</ele>
<time>2014-04-01T07:26:42.999Z</time>
</trkpt>
<trkpt lat="44.8895130" lon="8.9837760">
<ele>191.444870</ele>
<time>2014-04-01T07:27:24.998Z</time>
</trkpt>
<trkpt lat="44.8894680" lon="8.9839580">
<ele>191.932556</ele>
<time>2014-04-01T07:27:31.997Z</time>
</trkpt>
<trkpt lat="44.8894370" lon="8.9841730">
<ele>192.389771</ele>
<time>2014-04-01T07:27:46.996Z</time>
</trkpt>
<trkpt lat="44.8894300" lon="8.9842500">
<ele>191.932556</ele>
<time>2014-04-01T07:28:26.999Z</time>
</trkpt>
<trkpt lat="44.8894000" lon="8.9843800">
<ele>192.877441</ele>
<time>2014-04-01T07:28:40.002Z</time>
</trkpt>
<trkpt lat="44.8893900" lon="8.9845100">
<ele>192.389771</ele>
<time>2014-04-01T07:28:48.996Z</time>
</trkpt>
<trkpt lat="44.8893800" lon="8.9846500">
<ele>192.389771</ele>
<time>2014-04-01T07:28:57.999Z</time>
</trkpt>
<trkpt lat="44.8893540" lon="8.9847520">
<ele>192.877441</ele>
<time>2014-04-01T07:29:06.000Z</time>
</trkpt>
<trkpt lat="44.8893400" lon="8.9848500">
<ele>191.932556</ele>
<time>2014-04-01T07:29:54.997Z</time>
</trkpt>
<trkpt lat="44.8893100" lon="8.9849600">
<ele>191.932556</ele>
<time>2014-04-01T07:30:05.003Z</time>
</trkpt>
<trkpt lat="44.8892800" lon="8.9851000">
<ele>192.389771</ele>
<time>2014-04-01T07:30:20.002Z</time>
</trkpt>
<trkpt lat="44.8892500" lon="8.9852400">
<ele>192.389771</ele>
<time>2014-04-01T07:30:31.000Z</time>
</trkpt>
<trkpt lat="44.8892200" lon="8.9853700">
<ele>192.877441</ele>
<time>2014-04-01T07:30:41.999Z</time>
</trkpt>
<trkpt lat="44.8892000" lon="8.9854900">
<ele>192.877441</ele>
<time>2014-04-01T07:30:52.998Z</time>
</trkpt>
<trkpt lat="44.8892000" lon="8.9856300">
<ele>193.365128</ele>
<time>2014-04-01T07:31:04.999Z</time>
</trkpt>
<trkpt lat="44.8892400" lon="8.9857500">
<ele>193.365128</ele>
<time>2014-04-01T07:31:17.000Z</time>
</trkpt>
<trkpt lat="44.8893100" lon="8.9858600">
<ele>192.877441</ele>
<time>2014-04-01T07:31:45.002Z</time>
</trkpt>
<trkpt lat="44.8893610" lon="8.9860060">
<ele>193.365128</ele>
<time>2014-04-01T07:31:58.999Z</time>
</trkpt>
<trkpt lat="44.8893690" lon="8.9861450">
<ele>192.877441</ele>
<time>2014-04-01T07:32:09.997Z</time>
</trkpt>
<trkpt lat="44.8893540" lon="8.9862530">
<ele>192.389771</ele>
<time>2014-04-01T07:32:20.996Z</time>
</trkpt>
<trkpt lat="44.8893380" lon="8.9863710">
<ele>192.389771</ele>
<time>2014-04-01T07:32:40.998Z</time>
</trkpt>
<trkpt lat="44.8893230" lon="8.9864990">
<ele>192.877441</ele>
<time>2014-04-01T07:32:50.001Z</time>
</trkpt>
<trkpt lat="44.8893080" lon="8.9866390">
<ele>192.877441</ele>
<time>2014-04-01T07:32:59.997Z</time>
</trkpt>
<trkpt lat="44.8892850" lon="8.9867350">
<ele>192.877441</ele>
<time>2014-04-01T07:33:10.002Z</time>
</trkpt>
<trkpt lat="44.8892930" lon="8.9869170">
<ele>192.389771</ele>
<time>2014-04-01T07:33:34.998Z</time>
</trkpt>
<trkpt lat="44.8892930" lon="8.9870250">
<ele>191.444870</ele>
<time>2014-04-01T07:36:20.998Z</time>
</trkpt>
<trkpt lat="44.8893080" lon="8.9870780">
<ele>190.469528</ele>
<time>2014-04-01T07:37:01.001Z</time>
</trkpt>
<trkpt lat="44.8893390" lon="8.9871530">
<ele>192.877441</ele>
<time>2014-04-01T07:37:09.002Z</time>
</trkpt>
<trkpt lat="44.8893610" lon="8.9872280">
<ele>191.932556</ele>
<time>2014-04-01T07:37:16.000Z</time>
</trkpt>
<trkpt lat="44.8894000" lon="8.9873400">
<ele>191.444870</ele>
<time>2014-04-01T07:37:22.999Z</time>
</trkpt>
<trkpt lat="44.8894300" lon="8.9874700">
<ele>191.444870</ele>
<time>2014-04-01T07:37:29.997Z</time>
</trkpt>
<trkpt lat="44.8894500" lon="8.9876000">
<ele>191.444870</ele>
<time>2014-04-01T07:37:37.004Z</time>
</trkpt>
<trkpt lat="44.8894680" lon="8.9877110">
<ele>191.444870</ele>
<time>2014-04-01T07:37:47.001Z</time>
</trkpt>
<trkpt lat="44.8894910" lon="8.9878390">
<ele>191.444870</ele>
<time>2014-04-01T07:37:56.997Z</time>
</trkpt>
<trkpt lat="44.8895220" lon="8.9879900">
<ele>191.444870</ele>
<time>2014-04-01T07:38:07.002Z</time>
</trkpt>
<trkpt lat="44.8895600" lon="8.9881180">
<ele>191.932556</ele>
<time>2014-04-01T07:38:18.001Z</time>
</trkpt>
<trkpt lat="44.8895980" lon="8.9882680">
<ele>191.932556</ele>
<time>2014-04-01T07:38:29.000Z</time>
</trkpt>
<trkpt lat="44.8896500" lon="8.9883500">
<ele>192.389771</ele>
<time>2014-04-01T07:38:38.996Z</time>
</trkpt>
<trkpt lat="44.8897050" lon="8.9884720">
<ele>191.932556</ele>
<time>2014-04-01T07:38:49.001Z</time>
</trkpt>
<trkpt lat="44.8897660" lon="8.9885790">
<ele>191.932556</ele>
<time>2014-04-01T07:38:58.998Z</time>
</trkpt>
<trkpt lat="44.8898260" lon="8.9886760">
<ele>192.389771</ele>
<time>2014-04-01T07:39:06.998Z</time>
</trkpt>
<trkpt lat="44.8898950" lon="8.9887940">
<ele>191.932556</ele>
<time>2014-04-01T07:39:14.999Z</time>
</trkpt>
<trkpt lat="44.8899480" lon="8.9888900">
<ele>192.389771</ele>
<time>2014-04-01T07:39:25.998Z</time>
</trkpt>
<trkpt lat="44.8900170" lon="8.9889870">
<ele>191.444870</ele>
<time>2014-04-01T07:39:36.003Z</time>
</trkpt>
<trkpt lat="44.8900860" lon="8.9890940">
<ele>190.469528</ele>
<time>2014-04-01T07:39:45.999Z</time>
</trkpt>
<trkpt lat="44.8901470" lon="8.9891900">
<ele>191.444870</ele>
<time>2014-04-01T07:39:56.998Z</time>
</trkpt>
<trkpt lat="44.8902080" lon="8.9892760">
<ele>190.469528</ele>
<time>2014-04-01T07:40:04.999Z</time>
</trkpt>
<trkpt lat="44.8902690" lon="8.9893720">
<ele>190.469528</ele>
<time>2014-04-01T07:40:12.999Z</time>
</trkpt>
<trkpt lat="44.8903000" lon="8.9894800">
<ele>190.957199</ele>
<time>2014-04-01T07:40:22.002Z</time>
</trkpt>
<trkpt lat="44.8903600" lon="8.9895900">
<ele>190.957199</ele>
<time>2014-04-01T07:40:30.996Z</time>
</trkpt>
<trkpt lat="44.8903680" lon="8.9897050">
<ele>191.932556</ele>
<time>2014-04-01T07:40:39.999Z</time>
</trkpt>
<trkpt lat="44.8903520" lon="8.9897690">
<ele>191.932556</ele>
<time>2014-04-01T07:40:57.003Z</time>
</trkpt>
<trkpt lat="44.8903600" lon="8.9898340">
<ele>191.444870</ele>
<time>2014-04-01T07:41:33.999Z</time>
</trkpt>
<trkpt lat="44.8903300" lon="8.9899620">
<ele>191.444870</ele>
<time>2014-04-01T07:41:51.003Z</time>
</trkpt>
<trkpt lat="44.8902910" lon="8.9901120">
<ele>191.444870</ele>
<time>2014-04-01T07:41:59.997Z</time>
</trkpt>
<trkpt lat="44.8902610" lon="8.9902520">
<ele>190.957199</ele>
<time>2014-04-01T07:42:09.000Z</time>
</trkpt>
<trkpt lat="44.8902380" lon="8.9903700">
<ele>191.932556</ele>
<time>2014-04-01T07:42:18.003Z</time>
</trkpt>
<trkpt lat="44.8902080" lon="8.9905090">
<ele>191.444870</ele>
<time>2014-04-01T07:42:26.997Z</time>
</trkpt>
<trkpt lat="44.8901800" lon="8.9906200">
<ele>191.932556</ele>
<time>2014-04-01T07:42:34.998Z</time>
</trkpt>
<trkpt lat="44.8901540" lon="8.9907770">
<ele>192.389771</ele>
<time>2014-04-01T07:42:44.001Z</time>
</trkpt>
<trkpt lat="44.8901300" lon="8.9908800">
<ele>191.932556</ele>
<time>2014-04-01T07:42:53.004Z</time>
</trkpt>
<trkpt lat="44.8901200" lon="8.9910100">
<ele>191.932556</ele>
<time>2014-04-01T07:43:01.998Z</time>
</trkpt>
<trkpt lat="44.8901010" lon="8.9911520">
<ele>191.932556</ele>
<time>2014-04-01T07:43:11.001Z</time>
</trkpt>
<trkpt lat="44.8900780" lon="8.9912810">
<ele>191.932556</ele>
<time>2014-04-01T07:43:20.004Z</time>
</trkpt>
<trkpt lat="44.8900710" lon="8.9913990">
<ele>191.932556</ele>
<time>2014-04-01T07:43:28.004Z</time>
</trkpt>
<trkpt lat="44.8900550" lon="8.9915490">
<ele>191.444870</ele>
<time>2014-04-01T07:43:35.996Z</time>
</trkpt>
<trkpt lat="44.8900400" lon="8.9916670">
<ele>191.932556</ele>
<time>2014-04-01T07:43:44.999Z</time>
</trkpt>
<trkpt lat="44.8900330" lon="8.9918060">
<ele>192.389771</ele>
<time>2014-04-01T07:43:54.002Z</time>
</trkpt>
<trkpt lat="44.8900250" lon="8.9919350">
<ele>191.932556</ele>
<time>2014-04-01T07:44:02.996Z</time>
</trkpt>
<trkpt lat="44.8900250" lon="8.9920530">
<ele>191.932556</ele>
<time>2014-04-01T07:44:11.999Z</time>
</trkpt>
<trkpt lat="44.8900170" lon="8.9921920">
<ele>191.444870</ele>
<time>2014-04-01T07:44:21.002Z</time>
</trkpt>
<trkpt lat="44.8900250" lon="8.9923640">
<ele>191.932556</ele>
<time>2014-04-01T07:44:29.996Z</time>
</trkpt>
<trkpt lat="44.8900100" lon="8.9925250">
<ele>191.932556</ele>
<time>2014-04-01T07:44:38.999Z</time>
</trkpt>
<trkpt lat="44.8900170" lon="8.9926430">
<ele>191.932556</ele>
<time>2014-04-01T07:44:48.002Z</time>
</trkpt>
<trkpt lat="44.8900250" lon="8.9927180">
<ele>192.877441</ele>
<time>2014-04-01T07:45:19.002Z</time>
</trkpt>
<trkpt lat="44.8900250" lon="8.9928460">
<ele>193.365128</ele>
<time>2014-04-01T07:45:30.001Z</time>
</trkpt>
<trkpt lat="44.8900330" lon="8.9929750">
<ele>193.365128</ele>
<time>2014-04-01T07:45:39.004Z</time>
</trkpt>
<trkpt lat="44.8900400" lon="8.9931360">
<ele>193.365128</ele>
<time>2014-04-01T07:45:47.998Z</time>
</trkpt>
<trkpt lat="44.8900630" lon="8.9932540">
<ele>193.852798</ele>
<time>2014-04-01T07:45:58.997Z</time>
</trkpt>
<trkpt lat="44.8900860" lon="8.9933610">
<ele>193.365128</ele>
<time>2014-04-01T07:46:10.004Z</time>
</trkpt>
<trkpt lat="44.8901090" lon="8.9934680">
<ele>193.852798</ele>
<time>2014-04-01T07:47:04.004Z</time>
</trkpt>
<trkpt lat="44.8901240" lon="8.9935970">
<ele>194.309998</ele>
<time>2014-04-01T07:47:12.998Z</time>
</trkpt>
<trkpt lat="44.8901550" lon="8.9937470">
<ele>194.309998</ele>
<time>2014-04-01T07:47:23.004Z</time>
</trkpt>
<trkpt lat="44.8902000" lon="8.9939080">
<ele>194.309998</ele>
<time>2014-04-01T07:47:34.002Z</time>
</trkpt>
<trkpt lat="44.8902160" lon="8.9940370">
<ele>194.309998</ele>
<time>2014-04-01T07:47:45.001Z</time>
</trkpt>
<trkpt lat="44.8902540" lon="8.9941870">
<ele>195.285370</ele>
<time>2014-04-01T07:47:54.997Z</time>
</trkpt>
<trkpt lat="44.8902840" lon="8.9943050">
<ele>195.285370</ele>
<time>2014-04-01T07:48:05.003Z</time>
</trkpt>
<trkpt lat="44.8903070" lon="8.9944010">
<ele>195.773041</ele>
<time>2014-04-01T07:48:14.999Z</time>
</trkpt>
<trkpt lat="44.8903380" lon="8.9945620">
<ele>195.285370</ele>
<time>2014-04-01T07:48:24.002Z</time>
</trkpt>
<trkpt lat="44.8903600" lon="8.9946690">
<ele>196.260727</ele>
<time>2014-04-01T07:48:33.998Z</time>
</trkpt>
<trkpt lat="44.8903830" lon="8.9947660">
<ele>196.717926</ele>
<time>2014-04-01T07:49:46.004Z</time>
</trkpt>
<trkpt lat="44.8903980" lon="8.9948730">
<ele>196.717926</ele>
<time>2014-04-01T07:50:06.999Z</time>
</trkpt>
<trkpt lat="44.8904140" lon="8.9949800">
<ele>197.693268</ele>
<time>2014-04-01T07:50:16.002Z</time>
</trkpt>
<trkpt lat="44.8904400" lon="8.9950700">
<ele>199.125839</ele>
<time>2014-04-01T07:50:56.999Z</time>
</trkpt>
<trkpt lat="44.8904440" lon="8.9951940">
<ele>197.205597</ele>
<time>2014-04-01T07:53:40.001Z</time>
</trkpt>
<trkpt lat="44.8904520" lon="8.9953450">
<ele>197.693268</ele>
<time>2014-04-01T07:53:56.996Z</time>
</trkpt>
<trkpt lat="44.8904370" lon="8.9954950">
<ele>197.693268</ele>
<time>2014-04-01T07:54:08.004Z</time>
</trkpt>
<trkpt lat="44.8904140" lon="8.9956230">
<ele>198.180969</ele>
<time>2014-04-01T07:54:19.002Z</time>
</trkpt>
<trkpt lat="44.8903900" lon="8.9957500">
<ele>197.693268</ele>
<time>2014-04-01T07:54:28.999Z</time>
</trkpt>
<trkpt lat="44.8903600" lon="8.9958500">
<ele>197.693268</ele>
<time>2014-04-01T07:54:39.004Z</time>
</trkpt>
<trkpt lat="44.8903220" lon="8.9959990">
<ele>197.693268</ele>
<time>2014-04-01T07:54:49.000Z</time>
</trkpt>
<trkpt lat="44.8902840" lon="8.9961380">
<ele>199.125839</ele>
<time>2014-04-01T07:54:58.003Z</time>
</trkpt>
<trkpt lat="44.8902700" lon="8.9962600">
<ele>199.125839</ele>
<time>2014-04-01T07:55:08.000Z</time>
</trkpt>
<trkpt lat="44.8902840" lon="8.9963850">
<ele>198.638168</ele>
<time>2014-04-01T07:55:17.996Z</time>
</trkpt>
<trkpt lat="44.8902840" lon="8.9965240">
<ele>199.613525</ele>
<time>2014-04-01T07:55:26.999Z</time>
</trkpt>
<trkpt lat="44.8902840" lon="8.9966630">
<ele>200.101196</ele>
<time>2014-04-01T07:55:37.004Z</time>
</trkpt>
<trkpt lat="44.8902920" lon="8.9968240">
<ele>200.101196</ele>
<time>2014-04-01T07:55:47.001Z</time>
</trkpt>
<trkpt lat="44.8902840" lon="8.9969640">
<ele>200.558395</ele>
<time>2014-04-01T07:55:56.997Z</time>
</trkpt>
<trkpt lat="44.8902840" lon="8.9970820">
<ele>201.046066</ele>
<time>2014-04-01T07:56:07.002Z</time>
</trkpt>
<trkpt lat="44.8902690" lon="8.9972320">
<ele>201.046066</ele>
<time>2014-04-01T07:56:18.001Z</time>
</trkpt>
<trkpt lat="44.8902540" lon="8.9973600">
<ele>201.533768</ele>
<time>2014-04-01T07:56:27.997Z</time>
</trkpt>
<trkpt lat="44.8902460" lon="8.9974890">
<ele>202.021439</ele>
<time>2014-04-01T07:56:38.996Z</time>
</trkpt>
<trkpt lat="44.8902390" lon="8.9976390">
<ele>202.021439</ele>
<time>2014-04-01T07:56:50.997Z</time>
</trkpt>
<trkpt lat="44.8902230" lon="8.9977570">
<ele>203.453995</ele>
<time>2014-04-01T07:57:01.996Z</time>
</trkpt>
<trkpt lat="44.8902230" lon="8.9978110">
<ele>204.429367</ele>
<time>2014-04-01T07:57:20.002Z</time>
</trkpt>
<trkpt lat="44.8902920" lon="8.9978530">
<ele>203.941666</ele>
<time>2014-04-01T07:58:56.001Z</time>
</trkpt>
<trkpt lat="44.8903300" lon="8.9979930">
<ele>205.374237</ele>
<time>2014-04-01T07:59:29.999Z</time>
</trkpt>
<trkpt lat="44.8903910" lon="8.9980790">
<ele>206.349594</ele>
<time>2014-04-01T07:59:47.003Z</time>
</trkpt>
<trkpt lat="44.8904290" lon="8.9981860">
<ele>206.349594</ele>
<time>2014-04-01T07:59:56.999Z</time>
</trkpt>
<trkpt lat="44.8904700" lon="8.9982500">
<ele>207.782166</ele>
<time>2014-04-01T08:00:09.000Z</time>
</trkpt>
<trkpt lat="44.8904900" lon="8.9983900">
<ele>209.702393</ele>
<time>2014-04-01T08:00:21.001Z</time>
</trkpt>
<trkpt lat="44.8905000" lon="8.9984800">
<ele>210.677765</ele>
<time>2014-04-01T08:00:46.999Z</time>
</trkpt>
<trkpt lat="44.8905100" lon="8.9986200">
<ele>212.598007</ele>
<time>2014-04-01T08:01:01.998Z</time>
</trkpt>
<trkpt lat="44.8905100" lon="8.9987600">
<ele>215.005920</ele>
<time>2014-04-01T08:01:20.004Z</time>
</trkpt>
<trkpt lat="44.8905300" lon="8.9989000">
<ele>216.926163</ele>
<time>2014-04-01T08:01:35.996Z</time>
</trkpt>
<trkpt lat="44.8905420" lon="8.9990460">
<ele>220.278961</ele>
<time>2014-04-01T08:01:54.002Z</time>
</trkpt>
<trkpt lat="44.8905350" lon="8.9992070">
<ele>221.711533</ele>
<time>2014-04-01T08:02:13.001Z</time>
</trkpt>
<trkpt lat="44.8905580" lon="8.9994100">
<ele>223.174561</ele>
<time>2014-04-01T08:02:29.003Z</time>
</trkpt>
<trkpt lat="44.8905700" lon="8.9995200">
<ele>225.552002</ele>
<time>2014-04-01T08:02:44.002Z</time>
</trkpt>
<trkpt lat="44.8905730" lon="8.9996250">
<ele>227.015030</ele>
<time>2014-04-01T08:04:01.001Z</time>
</trkpt>
<trkpt lat="44.8905650" lon="8.9996890">
<ele>228.447601</ele>
<time>2014-04-01T08:05:29.000Z</time>
</trkpt>
<trkpt lat="44.8905960" lon="8.9998290">
<ele>230.367844</ele>
<time>2014-04-01T08:06:13.003Z</time>
</trkpt>
<trkpt lat="44.8906640" lon="9.0000320">
<ele>234.208328</ele>
<time>2014-04-01T08:06:28.002Z</time>
</trkpt>
<trkpt lat="44.8907710" lon="9.0001610">
<ele>238.048798</ele>
<time>2014-04-01T08:06:44.004Z</time>
</trkpt>
<trkpt lat="44.8908550" lon="9.0002680">
<ele>242.376968</ele>
<time>2014-04-01T08:07:02.001Z</time>
</trkpt>
<trkpt lat="44.8909080" lon="9.0003650">
<ele>245.272568</ele>
<time>2014-04-01T08:07:17.000Z</time>
</trkpt>
<trkpt lat="44.8909690" lon="9.0004930">
<ele>246.247925</ele>
<time>2014-04-01T08:07:30.003Z</time>
</trkpt>
<trkpt lat="44.8910070" lon="9.0006220">
<ele>249.113037</ele>
<time>2014-04-01T08:07:49.996Z</time>
</trkpt>
<trkpt lat="44.8910450" lon="9.0007610">
<ele>251.520966</ele>
<time>2014-04-01T08:08:01.997Z</time>
</trkpt>
<trkpt lat="44.8910830" lon="9.0008580">
<ele>252.953522</ele>
<time>2014-04-01T08:08:55.003Z</time>
</trkpt>
<trkpt lat="44.8911220" lon="9.0009220">
<ele>253.928879</ele>
<time>2014-04-01T08:09:07.004Z</time>
</trkpt>
<trkpt lat="44.8910990" lon="9.0010080">
<ele>254.873764</ele>
<time>2014-04-01T08:09:21.001Z</time>
</trkpt>
<trkpt lat="44.8910800" lon="9.0011100">
<ele>255.849121</ele>
<time>2014-04-01T08:09:34.004Z</time>
</trkpt>
<trkpt lat="44.8910600" lon="9.0012700">
<ele>257.281677</ele>
<time>2014-04-01T08:09:45.996Z</time>
</trkpt>
<trkpt lat="44.8910700" lon="9.0014000">
<ele>258.744720</ele>
<time>2014-04-01T08:10:05.998Z</time>
</trkpt>
<trkpt lat="44.8910610" lon="9.0015440">
<ele>259.201935</ele>
<time>2014-04-01T08:10:24.997Z</time>
</trkpt>
<trkpt lat="44.8910700" lon="9.0016700">
<ele>261.609833</ele>
<time>2014-04-01T08:10:39.996Z</time>
</trkpt>
<trkpt lat="44.8910500" lon="9.0017300">
<ele>261.609833</ele>
<time>2014-04-01T08:11:42.999Z</time>
</trkpt>
<trkpt lat="44.8910300" lon="9.0018300">
<ele>262.585205</ele>
<time>2014-04-01T08:12:49.000Z</time>
</trkpt>
<trkpt lat="44.8909690" lon="9.0018550">
<ele>264.505432</ele>
<time>2014-04-01T08:13:01.001Z</time>
</trkpt>
<trkpt lat="44.8908620" lon="9.0019620">
<ele>265.450317</ele>
<time>2014-04-01T08:13:10.998Z</time>
</trkpt>
<trkpt lat="44.8908090" lon="9.0021760">
<ele>265.937988</ele>
<time>2014-04-01T08:13:21.003Z</time>
</trkpt>
<trkpt lat="44.8908170" lon="9.0022840">
<ele>268.833588</ele>
<time>2014-04-01T08:13:33.004Z</time>
</trkpt>
<trkpt lat="44.8908010" lon="9.0023590">
<ele>266.425659</ele>
<time>2014-04-01T08:15:58.000Z</time>
</trkpt>
<trkpt lat="44.8907100" lon="9.0024870">
<ele>266.913361</ele>
<time>2014-04-01T08:16:06.001Z</time>
</trkpt>
<trkpt lat="44.8906260" lon="9.0025730">
<ele>267.370575</ele>
<time>2014-04-01T08:16:17.000Z</time>
</trkpt>
<trkpt lat="44.8905350" lon="9.0026370">
<ele>268.833588</ele>
<time>2014-04-01T08:16:29.001Z</time>
</trkpt>
<trkpt lat="44.8904590" lon="9.0027230">
<ele>269.778473</ele>
<time>2014-04-01T08:16:38.004Z</time>
</trkpt>
<trkpt lat="44.8903820" lon="9.0027770">
<ele>269.778473</ele>
<time>2014-04-01T08:16:49.002Z</time>
</trkpt>
<trkpt lat="44.8903060" lon="9.0028630">
<ele>271.698730</ele>
<time>2014-04-01T08:17:00.001Z</time>
</trkpt>
<trkpt lat="44.8902150" lon="9.0029160">
<ele>271.698730</ele>
<time>2014-04-01T08:17:09.997Z</time>
</trkpt>
<trkpt lat="44.8901690" lon="9.0029810">
<ele>273.161774</ele>
<time>2014-04-01T08:17:20.996Z</time>
</trkpt>
<trkpt lat="44.8900930" lon="9.0030450">
<ele>273.618958</ele>
<time>2014-04-01T08:17:47.996Z</time>
</trkpt>
<trkpt lat="44.8901230" lon="9.0031520">
<ele>274.594330</ele>
<time>2014-04-01T08:17:58.001Z</time>
</trkpt>
<trkpt lat="44.8901770" lon="9.0032810">
<ele>275.082001</ele>
<time>2014-04-01T08:18:09.000Z</time>
</trkpt>
<trkpt lat="44.8902300" lon="9.0034310">
<ele>275.082001</ele>
<time>2014-04-01T08:18:18.996Z</time>
</trkpt>
<trkpt lat="44.8902830" lon="9.0035490">
<ele>276.514557</ele>
<time>2014-04-01T08:18:30.997Z</time>
</trkpt>
<trkpt lat="44.8903290" lon="9.0036770">
<ele>276.514557</ele>
<time>2014-04-01T08:18:40.000Z</time>
</trkpt>
<trkpt lat="44.8903750" lon="9.0037740">
<ele>276.026886</ele>
<time>2014-04-01T08:18:49.003Z</time>
</trkpt>
<trkpt lat="44.8904130" lon="9.0038700">
<ele>275.569672</ele>
<time>2014-04-01T08:18:57.997Z</time>
</trkpt>
<trkpt lat="44.8904360" lon="9.0039780">
<ele>276.514557</ele>
<time>2014-04-01T08:19:08.003Z</time>
</trkpt>
<trkpt lat="44.8904200" lon="9.0040740">
<ele>275.082001</ele>
<time>2014-04-01T08:19:39.996Z</time>
</trkpt>
<trkpt lat="44.8903210" lon="9.0041600">
<ele>275.082001</ele>
<time>2014-04-01T08:19:50.002Z</time>
</trkpt>
<trkpt lat="44.8902370" lon="9.0042130">
<ele>274.594330</ele>
<time>2014-04-01T08:19:58.996Z</time>
</trkpt>
<trkpt lat="44.8901610" lon="9.0042880">
<ele>275.569672</ele>
<time>2014-04-01T08:20:41.004Z</time>
</trkpt>
<trkpt lat="44.8900930" lon="9.0043100">
<ele>276.026886</ele>
<time>2014-04-01T08:20:49.998Z</time>
</trkpt>
<trkpt lat="44.8900010" lon="9.0043740">
<ele>275.082001</ele>
<time>2014-04-01T08:20:59.001Z</time>
</trkpt>
<trkpt lat="44.8899100" lon="9.0044390">
<ele>274.594330</ele>
<time>2014-04-01T08:21:08.997Z</time>
</trkpt>
<trkpt lat="44.8898410" lon="9.0045240">
<ele>273.618958</ele>
<time>2014-04-01T08:21:18.000Z</time>
</trkpt>
<trkpt lat="44.8897800" lon="9.0046100">
<ele>272.674072</ele>
<time>2014-04-01T08:21:27.003Z</time>
</trkpt>
<trkpt lat="44.8897650" lon="9.0046960">
<ele>272.674072</ele>
<time>2014-04-01T08:21:35.997Z</time>
</trkpt>
<trkpt lat="44.8897420" lon="9.0047920">
<ele>272.674072</ele>
<time>2014-04-01T08:21:45.000Z</time>
</trkpt>
<trkpt lat="44.8897500" lon="9.0049320">
<ele>272.674072</ele>
<time>2014-04-01T08:21:54.003Z</time>
</trkpt>
<trkpt lat="44.8897950" lon="9.0051030">
<ele>271.698730</ele>
<time>2014-04-01T08:22:02.997Z</time>
</trkpt>
<trkpt lat="44.8898490" lon="9.0052860">
<ele>272.186401</ele>
<time>2014-04-01T08:22:12.000Z</time>
</trkpt>
<trkpt lat="44.8898870" lon="9.0053930">
<ele>271.698730</ele>
<time>2014-04-01T08:22:21.003Z</time>
</trkpt>
<trkpt lat="44.8899250" lon="9.0055000">
<ele>272.186401</ele>
<time>2014-04-01T08:22:30.999Z</time>
</trkpt>
<trkpt lat="44.8899550" lon="9.0055960">
<ele>272.186401</ele>
<time>2014-04-01T08:22:43.000Z</time>
</trkpt>
<trkpt lat="44.8899940" lon="9.0057250">
<ele>272.674072</ele>
<time>2014-04-01T08:22:52.997Z</time>
</trkpt>
<trkpt lat="44.8900160" lon="9.0058110">
<ele>273.618958</ele>
<time>2014-04-01T08:23:02.000Z</time>
</trkpt>
<trkpt lat="44.8900550" lon="9.0059290">
<ele>274.106628</ele>
<time>2014-04-01T08:23:15.003Z</time>
</trkpt>
<trkpt lat="44.8900930" lon="9.0060790">
<ele>275.082001</ele>
<time>2014-04-01T08:23:26.002Z</time>
</trkpt>
<trkpt lat="44.8900700" lon="9.0061860">
<ele>274.594330</ele>
<time>2014-04-01T08:23:35.998Z</time>
</trkpt>
<trkpt lat="44.8900320" lon="9.0063250">
<ele>275.569672</ele>
<time>2014-04-01T08:24:06.998Z</time>
</trkpt>
<trkpt lat="44.8899710" lon="9.0063580">
<ele>276.026886</ele>
<time>2014-04-01T08:26:35.002Z</time>
</trkpt>
<trkpt lat="44.8899100" lon="9.0062720">
<ele>277.002228</ele>
<time>2014-04-01T08:26:54.001Z</time>
</trkpt>
<trkpt lat="44.8898260" lon="9.0061650">
<ele>277.489929</ele>
<time>2014-04-01T08:27:03.997Z</time>
</trkpt>
<trkpt lat="44.8897500" lon="9.0060680">
<ele>278.434814</ele>
<time>2014-04-01T08:27:15.998Z</time>
</trkpt>
<trkpt lat="44.8896730" lon="9.0060040">
<ele>279.410156</ele>
<time>2014-04-01T08:27:26.004Z</time>
</trkpt>
<trkpt lat="44.8895740" lon="9.0059180">
<ele>281.330414</ele>
<time>2014-04-01T08:27:37.002Z</time>
</trkpt>
<trkpt lat="44.8894830" lon="9.0058750">
<ele>282.762970</ele>
<time>2014-04-01T08:27:57.997Z</time>
</trkpt>
<trkpt lat="44.8894070" lon="9.0058320">
<ele>284.195526</ele>
<time>2014-04-01T08:28:39.996Z</time>
</trkpt>
<trkpt lat="44.8893080" lon="9.0058000">
<ele>283.250641</ele>
<time>2014-04-01T08:28:50.002Z</time>
</trkpt>
<trkpt lat="44.8892010" lon="9.0057570">
<ele>283.250641</ele>
<time>2014-04-01T08:28:58.996Z</time>
</trkpt>
<trkpt lat="44.8891100" lon="9.0056930">
<ele>284.683197</ele>
<time>2014-04-01T08:29:09.001Z</time>
</trkpt>
<trkpt lat="44.8890330" lon="9.0056610">
<ele>283.738342</ele>
<time>2014-04-01T08:29:18.997Z</time>
</trkpt>
<trkpt lat="44.8889270" lon="9.0056070">
<ele>284.195526</ele>
<time>2014-04-01T08:29:59.001Z</time>
</trkpt>
<trkpt lat="44.8888350" lon="9.0055640">
<ele>284.683197</ele>
<time>2014-04-01T08:30:08.004Z</time>
</trkpt>
<trkpt lat="44.8887590" lon="9.0055320">
<ele>285.658569</ele>
<time>2014-04-01T08:30:18.000Z</time>
</trkpt>
<trkpt lat="44.8886830" lon="9.0054890">
<ele>286.603424</ele>
<time>2014-04-01T08:30:27.996Z</time>
</trkpt>
<trkpt lat="44.8885990" lon="9.0054460">
<ele>287.091125</ele>
<time>2014-04-01T08:30:38.002Z</time>
</trkpt>
<trkpt lat="44.8885230" lon="9.0054350">
<ele>286.603424</ele>
<time>2014-04-01T08:30:51.998Z</time>
</trkpt>
<trkpt lat="44.8884470" lon="9.0054890">
<ele>286.115753</ele>
<time>2014-04-01T08:31:03.999Z</time>
</trkpt>
<trkpt lat="44.8884240" lon="9.0055750">
<ele>286.603424</ele>
<time>2014-04-01T08:31:13.002Z</time>
</trkpt>
<trkpt lat="44.8883860" lon="9.0057030">
<ele>287.578796</ele>
<time>2014-04-01T08:31:21.996Z</time>
</trkpt>
<trkpt lat="44.8883320" lon="9.0058640">
<ele>288.066467</ele>
<time>2014-04-01T08:31:33.997Z</time>
</trkpt>
<trkpt lat="44.8883020" lon="9.0059820">
<ele>288.523682</ele>
<time>2014-04-01T08:31:49.999Z</time>
</trkpt>
<trkpt lat="44.8882860" lon="9.0060470">
<ele>289.011353</ele>
<time>2014-04-01T08:32:03.002Z</time>
</trkpt>
<trkpt lat="44.8882560" lon="9.0061110">
<ele>290.443939</ele>
<time>2014-04-01T08:32:12.998Z</time>
</trkpt>
<trkpt lat="44.8882180" lon="9.0062070">
<ele>290.931610</ele>
<time>2014-04-01T08:32:24.999Z</time>
</trkpt>
<trkpt lat="44.8881800" lon="9.0063250">
<ele>291.419281</ele>
<time>2014-04-01T08:32:35.998Z</time>
</trkpt>
<trkpt lat="44.8881260" lon="9.0064540">
<ele>291.419281</ele>
<time>2014-04-01T08:32:46.003Z</time>
</trkpt>
<trkpt lat="44.8880880" lon="9.0065720">
<ele>292.364166</ele>
<time>2014-04-01T08:32:57.002Z</time>
</trkpt>
<trkpt lat="44.8880350" lon="9.0066680">
<ele>292.851837</ele>
<time>2014-04-01T08:33:32.996Z</time>
</trkpt>
<trkpt lat="44.8879970" lon="9.0067650">
<ele>292.851837</ele>
<time>2014-04-01T08:33:59.996Z</time>
</trkpt>
<trkpt lat="44.8879510" lon="9.0068610">
<ele>294.314880</ele>
<time>2014-04-01T08:34:10.001Z</time>
</trkpt>
<trkpt lat="44.8879130" lon="9.0069470">
<ele>295.259766</ele>
<time>2014-04-01T08:34:25.000Z</time>
</trkpt>
<trkpt lat="44.8878750" lon="9.0070650">
<ele>296.235138</ele>
<time>2014-04-01T08:34:42.997Z</time>
</trkpt>
<trkpt lat="44.8878370" lon="9.0071720">
<ele>295.747437</ele>
<time>2014-04-01T08:34:52.000Z</time>
</trkpt>
<trkpt lat="44.8877910" lon="9.0072690">
<ele>298.155365</ele>
<time>2014-04-01T08:35:01.997Z</time>
</trkpt>
<trkpt lat="44.8877530" lon="9.0073650">
<ele>298.155365</ele>
<time>2014-04-01T08:35:13.004Z</time>
</trkpt>
<trkpt lat="44.8877200" lon="9.0074800">
<ele>298.612549</ele>
<time>2014-04-01T08:35:24.003Z</time>
</trkpt>
<trkpt lat="44.8877000" lon="9.0076010">
<ele>298.612549</ele>
<time>2014-04-01T08:35:31.001Z</time>
</trkpt>
<trkpt lat="44.8877070" lon="9.0077830">
<ele>299.587921</ele>
<time>2014-04-01T08:35:40.998Z</time>
</trkpt>
<trkpt lat="44.8877610" lon="9.0079230">
<ele>300.075592</ele>
<time>2014-04-01T08:35:51.003Z</time>
</trkpt>
<trkpt lat="44.8877800" lon="9.0080500">
<ele>301.020477</ele>
<time>2014-04-01T08:36:03.004Z</time>
</trkpt>
<trkpt lat="44.8878140" lon="9.0081910">
<ele>301.020477</ele>
<time>2014-04-01T08:36:14.996Z</time>
</trkpt>
<trkpt lat="44.8877900" lon="9.0083500">
<ele>301.020477</ele>
<time>2014-04-01T08:36:26.997Z</time>
</trkpt>
<trkpt lat="44.8877680" lon="9.0084480">
<ele>302.483521</ele>
<time>2014-04-01T08:36:37.002Z</time>
</trkpt>
<trkpt lat="44.8876310" lon="9.0085440">
<ele>303.428406</ele>
<time>2014-04-01T08:36:57.997Z</time>
</trkpt>
<trkpt lat="44.8876770" lon="9.0087270">
<ele>303.428406</ele>
<time>2014-04-01T08:37:19.001Z</time>
</trkpt>
<trkpt lat="44.8877070" lon="9.0088340">
<ele>303.428406</ele>
<time>2014-04-01T08:37:28.998Z</time>
</trkpt>
<trkpt lat="44.8877300" lon="9.0089300">
<ele>303.428406</ele>
<time>2014-04-01T08:37:38.001Z</time>
</trkpt>
<trkpt lat="44.8877500" lon="9.0090500">
<ele>303.428406</ele>
<time>2014-04-01T08:37:47.004Z</time>
</trkpt>
<trkpt lat="44.8877760" lon="9.0091880">
<ele>303.428406</ele>
<time>2014-04-01T08:37:55.998Z</time>
</trkpt>
<trkpt lat="44.8878140" lon="9.0093060">
<ele>302.940735</ele>
<time>2014-04-01T08:38:05.001Z</time>
</trkpt>
<trkpt lat="44.8878370" lon="9.0094560">
<ele>302.940735</ele>
<time>2014-04-01T08:38:15.999Z</time>
</trkpt>
<trkpt lat="44.8877150" lon="9.0095090">
<ele>302.940735</ele>
<time>2014-04-01T08:38:25.996Z</time>
</trkpt>
<trkpt lat="44.8876000" lon="9.0095410">
<ele>302.940735</ele>
<time>2014-04-01T08:38:34.999Z</time>
</trkpt>
<trkpt lat="44.8875090" lon="9.0095630">
<ele>303.916077</ele>
<time>2014-04-01T08:38:45.004Z</time>
</trkpt>
<trkpt lat="44.8874100" lon="9.0095950">
<ele>303.428406</ele>
<time>2014-04-01T08:38:56.003Z</time>
</trkpt>
<trkpt lat="44.8873110" lon="9.0096270">
<ele>304.860962</ele>
<time>2014-04-01T08:39:05.999Z</time>
</trkpt>
<trkpt lat="44.8872270" lon="9.0096700">
<ele>305.348633</ele>
<time>2014-04-01T08:39:19.002Z</time>
</trkpt>
<trkpt lat="44.8871580" lon="9.0096480">
<ele>305.836334</ele>
<time>2014-04-01T08:40:02.004Z</time>
</trkpt>
<trkpt lat="44.8870900" lon="9.0094880">
<ele>304.860962</ele>
<time>2014-04-01T08:40:44.996Z</time>
</trkpt>
<trkpt lat="44.8870590" lon="9.0093910">
<ele>304.403778</ele>
<time>2014-04-01T08:40:55.001Z</time>
</trkpt>
<trkpt lat="44.8870520" lon="9.0092200">
<ele>304.403778</ele>
<time>2014-04-01T08:41:04.004Z</time>
</trkpt>
<trkpt lat="44.8870440" lon="9.0090910">
<ele>303.916077</ele>
<time>2014-04-01T08:41:12.998Z</time>
</trkpt>
<trkpt lat="44.8869760" lon="9.0090800">
<ele>302.483521</ele>
<time>2014-04-01T08:41:23.004Z</time>
</trkpt>
<trkpt lat="44.8868760" lon="9.0089940">
<ele>301.020477</ele>
<time>2014-04-01T08:41:37.000Z</time>
</trkpt>
<trkpt lat="44.8868080" lon="9.0088770">
<ele>301.508179</ele>
<time>2014-04-01T08:41:45.001Z</time>
</trkpt>
<trkpt lat="44.8867620" lon="9.0088230">
<ele>301.020477</ele>
<time>2014-04-01T08:41:53.002Z</time>
</trkpt>
<trkpt lat="44.8867010" lon="9.0087050">
<ele>301.508179</ele>
<time>2014-04-01T08:42:01.002Z</time>
</trkpt>
<trkpt lat="44.8866330" lon="9.0086300">
<ele>301.020477</ele>
<time>2014-04-01T08:42:09.996Z</time>
</trkpt>
<trkpt lat="44.8865410" lon="9.0086410">
<ele>301.995850</ele>
<time>2014-04-01T08:42:18.999Z</time>
</trkpt>
<trkpt lat="44.8864570" lon="9.0086730">
<ele>301.995850</ele>
<time>2014-04-01T08:42:28.002Z</time>
</trkpt>
<trkpt lat="44.8863890" lon="9.0087160">
<ele>301.995850</ele>
<time>2014-04-01T08:42:36.996Z</time>
</trkpt>
<trkpt lat="44.8863130" lon="9.0088340">
<ele>302.940735</ele>
<time>2014-04-01T08:42:47.002Z</time>
</trkpt>
<trkpt lat="44.8862360" lon="9.0089620">
<ele>303.428406</ele>
<time>2014-04-01T08:42:55.996Z</time>
</trkpt>
<trkpt lat="44.8861830" lon="9.0090480">
<ele>303.916077</ele>
<time>2014-04-01T08:43:04.999Z</time>
</trkpt>
<trkpt lat="44.8861220" lon="9.0091340">
<ele>304.860962</ele>
<time>2014-04-01T08:43:14.002Z</time>
</trkpt>
<trkpt lat="44.8860530" lon="9.0092620">
<ele>305.836334</ele>
<time>2014-04-01T08:43:23.998Z</time>
</trkpt>
<trkpt lat="44.8860000" lon="9.0093270">
<ele>307.756561</ele>
<time>2014-04-01T08:44:27.001Z</time>
</trkpt>
<trkpt lat="44.8859310" lon="9.0094340">
<ele>308.244232</ele>
<time>2014-04-01T08:44:36.004Z</time>
</trkpt>
<trkpt lat="44.8858700" lon="9.0095410">
<ele>308.244232</ele>
<time>2014-04-01T08:44:44.998Z</time>
</trkpt>
<trkpt lat="44.8858100" lon="9.0096590">
<ele>309.189117</ele>
<time>2014-04-01T08:44:54.001Z</time>
</trkpt>
<trkpt lat="44.8857410" lon="9.0097230">
<ele>310.164459</ele>
<time>2014-04-01T08:45:09.000Z</time>
</trkpt>
<trkpt lat="44.8856800" lon="9.0097980">
<ele>312.084717</ele>
<time>2014-04-01T08:45:18.996Z</time>
</trkpt>
<trkpt lat="44.8856110" lon="9.0098840">
<ele>312.084717</ele>
<time>2014-04-01T08:45:48.001Z</time>
</trkpt>
<trkpt lat="44.8855280" lon="9.0099810">
<ele>312.572388</ele>
<time>2014-04-01T08:45:59.000Z</time>
</trkpt>
<trkpt lat="44.8854590" lon="9.0100560">
<ele>313.517273</ele>
<time>2014-04-01T08:46:07.000Z</time>
</trkpt>
<trkpt lat="44.8853900" lon="9.0101520">
<ele>313.060059</ele>
<time>2014-04-01T08:46:28.004Z</time>
</trkpt>
<trkpt lat="44.8853220" lon="9.0102160">
<ele>312.572388</ele>
<time>2014-04-01T08:46:36.998Z</time>
</trkpt>
<trkpt lat="44.8852380" lon="9.0103130">
<ele>313.517273</ele>
<time>2014-04-01T08:46:46.001Z</time>
</trkpt>
<trkpt lat="44.8851770" lon="9.0103770">
<ele>314.492645</ele>
<time>2014-04-01T08:46:54.002Z</time>
</trkpt>
<trkpt lat="44.8851080" lon="9.0104520">
<ele>314.004944</ele>
<time>2014-04-01T08:47:02.003Z</time>
</trkpt>
<trkpt lat="44.8850240" lon="9.0105380">
<ele>313.517273</ele>
<time>2014-04-01T08:47:10.997Z</time>
</trkpt>
<trkpt lat="44.8849480" lon="9.0106020">
<ele>314.004944</ele>
<time>2014-04-01T08:47:20.000Z</time>
</trkpt>
<trkpt lat="44.8848720" lon="9.0106560">
<ele>313.060059</ele>
<time>2014-04-01T08:47:29.003Z</time>
</trkpt>
<trkpt lat="44.8847580" lon="9.0107310">
<ele>314.980316</ele>
<time>2014-04-01T08:47:38.999Z</time>
</trkpt>
<trkpt lat="44.8846660" lon="9.0107630">
<ele>314.980316</ele>
<time>2014-04-01T08:48:00.003Z</time>
</trkpt>
<trkpt lat="44.8845670" lon="9.0107950">
<ele>315.925201</ele>
<time>2014-04-01T08:48:12.004Z</time>
</trkpt>
<trkpt lat="44.8844300" lon="9.0107950">
<ele>316.900543</ele>
<time>2014-04-01T08:48:20.998Z</time>
</trkpt>
<trkpt lat="44.8843390" lon="9.0108160">
<ele>319.308472</ele>
<time>2014-04-01T08:48:30.001Z</time>
</trkpt>
<trkpt lat="44.8842090" lon="9.0108700">
<ele>320.253357</ele>
<time>2014-04-01T08:48:39.997Z</time>
</trkpt>
<trkpt lat="44.8840790" lon="9.0109450">
<ele>320.253357</ele>
<time>2014-04-01T08:48:50.003Z</time>
</trkpt>
<trkpt lat="44.8839880" lon="9.0110420">
<ele>319.765686</ele>
<time>2014-04-01T08:48:58.997Z</time>
</trkpt>
<trkpt lat="44.8839120" lon="9.0111380">
<ele>319.765686</ele>
<time>2014-04-01T08:49:08.000Z</time>
</trkpt>
<trkpt lat="44.8838130" lon="9.0112340">
<ele>319.765686</ele>
<time>2014-04-01T08:49:16.000Z</time>
</trkpt>
<trkpt lat="44.8837590" lon="9.0112770">
<ele>320.741058</ele>
<time>2014-04-01T08:49:25.003Z</time>
</trkpt>
<trkpt lat="44.8836980" lon="9.0112450">
<ele>321.228729</ele>
<time>2014-04-01T08:49:48.996Z</time>
</trkpt>
<trkpt lat="44.8836300" lon="9.0111700">
<ele>321.685913</ele>
<time>2014-04-01T08:49:59.002Z</time>
</trkpt>
<trkpt lat="44.8835610" lon="9.0110950">
<ele>321.228729</ele>
<time>2014-04-01T08:50:07.996Z</time>
</trkpt>
<trkpt lat="44.8834700" lon="9.0109880">
<ele>322.173615</ele>
<time>2014-04-01T08:50:15.996Z</time>
</trkpt>
<trkpt lat="44.8833780" lon="9.0108590">
<ele>321.685913</ele>
<time>2014-04-01T08:50:24.999Z</time>
</trkpt>
<trkpt lat="44.8833250" lon="9.0107200">
<ele>322.173615</ele>
<time>2014-04-01T08:50:34.996Z</time>
</trkpt>
<trkpt lat="44.8833100" lon="9.0106130">
<ele>323.148956</ele>
<time>2014-04-01T08:50:43.999Z</time>
</trkpt>
<trkpt lat="44.8832870" lon="9.0105050">
<ele>323.148956</ele>
<time>2014-04-01T08:50:53.002Z</time>
</trkpt>
<trkpt lat="44.8832560" lon="9.0104200">
<ele>325.069214</ele>
<time>2014-04-01T08:51:02.998Z</time>
</trkpt>
<trkpt lat="44.8833250" lon="9.0102700">
<ele>325.556885</ele>
<time>2014-04-01T08:51:13.997Z</time>
</trkpt>
<trkpt lat="44.8833940" lon="9.0102050">
<ele>326.014069</ele>
<time>2014-04-01T08:51:44.004Z</time>
</trkpt>
<trkpt lat="44.8834700" lon="9.0101090">
<ele>325.556885</ele>
<time>2014-04-01T08:52:07.997Z</time>
</trkpt>
<trkpt lat="44.8835310" lon="9.0100340">
<ele>325.069214</ele>
<time>2014-04-01T08:52:18.002Z</time>
</trkpt>
<trkpt lat="44.8835920" lon="9.0099690">
<ele>324.093842</ele>
<time>2014-04-01T08:52:29.001Z</time>
</trkpt>
<trkpt lat="44.8836680" lon="9.0098730">
<ele>323.148956</ele>
<time>2014-04-01T08:52:39.999Z</time>
</trkpt>
<trkpt lat="44.8837370" lon="9.0097870">
<ele>321.685913</ele>
<time>2014-04-01T08:52:49.996Z</time>
</trkpt>
<trkpt lat="44.8838130" lon="9.0097120">
<ele>319.765686</ele>
<time>2014-04-01T08:53:00.001Z</time>
</trkpt>
<trkpt lat="44.8838970" lon="9.0096160">
<ele>320.253357</ele>
<time>2014-04-01T08:53:09.997Z</time>
</trkpt>
<trkpt lat="44.8839730" lon="9.0095510">
<ele>320.253357</ele>
<time>2014-04-01T08:53:20.003Z</time>
</trkpt>
<trkpt lat="44.8840490" lon="9.0094760">
<ele>319.308472</ele>
<time>2014-04-01T08:53:29.999Z</time>
</trkpt>
<trkpt lat="44.8841330" lon="9.0094120">
<ele>317.357758</ele>
<time>2014-04-01T08:53:39.002Z</time>
</trkpt>
<trkpt lat="44.8842090" lon="9.0093260">
<ele>317.357758</ele>
<time>2014-04-01T08:53:47.996Z</time>
</trkpt>
<trkpt lat="44.8842850" lon="9.0092410">
<ele>316.412872</ele>
<time>2014-04-01T08:53:56.999Z</time>
</trkpt>
<trkpt lat="44.8843540" lon="9.0091440">
<ele>315.925201</ele>
<time>2014-04-01T08:54:07.998Z</time>
</trkpt>
<trkpt lat="44.8844300" lon="9.0090500">
<ele>314.492645</ele>
<time>2014-04-01T08:54:21.001Z</time>
</trkpt>
<trkpt lat="44.8844910" lon="9.0089510">
<ele>312.084717</ele>
<time>2014-04-01T08:54:34.004Z</time>
</trkpt>
<trkpt lat="44.8845450" lon="9.0088550">
<ele>312.572388</ele>
<time>2014-04-01T08:54:42.998Z</time>
</trkpt>
<trkpt lat="44.8845980" lon="9.0087370">
<ele>311.597046</ele>
<time>2014-04-01T08:54:53.004Z</time>
</trkpt>
<trkpt lat="44.8846590" lon="9.0086080">
<ele>311.597046</ele>
<time>2014-04-01T08:55:15.001Z</time>
</trkpt>
<trkpt lat="44.8847000" lon="9.0085100">
<ele>309.676788</ele>
<time>2014-04-01T08:55:23.002Z</time>
</trkpt>
<trkpt lat="44.8847500" lon="9.0084150">
<ele>309.676788</ele>
<time>2014-04-01T08:55:31.002Z</time>
</trkpt>
<trkpt lat="44.8848040" lon="9.0082870">
<ele>309.189117</ele>
<time>2014-04-01T08:55:39.003Z</time>
</trkpt>
<trkpt lat="44.8848570" lon="9.0081690">
<ele>308.244232</ele>
<time>2014-04-01T08:55:47.004Z</time>
</trkpt>
<trkpt lat="44.8848950" lon="9.0080620">
<ele>307.268860</ele>
<time>2014-04-01T08:55:55.004Z</time>
</trkpt>
<trkpt lat="44.8849260" lon="9.0079760">
<ele>307.268860</ele>
<time>2014-04-01T08:56:14.997Z</time>
</trkpt>
<trkpt lat="44.8849640" lon="9.0078690">
<ele>305.836334</ele>
<time>2014-04-01T08:56:41.004Z</time>
</trkpt>
<trkpt lat="44.8850020" lon="9.0077720">
<ele>304.860962</ele>
<time>2014-04-01T09:02:47.996Z</time>
</trkpt>
<trkpt lat="44.8850400" lon="9.0076540">
<ele>304.403778</ele>
<time>2014-04-01T09:02:56.999Z</time>
</trkpt>
<trkpt lat="44.8850860" lon="9.0075470">
<ele>303.916077</ele>
<time>2014-04-01T09:03:06.002Z</time>
</trkpt>
<trkpt lat="44.8851310" lon="9.0074290">
<ele>303.428406</ele>
<time>2014-04-01T09:03:14.996Z</time>
</trkpt>
<trkpt lat="44.8851850" lon="9.0073000">
<ele>302.483521</ele>
<time>2014-04-01T09:03:23.999Z</time>
</trkpt>
<trkpt lat="44.8852150" lon="9.0071830">
<ele>301.995850</ele>
<time>2014-04-01T09:03:34.004Z</time>
</trkpt>
<trkpt lat="44.8852530" lon="9.0071080">
<ele>301.020477</ele>
<time>2014-04-01T09:03:56.002Z</time>
</trkpt>
<trkpt lat="44.8852910" lon="9.0069680">
<ele>300.075592</ele>
<time>2014-04-01T09:04:08.996Z</time>
</trkpt>
<trkpt lat="44.8853300" lon="9.0068610">
<ele>300.563263</ele>
<time>2014-04-01T09:04:24.004Z</time>
</trkpt>
<trkpt lat="44.8853750" lon="9.0067430">
<ele>300.563263</ele>
<time>2014-04-01T09:04:44.999Z</time>
</trkpt>
<trkpt lat="44.8854200" lon="9.0066100">
<ele>299.587921</ele>
<time>2014-04-01T09:04:55.004Z</time>
</trkpt>
<trkpt lat="44.8854500" lon="9.0064800">
<ele>300.075592</ele>
<time>2014-04-01T09:05:06.003Z</time>
</trkpt>
<trkpt lat="44.8854800" lon="9.0063600">
<ele>298.612549</ele>
<time>2014-04-01T09:05:21.002Z</time>
</trkpt>
<trkpt lat="44.8854800" lon="9.0062100">
<ele>298.612549</ele>
<time>2014-04-01T09:05:34.999Z</time>
</trkpt>
<trkpt lat="44.8854670" lon="9.0061110">
<ele>297.667664</ele>
<time>2014-04-01T09:05:44.002Z</time>
</trkpt>
<trkpt lat="44.8854290" lon="9.0059930">
<ele>294.314880</ele>
<time>2014-04-01T09:05:55.000Z</time>
</trkpt>
<trkpt lat="44.8853830" lon="9.0059070">
<ele>293.827209</ele>
<time>2014-04-01T09:06:27.996Z</time>
</trkpt>
<trkpt lat="44.8853530" lon="9.0058000">
<ele>292.364166</ele>
<time>2014-04-01T09:06:39.004Z</time>
</trkpt>
<trkpt lat="44.8853450" lon="9.0056390">
<ele>290.931610</ele>
<time>2014-04-01T09:06:47.998Z</time>
</trkpt>
<trkpt lat="44.8853700" lon="9.0054800">
<ele>289.986725</ele>
<time>2014-04-01T09:06:57.001Z</time>
</trkpt>
<trkpt lat="44.8853900" lon="9.0053400">
<ele>290.931610</ele>
<time>2014-04-01T09:07:06.997Z</time>
</trkpt>
<trkpt lat="44.8854100" lon="9.0052100">
<ele>289.986725</ele>
<time>2014-04-01T09:07:17.003Z</time>
</trkpt>
<trkpt lat="44.8854400" lon="9.0050800">
<ele>290.443939</ele>
<time>2014-04-01T09:07:29.997Z</time>
</trkpt>
<trkpt lat="44.8854700" lon="9.0049600">
<ele>289.986725</ele>
<time>2014-04-01T09:07:40.996Z</time>
</trkpt>
<trkpt lat="44.8854590" lon="9.0048780">
<ele>288.523682</ele>
<time>2014-04-01T09:07:52.003Z</time>
</trkpt>
<trkpt lat="44.8854700" lon="9.0047100">
<ele>289.011353</ele>
<time>2014-04-01T09:08:02.000Z</time>
</trkpt>
<trkpt lat="44.8854750" lon="9.0046200">
<ele>288.066467</ele>
<time>2014-04-01T09:08:11.996Z</time>
</trkpt>
<trkpt lat="44.8854900" lon="9.0044500">
<ele>288.066467</ele>
<time>2014-04-01T09:08:23.004Z</time>
</trkpt>
<trkpt lat="44.8855100" lon="9.0043200">
<ele>286.603424</ele>
<time>2014-04-01T09:08:34.996Z</time>
</trkpt>
<trkpt lat="44.8855200" lon="9.0041900">
<ele>286.115753</ele>
<time>2014-04-01T09:08:46.003Z</time>
</trkpt>
<trkpt lat="44.8855400" lon="9.0040800">
<ele>285.658569</ele>
<time>2014-04-01T09:09:02.998Z</time>
</trkpt>
<trkpt lat="44.8855500" lon="9.0039500">
<ele>284.683197</ele>
<time>2014-04-01T09:09:12.001Z</time>
</trkpt>
<trkpt lat="44.8855700" lon="9.0038200">
<ele>284.195526</ele>
<time>2014-04-01T09:09:21.004Z</time>
</trkpt>
<trkpt lat="44.8855800" lon="9.0037000">
<ele>283.250641</ele>
<time>2014-04-01T09:09:29.998Z</time>
</trkpt>
<trkpt lat="44.8855900" lon="9.0035600">
<ele>283.250641</ele>
<time>2014-04-01T09:09:40.003Z</time>
</trkpt>
<trkpt lat="44.8856040" lon="9.0034410">
<ele>281.818085</ele>
<time>2014-04-01T09:09:52.004Z</time>
</trkpt>
<trkpt lat="44.8856120" lon="9.0032800">
<ele>280.842712</ele>
<time>2014-04-01T09:10:00.998Z</time>
</trkpt>
<trkpt lat="44.8856200" lon="9.0031500">
<ele>280.842712</ele>
<time>2014-04-01T09:10:10.001Z</time>
</trkpt>
<trkpt lat="44.8856300" lon="9.0030300">
<ele>279.867371</ele>
<time>2014-04-01T09:10:19.004Z</time>
</trkpt>
<trkpt lat="44.8856350" lon="9.0028950">
<ele>279.867371</ele>
<time>2014-04-01T09:10:27.998Z</time>
</trkpt>
<trkpt lat="44.8856570" lon="9.0027550">
<ele>278.922485</ele>
<time>2014-04-01T09:10:39.999Z</time>
</trkpt>
<trkpt lat="44.8856900" lon="9.0026500">
<ele>277.489929</ele>
<time>2014-04-01T09:11:43.002Z</time>
</trkpt>
<trkpt lat="44.8857200" lon="9.0025100">
<ele>276.514557</ele>
<time>2014-04-01T09:11:54.001Z</time>
</trkpt>
<trkpt lat="44.8857400" lon="9.0023900">
<ele>274.106628</ele>
<time>2014-04-01T09:12:03.997Z</time>
</trkpt>
<trkpt lat="44.8857800" lon="9.0022700">
<ele>272.674072</ele>
<time>2014-04-01T09:12:14.996Z</time>
</trkpt>
<trkpt lat="44.8858100" lon="9.0021500">
<ele>269.778473</ele>
<time>2014-04-01T09:12:27.999Z</time>
</trkpt>
<trkpt lat="44.8858600" lon="9.0020300">
<ele>267.370575</ele>
<time>2014-04-01T09:12:41.003Z</time>
</trkpt>
<trkpt lat="44.8859100" lon="9.0019100">
<ele>264.993134</ele>
<time>2014-04-01T09:12:52.001Z</time>
</trkpt>
<trkpt lat="44.8859400" lon="9.0017700">
<ele>263.530060</ele>
<time>2014-04-01T09:13:03.000Z</time>
</trkpt>
<trkpt lat="44.8859800" lon="9.0016400">
<ele>262.097534</ele>
<time>2014-04-01T09:13:24.004Z</time>
</trkpt>
<trkpt lat="44.8860400" lon="9.0015300">
<ele>260.664978</ele>
<time>2014-04-01T09:13:39.003Z</time>
</trkpt>
<trkpt lat="44.8860700" lon="9.0014100">
<ele>257.281677</ele>
<time>2014-04-01T09:13:55.998Z</time>
</trkpt>
<trkpt lat="44.8861400" lon="9.0013200">
<ele>253.928879</ele>
<time>2014-04-01T09:14:18.997Z</time>
</trkpt>
<trkpt lat="44.8862100" lon="9.0011900">
<ele>251.520966</ele>
<time>2014-04-01T09:14:32.001Z</time>
</trkpt>
<trkpt lat="44.8862600" lon="9.0010700">
<ele>247.680466</ele>
<time>2014-04-01T09:14:45.004Z</time>
</trkpt>
<trkpt lat="44.8863100" lon="9.0009600">
<ele>243.839996</ele>
<time>2014-04-01T09:14:56.003Z</time>
</trkpt>
<trkpt lat="44.8863600" lon="9.0008500">
<ele>242.864639</ele>
<time>2014-04-01T09:15:05.999Z</time>
</trkpt>
<trkpt lat="44.8864000" lon="9.0007400">
<ele>239.999527</ele>
<time>2014-04-01T09:15:49.000Z</time>
</trkpt>
<trkpt lat="44.8864300" lon="9.0006500">
<ele>236.616241</ele>
<time>2014-04-01T09:16:40.996Z</time>
</trkpt>
<trkpt lat="44.8864600" lon="9.0005200">
<ele>233.263443</ele>
<time>2014-04-01T09:16:55.001Z</time>
</trkpt>
<trkpt lat="44.8865100" lon="9.0004000">
<ele>229.422958</ele>
<time>2014-04-01T09:17:07.002Z</time>
</trkpt>
<trkpt lat="44.8865500" lon="9.0002900">
<ele>226.527359</ele>
<time>2014-04-01T09:17:19.997Z</time>
</trkpt>
<trkpt lat="44.8865900" lon="9.0001600">
<ele>224.607132</ele>
<time>2014-04-01T09:17:31.998Z</time>
</trkpt>
<trkpt lat="44.8866200" lon="9.0000400">
<ele>221.254333</ele>
<time>2014-04-01T09:17:42.996Z</time>
</trkpt>
<trkpt lat="44.8866700" lon="8.9999400">
<ele>218.358734</ele>
<time>2014-04-01T09:17:57.002Z</time>
</trkpt>
<trkpt lat="44.8867100" lon="8.9998200">
<ele>215.463135</ele>
<time>2014-04-01T09:18:09.003Z</time>
</trkpt>
<trkpt lat="44.8867630" lon="8.9997210">
<ele>214.030563</ele>
<time>2014-04-01T09:18:20.002Z</time>
</trkpt>
<trkpt lat="44.8868300" lon="8.9996300">
<ele>211.622635</ele>
<time>2014-04-01T09:18:32.003Z</time>
</trkpt>
<trkpt lat="44.8868900" lon="8.9995200">
<ele>211.134964</ele>
<time>2014-04-01T09:18:52.998Z</time>
</trkpt>
<trkpt lat="44.8869500" lon="8.9994100">
<ele>207.782166</ele>
<time>2014-04-01T09:19:03.996Z</time>
</trkpt>
<trkpt lat="44.8869380" lon="8.9993350">
<ele>207.294479</ele>
<time>2014-04-01T09:19:48.000Z</time>
</trkpt>
<trkpt lat="44.8869150" lon="8.9991640">
<ele>206.349594</ele>
<time>2014-04-01T09:20:13.998Z</time>
</trkpt>
<trkpt lat="44.8869070" lon="8.9990140">
<ele>205.861923</ele>
<time>2014-04-01T09:20:24.003Z</time>
</trkpt>
<trkpt lat="44.8869460" lon="8.9988720">
<ele>204.886566</ele>
<time>2014-04-01T09:20:33.999Z</time>
</trkpt>
<trkpt lat="44.8869620" lon="8.9987430">
<ele>204.886566</ele>
<time>2014-04-01T09:20:43.996Z</time>
</trkpt>
<trkpt lat="44.8869770" lon="8.9986150">
<ele>204.429367</ele>
<time>2014-04-01T09:21:07.998Z</time>
</trkpt>
<trkpt lat="44.8869900" lon="8.9984800">
<ele>204.886566</ele>
<time>2014-04-01T09:21:17.001Z</time>
</trkpt>
<trkpt lat="44.8870100" lon="8.9983600">
<ele>203.941666</ele>
<time>2014-04-01T09:21:26.004Z</time>
</trkpt>
<trkpt lat="44.8870200" lon="8.9982300">
<ele>203.941666</ele>
<time>2014-04-01T09:21:34.998Z</time>
</trkpt>
<trkpt lat="44.8870200" lon="8.9982000">
<ele>203.941666</ele>
<time>2014-04-01T09:21:57.004Z</time>
</trkpt>
<trkpt lat="44.8870450" lon="8.9980680">
<ele>203.453995</ele>
<time>2014-04-01T09:22:08.003Z</time>
</trkpt>
<trkpt lat="44.8870680" lon="8.9979390">
<ele>202.966324</ele>
<time>2014-04-01T09:22:16.997Z</time>
</trkpt>
<trkpt lat="44.8870840" lon="8.9978000">
<ele>202.021439</ele>
<time>2014-04-01T09:22:31.002Z</time>
</trkpt>
<trkpt lat="44.8870990" lon="8.9976710">
<ele>201.533768</ele>
<time>2014-04-01T09:22:39.996Z</time>
</trkpt>
<trkpt lat="44.8871140" lon="8.9975430">
<ele>202.021439</ele>
<time>2014-04-01T09:22:48.999Z</time>
</trkpt>
<trkpt lat="44.8871370" lon="8.9974140">
<ele>201.533768</ele>
<time>2014-04-01T09:22:58.002Z</time>
</trkpt>
<trkpt lat="44.8871520" lon="8.9972850">
<ele>201.533768</ele>
<time>2014-04-01T09:23:06.996Z</time>
</trkpt>
<trkpt lat="44.8871600" lon="8.9971460">
<ele>201.046066</ele>
<time>2014-04-01T09:23:15.999Z</time>
</trkpt>
<trkpt lat="44.8871750" lon="8.9970170">
<ele>200.558395</ele>
<time>2014-04-01T09:23:25.002Z</time>
</trkpt>
<trkpt lat="44.8871900" lon="8.9969100">
<ele>200.558395</ele>
<time>2014-04-01T09:23:33.996Z</time>
</trkpt>
<trkpt lat="44.8872050" lon="8.9967600">
<ele>200.101196</ele>
<time>2014-04-01T09:23:41.997Z</time>
</trkpt>
<trkpt lat="44.8872280" lon="8.9966100">
<ele>199.613525</ele>
<time>2014-04-01T09:23:49.998Z</time>
</trkpt>
<trkpt lat="44.8872440" lon="8.9964920">
<ele>199.613525</ele>
<time>2014-04-01T09:23:57.998Z</time>
</trkpt>
<trkpt lat="44.8872590" lon="8.9963420">
<ele>200.101196</ele>
<time>2014-04-01T09:24:05.999Z</time>
</trkpt>
<trkpt lat="44.8872820" lon="8.9961700">
<ele>199.125839</ele>
<time>2014-04-01T09:24:14.000Z</time>
</trkpt>
<trkpt lat="44.8872890" lon="8.9960520">
<ele>199.613525</ele>
<time>2014-04-01T09:24:22.000Z</time>
</trkpt>
<trkpt lat="44.8873040" lon="8.9959560">
<ele>199.613525</ele>
<time>2014-04-01T09:24:30.001Z</time>
</trkpt>
<trkpt lat="44.8873200" lon="8.9958270">
<ele>199.613525</ele>
<time>2014-04-01T09:24:38.002Z</time>
</trkpt>
<trkpt lat="44.8873300" lon="8.9957000">
<ele>199.125839</ele>
<time>2014-04-01T09:24:47.998Z</time>
</trkpt>
<trkpt lat="44.8873500" lon="8.9955700">
<ele>198.638168</ele>
<time>2014-04-01T09:24:57.001Z</time>
</trkpt>
<trkpt lat="44.8873810" lon="8.9954410">
<ele>198.180969</ele>
<time>2014-04-01T09:25:05.002Z</time>
</trkpt>
<trkpt lat="44.8873960" lon="8.9952910">
<ele>197.693268</ele>
<time>2014-04-01T09:25:13.002Z</time>
</trkpt>
<trkpt lat="44.8874100" lon="8.9951600">
<ele>197.693268</ele>
<time>2014-04-01T09:25:21.003Z</time>
</trkpt>
<trkpt lat="44.8874420" lon="8.9950230">
<ele>198.180969</ele>
<time>2014-04-01T09:25:29.004Z</time>
</trkpt>
<trkpt lat="44.8874640" lon="8.9948940">
<ele>197.693268</ele>
<time>2014-04-01T09:25:37.004Z</time>
</trkpt>
<trkpt lat="44.8874870" lon="8.9947550">
<ele>197.693268</ele>
<time>2014-04-01T09:25:44.996Z</time>
</trkpt>
<trkpt lat="44.8875030" lon="8.9946160">
<ele>197.205597</ele>
<time>2014-04-01T09:25:52.997Z</time>
</trkpt>
<trkpt lat="44.8875250" lon="8.9944870">
<ele>196.260727</ele>
<time>2014-04-01T09:26:00.997Z</time>
</trkpt>
<trkpt lat="44.8875300" lon="8.9943600">
<ele>195.773041</ele>
<time>2014-04-01T09:26:08.998Z</time>
</trkpt>
<trkpt lat="44.8875400" lon="8.9942300">
<ele>196.260727</ele>
<time>2014-04-01T09:26:16.999Z</time>
</trkpt>
<trkpt lat="44.8875630" lon="8.9941120">
<ele>195.773041</ele>
<time>2014-04-01T09:26:24.999Z</time>
</trkpt>
<trkpt lat="44.8875700" lon="8.9939700">
<ele>195.773041</ele>
<time>2014-04-01T09:26:33.000Z</time>
</trkpt>
<trkpt lat="44.8875800" lon="8.9938500">
<ele>195.773041</ele>
<time>2014-04-01T09:26:41.001Z</time>
</trkpt>
<trkpt lat="44.8875860" lon="8.9937370">
<ele>195.285370</ele>
<time>2014-04-01T09:26:49.001Z</time>
</trkpt>
<trkpt lat="44.8876170" lon="8.9935760">
<ele>193.852798</ele>
<time>2014-04-01T09:26:57.002Z</time>
</trkpt>
<trkpt lat="44.8876200" lon="8.9934500">
<ele>193.852798</ele>
<time>2014-04-01T09:27:05.003Z</time>
</trkpt>
<trkpt lat="44.8876300" lon="8.9933100">
<ele>193.852798</ele>
<time>2014-04-01T09:27:13.003Z</time>
</trkpt>
<trkpt lat="44.8876550" lon="8.9931790">
<ele>193.365128</ele>
<time>2014-04-01T09:27:21.004Z</time>
</trkpt>
<trkpt lat="44.8876630" lon="8.9930500">
<ele>193.365128</ele>
<time>2014-04-01T09:27:28.996Z</time>
</trkpt>
<trkpt lat="44.8876700" lon="8.9929000">
<ele>193.365128</ele>
<time>2014-04-01T09:27:36.996Z</time>
</trkpt>
<trkpt lat="44.8876800" lon="8.9927600">
<ele>193.365128</ele>
<time>2014-04-01T09:27:44.997Z</time>
</trkpt>
<trkpt lat="44.8877000" lon="8.9926300">
<ele>192.877441</ele>
<time>2014-04-01T09:27:52.998Z</time>
</trkpt>
<trkpt lat="44.8877200" lon="8.9925000">
<ele>192.877441</ele>
<time>2014-04-01T09:28:00.998Z</time>
</trkpt>
<trkpt lat="44.8877500" lon="8.9923600">
<ele>192.389771</ele>
<time>2014-04-01T09:28:08.999Z</time>
</trkpt>
<trkpt lat="44.8877700" lon="8.9922300">
<ele>191.932556</ele>
<time>2014-04-01T09:28:17.000Z</time>
</trkpt>
<trkpt lat="44.8877900" lon="8.9920900">
<ele>191.444870</ele>
<time>2014-04-01T09:28:25.000Z</time>
</trkpt>
<trkpt lat="44.8878070" lon="8.9919570">
<ele>191.444870</ele>
<time>2014-04-01T09:28:33.001Z</time>
</trkpt>
<trkpt lat="44.8878300" lon="8.9918200">
<ele>191.444870</ele>
<time>2014-04-01T09:28:41.002Z</time>
</trkpt>
<trkpt lat="44.8878500" lon="8.9916900">
<ele>190.957199</ele>
<time>2014-04-01T09:28:49.002Z</time>
</trkpt>
<trkpt lat="44.8878600" lon="8.9915400">
<ele>190.957199</ele>
<time>2014-04-01T09:28:57.003Z</time>
</trkpt>
<trkpt lat="44.8878800" lon="8.9914100">
<ele>190.957199</ele>
<time>2014-04-01T09:29:05.004Z</time>
</trkpt>
<trkpt lat="44.8879060" lon="8.9912810">
<ele>190.469528</ele>
<time>2014-04-01T09:29:13.004Z</time>
</trkpt>
<trkpt lat="44.8879290" lon="8.9911310">
<ele>190.012329</ele>
<time>2014-04-01T09:29:20.996Z</time>
</trkpt>
<trkpt lat="44.8879600" lon="8.9909700">
<ele>190.012329</ele>
<time>2014-04-01T09:29:28.997Z</time>
</trkpt>
<trkpt lat="44.8879820" lon="8.9908520">
<ele>190.012329</ele>
<time>2014-04-01T09:29:36.997Z</time>
</trkpt>
<trkpt lat="44.8880050" lon="8.9907350">
<ele>189.524643</ele>
<time>2014-04-01T09:29:44.998Z</time>
</trkpt>
<trkpt lat="44.8880210" lon="8.9905950">
<ele>190.012329</ele>
<time>2014-04-01T09:29:52.999Z</time>
</trkpt>
<trkpt lat="44.8880400" lon="8.9904600">
<ele>189.524643</ele>
<time>2014-04-01T09:30:00.999Z</time>
</trkpt>
<trkpt lat="44.8880600" lon="8.9903200">
<ele>189.524643</ele>
<time>2014-04-01T09:30:09.000Z</time>
</trkpt>
<trkpt lat="44.8880800" lon="8.9901900">
<ele>189.524643</ele>
<time>2014-04-01T09:30:17.001Z</time>
</trkpt>
<trkpt lat="44.8881100" lon="8.9900500">
<ele>189.036957</ele>
<time>2014-04-01T09:30:25.001Z</time>
</trkpt>
<trkpt lat="44.8881200" lon="8.9899100">
<ele>189.524643</ele>
<time>2014-04-01T09:30:33.002Z</time>
</trkpt>
<trkpt lat="44.8881300" lon="8.9897700">
<ele>189.036957</ele>
<time>2014-04-01T09:30:41.996Z</time>
</trkpt>
<trkpt lat="44.8881190" lon="8.9896300">
<ele>188.549271</ele>
<time>2014-04-01T09:31:08.003Z</time>
</trkpt>
<trkpt lat="44.8881100" lon="8.9895000">
<ele>188.549271</ele>
<time>2014-04-01T09:31:24.004Z</time>
</trkpt>
<trkpt lat="44.8881200" lon="8.9893600">
<ele>188.549271</ele>
<time>2014-04-01T09:31:32.998Z</time>
</trkpt>
<trkpt lat="44.8881600" lon="8.9892400">
<ele>188.549271</ele>
<time>2014-04-01T09:31:40.999Z</time>
</trkpt>
<trkpt lat="44.8881960" lon="8.9891260">
<ele>188.549271</ele>
<time>2014-04-01T09:31:48.999Z</time>
</trkpt>
<trkpt lat="44.8882340" lon="8.9890190">
<ele>189.036957</ele>
<time>2014-04-01T09:31:58.002Z</time>
</trkpt>
<trkpt lat="44.8883100" lon="8.9889010">
<ele>188.549271</ele>
<time>2014-04-01T09:32:06.996Z</time>
</trkpt>
<trkpt lat="44.8883560" lon="8.9887830">
<ele>188.061600</ele>
<time>2014-04-01T09:32:15.999Z</time>
</trkpt>
<trkpt lat="44.8884200" lon="8.9886600">
<ele>187.604401</ele>
<time>2014-04-01T09:32:25.002Z</time>
</trkpt>
<trkpt lat="44.8884550" lon="8.9885580">
<ele>187.604401</ele>
<time>2014-04-01T09:32:41.004Z</time>
</trkpt>
<trkpt lat="44.8885000" lon="8.9884610">
<ele>187.604401</ele>
<time>2014-04-01T09:33:16.998Z</time>
</trkpt>
<trkpt lat="44.8885540" lon="8.9883540">
<ele>187.604401</ele>
<time>2014-04-01T09:33:26.001Z</time>
</trkpt>
<trkpt lat="44.8885990" lon="8.9882470">
<ele>186.629044</ele>
<time>2014-04-01T09:33:35.004Z</time>
</trkpt>
<trkpt lat="44.8886600" lon="8.9881500">
<ele>187.604401</ele>
<time>2014-04-01T09:33:43.998Z</time>
</trkpt>
<trkpt lat="44.8887200" lon="8.9880400">
<ele>187.116730</ele>
<time>2014-04-01T09:33:54.003Z</time>
</trkpt>
<trkpt lat="44.8887800" lon="8.9879400">
<ele>187.116730</ele>
<time>2014-04-01T09:34:02.004Z</time>
</trkpt>
<trkpt lat="44.8888500" lon="8.9878400">
<ele>186.629044</ele>
<time>2014-04-01T09:34:10.998Z</time>
</trkpt>
<trkpt lat="44.8889000" lon="8.9877200">
<ele>187.604401</ele>
<time>2014-04-01T09:34:52.003Z</time>
</trkpt>
<trkpt lat="44.8889600" lon="8.9876100">
<ele>187.116730</ele>
<time>2014-04-01T09:35:00.997Z</time>
</trkpt>
<trkpt lat="44.8890100" lon="8.9875000">
<ele>187.116730</ele>
<time>2014-04-01T09:35:10.000Z</time>
</trkpt>
<trkpt lat="44.8890490" lon="8.9873890">
<ele>187.116730</ele>
<time>2014-04-01T09:35:19.997Z</time>
</trkpt>
<trkpt lat="44.8890870" lon="8.9872820">
<ele>186.629044</ele>
<time>2014-04-01T09:35:31.004Z</time>
</trkpt>
<trkpt lat="44.8891330" lon="8.9871750">
<ele>186.629044</ele>
<time>2014-04-01T09:35:41.001Z</time>
</trkpt>
<trkpt lat="44.8891940" lon="8.9870350">
<ele>186.629044</ele>
<time>2014-04-01T09:36:01.996Z</time>
</trkpt>
<trkpt lat="44.8892400" lon="8.9869300">
<ele>186.141357</ele>
<time>2014-04-01T09:36:13.997Z</time>
</trkpt>
<trkpt lat="44.8892500" lon="8.9868500">
<ele>186.141357</ele>
<time>2014-04-01T09:37:46.004Z</time>
</trkpt>
<trkpt lat="44.8892500" lon="8.9869300">
<ele>186.629044</ele>
<time>2014-04-01T09:42:16.998Z</time>
</trkpt>
<trkpt lat="44.8892500" lon="8.9868200">
<ele>186.141357</ele>
<time>2014-04-01T09:42:53.001Z</time>
</trkpt>
<trkpt lat="44.8892620" lon="8.9866920">
<ele>186.629044</ele>
<time>2014-04-01T09:43:05.002Z</time>
</trkpt>
<trkpt lat="44.8892780" lon="8.9865850">
<ele>186.629044</ele>
<time>2014-04-01T09:43:16.000Z</time>
</trkpt>
<trkpt lat="44.8892930" lon="8.9864240">
<ele>186.629044</ele>
<time>2014-04-01T09:43:25.997Z</time>
</trkpt>
<trkpt lat="44.8893080" lon="8.9862850">
<ele>186.629044</ele>
<time>2014-04-01T09:43:35.000Z</time>
</trkpt>
<trkpt lat="44.8893310" lon="8.9861670">
<ele>186.141357</ele>
<time>2014-04-01T09:43:44.003Z</time>
</trkpt>
<trkpt lat="44.8893160" lon="8.9860600">
<ele>186.629044</ele>
<time>2014-04-01T09:43:52.997Z</time>
</trkpt>
<trkpt lat="44.8892850" lon="8.9858880">
<ele>186.141357</ele>
<time>2014-04-01T09:44:02.000Z</time>
</trkpt>
<trkpt lat="44.8891940" lon="8.9857590">
<ele>186.629044</ele>
<time>2014-04-01T09:44:11.003Z</time>
</trkpt>
<trkpt lat="44.8891480" lon="8.9856090">
<ele>186.629044</ele>
<time>2014-04-01T09:44:19.003Z</time>
</trkpt>
<trkpt lat="44.8891710" lon="8.9854490">
<ele>186.141357</ele>
<time>2014-04-01T09:44:27.997Z</time>
</trkpt>
<trkpt lat="44.8891940" lon="8.9853310">
<ele>185.684158</ele>
<time>2014-04-01T09:44:38.003Z</time>
</trkpt>
<trkpt lat="44.8892240" lon="8.9852230">
<ele>185.684158</ele>
<time>2014-04-01T09:44:46.997Z</time>
</trkpt>
<trkpt lat="44.8892470" lon="8.9850950">
<ele>185.684158</ele>
<time>2014-04-01T09:44:56.000Z</time>
</trkpt>
<trkpt lat="44.8892620" lon="8.9849660">
<ele>185.196472</ele>
<time>2014-04-01T09:45:05.003Z</time>
</trkpt>
<trkpt lat="44.8893000" lon="8.9848500">
<ele>185.196472</ele>
<time>2014-04-01T09:45:16.001Z</time>
</trkpt>
<trkpt lat="44.8893300" lon="8.9847200">
<ele>184.708801</ele>
<time>2014-04-01T09:45:33.998Z</time>
</trkpt>
<trkpt lat="44.8893150" lon="8.9847950">
<ele>184.221130</ele>
<time>2014-04-01T09:46:04.999Z</time>
</trkpt>
<trkpt lat="44.8893460" lon="8.9846120">
<ele>184.221130</ele>
<time>2014-04-01T09:46:12.999Z</time>
</trkpt>
<trkpt lat="44.8893530" lon="8.9844840">
<ele>183.763931</ele>
<time>2014-04-01T09:46:21.000Z</time>
</trkpt>
<trkpt lat="44.8893760" lon="8.9843440">
<ele>183.763931</ele>
<time>2014-04-01T09:46:30.996Z</time>
</trkpt>
<trkpt lat="44.8893920" lon="8.9842480">
<ele>182.788559</ele>
<time>2014-04-01T09:47:24.996Z</time>
</trkpt>
<trkpt lat="44.8894140" lon="8.9840980">
<ele>183.276230</ele>
<time>2014-04-01T09:47:35.002Z</time>
</trkpt>
<trkpt lat="44.8894300" lon="8.9840120">
<ele>183.763931</ele>
<time>2014-04-01T09:47:43.996Z</time>
</trkpt>
<trkpt lat="44.8894450" lon="8.9838830">
<ele>184.221130</ele>
<time>2014-04-01T09:47:52.999Z</time>
</trkpt>
<trkpt lat="44.8894600" lon="8.9837540">
<ele>182.788559</ele>
<time>2014-04-01T09:48:03.004Z</time>
</trkpt>
<trkpt lat="44.8895130" lon="8.9836260">
<ele>183.276230</ele>
<time>2014-04-01T09:48:13.000Z</time>
</trkpt>
<trkpt lat="44.8895590" lon="8.9835190">
<ele>183.763931</ele>
<time>2014-04-01T09:48:54.999Z</time>
</trkpt>
<trkpt lat="44.8896050" lon="8.9834010">
<ele>183.276230</ele>
<time>2014-04-01T09:49:05.998Z</time>
</trkpt>
<trkpt lat="44.8896280" lon="8.9832720">
<ele>183.276230</ele>
<time>2014-04-01T09:49:15.001Z</time>
</trkpt>
<trkpt lat="44.8896350" lon="8.9831650">
<ele>182.788559</ele>
<time>2014-04-01T09:49:24.004Z</time>
</trkpt>
<trkpt lat="44.8896500" lon="8.9830150">
<ele>182.788559</ele>
<time>2014-04-01T09:49:32.998Z</time>
</trkpt>
<trkpt lat="44.8896890" lon="8.9828750">
<ele>183.763931</ele>
<time>2014-04-01T09:49:40.999Z</time>
</trkpt>
<trkpt lat="44.8897110" lon="8.9827470">
<ele>183.276230</ele>
<time>2014-04-01T09:49:50.002Z</time>
</trkpt>
<trkpt lat="44.8897300" lon="8.9826500">
<ele>183.763931</ele>
<time>2014-04-01T09:50:02.003Z</time>
</trkpt>
<trkpt lat="44.8896890" lon="8.9825640">
<ele>184.221130</ele>
<time>2014-04-01T09:50:18.004Z</time>
</trkpt>
<trkpt lat="44.8896428" lon="8.9824893">
<ele>184.708801</ele>
<time>2014-04-01T09:50:42.999Z</time>
</trkpt>
</trkseg>
<trkseg>
<trkpt lat="44.8896428" lon="8.9825214">
<ele>187.604401</ele>
<time>2014-04-01T12:07:44.996Z</time>
</trkpt>
</trkseg>
</trk>
</gpx>