<?xml version="1.0" encoding="UTF-8" standalone="yes"?>
<gpx
 xmlns="http://www.topografix.com/GPX/1/1"
 creator="OziExplorer Version 3955t - http://www.oziexplorer.com"
 version="1.1"
 xmlns:xsi="http://www.w3.org/2001/XMLSchema-instance"
 xsi:schemaLocation="http://www.topografix.com/GPX/1/1 http://www.topografix.com/GPX/1/1/gpx.xsd">
<metadata>
 <time>2014-08-07T13:14:36Z</time>
 <bounds minlat="44.864290" minlon="8.947144" maxlat="44.883255" maxlon="8.974065"/>
</metadata>
<wpt lat="44.8832550" lon="8.9739580">
 <ele>297.000000</ele>
 <time>2014-08-06T09:20:24.729Z</time>
 <name>MONLEALE</name>
 <sym>Flag, Blue</sym>
</wpt>
<wpt lat="44.8727490" lon="8.9604030">
 <ele>314.000000</ele>
 <time>2014-08-06T09:20:24.746Z</time>
 <name>FRAZIONE CHIESA</name>
 <sym>Flag, Blue</sym>
</wpt>
<wpt lat="44.8646150" lon="8.9538930">
 <ele>350.000000</ele>
 <time>2014-08-06T09:20:24.746Z</time>
 <name>FRAZIONE CAPPELLETTA</name>
 <sym>Flag, Blue</sym>
</wpt>
<wpt lat="44.8650600" lon="8.9504200">
 <ele>380.000000</ele>
 <time>2014-08-06T09:20:24.746Z</time>
 <name>MONTE ROSCELLA</name>
 <sym>Flag, Blue</sym>
</wpt>
<wpt lat="44.8763880" lon="8.9507640">
 <ele>284.000000</ele>
 <time>2014-08-06T09:20:24.746Z</time>
 <name>BERZANO DI TORTONA</name>
 <sym>Flag, Blue</sym>
</wpt>
<wpt lat="44.8817400" lon="8.9692400">
 <ele>293.000000</ele>
 <time>2014-08-06T09:20:24.763Z</time>
 <name>INNESTO SU SENTIERO 101</name>
 <sym>Flag, Blue</sym>
</wpt>
<trk>
 <name>TRACCIA SENTIERO 152</name>
 <desc>SENTIERO 152</desc>
<trkseg>
<trkpt lat="44.8832549" lon="8.9740112">
<ele>294.772064</ele>
<time>2014-08-05T07:13:38.997Z</time>
</trkpt>
<trkpt lat="44.8830190" lon="8.9740440">
<ele>294.772064</ele>
<time>2014-08-05T07:13:48.000Z</time>
</trkpt>
<trkpt lat="44.8829350" lon="8.9740440">
<ele>294.772064</ele>
<time>2014-08-05T07:13:57.003Z</time>
</trkpt>
<trkpt lat="44.8828210" lon="8.9740650">
<ele>295.259766</ele>
<time>2014-08-05T07:14:05.997Z</time>
</trkpt>
<trkpt lat="44.8827520" lon="8.9740440">
<ele>294.772064</ele>
<time>2014-08-05T07:14:15.000Z</time>
</trkpt>
<trkpt lat="44.8826300" lon="8.9740540">
<ele>294.772064</ele>
<time>2014-08-05T07:14:23.001Z</time>
</trkpt>
<trkpt lat="44.8825310" lon="8.9740220">
<ele>295.747437</ele>
<time>2014-08-05T07:14:32.004Z</time>
</trkpt>
<trkpt lat="44.8824620" lon="8.9739690">
<ele>295.747437</ele>
<time>2014-08-05T07:14:42.000Z</time>
</trkpt>
<trkpt lat="44.8823780" lon="8.9739260">
<ele>295.259766</ele>
<time>2014-08-05T07:14:51.003Z</time>
</trkpt>
<trkpt lat="44.8823170" lon="8.9738830">
<ele>296.235138</ele>
<time>2014-08-05T07:14:59.997Z</time>
</trkpt>
<trkpt lat="44.8822180" lon="8.9738190">
<ele>296.235138</ele>
<time>2014-08-05T07:15:09.000Z</time>
</trkpt>
<trkpt lat="44.8821420" lon="8.9737650">
<ele>295.747437</ele>
<time>2014-08-05T07:15:19.999Z</time>
</trkpt>
<trkpt lat="44.8821120" lon="8.9737330">
<ele>296.692322</ele>
<time>2014-08-05T07:15:34.998Z</time>
</trkpt>
<trkpt lat="44.8820580" lon="8.9736580">
<ele>297.179993</ele>
<time>2014-08-05T07:17:05.001Z</time>
</trkpt>
<trkpt lat="44.8819970" lon="8.9735940">
<ele>297.179993</ele>
<time>2014-08-05T07:17:33.003Z</time>
</trkpt>
<trkpt lat="44.8818980" lon="8.9734970">
<ele>298.155365</ele>
<time>2014-08-05T07:18:04.003Z</time>
</trkpt>
<trkpt lat="44.8818370" lon="8.9734330">
<ele>298.612549</ele>
<time>2014-08-05T07:18:19.002Z</time>
</trkpt>
<trkpt lat="44.8817610" lon="8.9733580">
<ele>298.155365</ele>
<time>2014-08-05T07:18:34.001Z</time>
</trkpt>
<trkpt lat="44.8816850" lon="8.9732830">
<ele>299.100250</ele>
<time>2014-08-05T07:18:43.004Z</time>
</trkpt>
<trkpt lat="44.8816090" lon="8.9732080">
<ele>300.075592</ele>
<time>2014-08-05T07:18:51.998Z</time>
</trkpt>
<trkpt lat="44.8815400" lon="8.9731330">
<ele>301.020477</ele>
<time>2014-08-05T07:19:01.001Z</time>
</trkpt>
<trkpt lat="44.8814490" lon="8.9730150">
<ele>301.508179</ele>
<time>2014-08-05T07:19:10.998Z</time>
</trkpt>
<trkpt lat="44.8813720" lon="8.9729400">
<ele>302.483521</ele>
<time>2014-08-05T07:19:20.001Z</time>
</trkpt>
<trkpt lat="44.8813040" lon="8.9728760">
<ele>303.916077</ele>
<time>2014-08-05T07:19:29.004Z</time>
</trkpt>
<trkpt lat="44.8812200" lon="8.9728010">
<ele>304.403778</ele>
<time>2014-08-05T07:19:37.998Z</time>
</trkpt>
<trkpt lat="44.8811280" lon="8.9727580">
<ele>304.403778</ele>
<time>2014-08-05T07:19:45.998Z</time>
</trkpt>
<trkpt lat="44.8810370" lon="8.9727040">
<ele>305.836334</ele>
<time>2014-08-05T07:19:53.999Z</time>
</trkpt>
<trkpt lat="44.8809300" lon="8.9726720">
<ele>306.324005</ele>
<time>2014-08-05T07:20:02.000Z</time>
</trkpt>
<trkpt lat="44.8808310" lon="8.9726510">
<ele>306.811676</ele>
<time>2014-08-05T07:20:08.998Z</time>
</trkpt>
<trkpt lat="44.8807320" lon="8.9726400">
<ele>307.756561</ele>
<time>2014-08-05T07:20:16.999Z</time>
</trkpt>
<trkpt lat="44.8806480" lon="8.9726720">
<ele>308.731934</ele>
<time>2014-08-05T07:20:24.999Z</time>
</trkpt>
<trkpt lat="44.8805260" lon="8.9727050">
<ele>308.731934</ele>
<time>2014-08-05T07:20:33.000Z</time>
</trkpt>
<trkpt lat="44.8804350" lon="8.9727370">
<ele>309.676788</ele>
<time>2014-08-05T07:20:41.001Z</time>
</trkpt>
<trkpt lat="44.8803430" lon="8.9727690">
<ele>310.652161</ele>
<time>2014-08-05T07:20:49.001Z</time>
</trkpt>
<trkpt lat="44.8802370" lon="8.9728010">
<ele>310.652161</ele>
<time>2014-08-05T07:20:57.002Z</time>
</trkpt>
<trkpt lat="44.8801450" lon="8.9727910">
<ele>310.652161</ele>
<time>2014-08-05T07:21:05.003Z</time>
</trkpt>
<trkpt lat="44.8800540" lon="8.9728010">
<ele>311.109375</ele>
<time>2014-08-05T07:21:13.003Z</time>
</trkpt>
<trkpt lat="44.8799240" lon="8.9727910">
<ele>311.109375</ele>
<time>2014-08-05T07:21:21.004Z</time>
</trkpt>
<trkpt lat="44.8798400" lon="8.9727370">
<ele>311.597046</ele>
<time>2014-08-05T07:21:28.996Z</time>
</trkpt>
<trkpt lat="44.8797570" lon="8.9727050">
<ele>311.597046</ele>
<time>2014-08-05T07:21:41.999Z</time>
</trkpt>
<trkpt lat="44.8796650" lon="8.9726840">
<ele>311.597046</ele>
<time>2014-08-05T07:21:52.004Z</time>
</trkpt>
<trkpt lat="44.8795810" lon="8.9726410">
<ele>312.572388</ele>
<time>2014-08-05T07:22:02.001Z</time>
</trkpt>
<trkpt lat="44.8794750" lon="8.9725980">
<ele>313.060059</ele>
<time>2014-08-05T07:22:11.997Z</time>
</trkpt>
<trkpt lat="44.8794140" lon="8.9725770">
<ele>313.060059</ele>
<time>2014-08-05T07:22:21.000Z</time>
</trkpt>
<trkpt lat="44.8793600" lon="8.9725400">
<ele>313.060059</ele>
<time>2014-08-05T07:22:34.003Z</time>
</trkpt>
<trkpt lat="44.8792600" lon="8.9725100">
<ele>314.492645</ele>
<time>2014-08-05T07:22:54.998Z</time>
</trkpt>
<trkpt lat="44.8791600" lon="8.9724600">
<ele>314.492645</ele>
<time>2014-08-05T07:23:02.999Z</time>
</trkpt>
<trkpt lat="44.8790710" lon="8.9724160">
<ele>314.980316</ele>
<time>2014-08-05T07:23:11.000Z</time>
</trkpt>
<trkpt lat="44.8789720" lon="8.9723620">
<ele>314.980316</ele>
<time>2014-08-05T07:23:19.000Z</time>
</trkpt>
<trkpt lat="44.8788800" lon="8.9723300">
<ele>314.980316</ele>
<time>2014-08-05T07:23:28.003Z</time>
</trkpt>
<trkpt lat="44.8787800" lon="8.9722400">
<ele>314.980316</ele>
<time>2014-08-05T07:23:36.997Z</time>
</trkpt>
<trkpt lat="44.8786970" lon="8.9721910">
<ele>314.492645</ele>
<time>2014-08-05T07:23:43.996Z</time>
</trkpt>
<trkpt lat="44.8786130" lon="8.9721370">
<ele>314.004944</ele>
<time>2014-08-05T07:23:54.001Z</time>
</trkpt>
<trkpt lat="44.8785220" lon="8.9720730">
<ele>313.060059</ele>
<time>2014-08-05T07:24:02.002Z</time>
</trkpt>
<trkpt lat="44.8784460" lon="8.9719870">
<ele>312.084717</ele>
<time>2014-08-05T07:24:10.002Z</time>
</trkpt>
<trkpt lat="44.8784000" lon="8.9719550">
<ele>311.597046</ele>
<time>2014-08-05T07:24:18.003Z</time>
</trkpt>
<trkpt lat="44.8783300" lon="8.9719000">
<ele>313.060059</ele>
<time>2014-08-05T07:24:41.996Z</time>
</trkpt>
<trkpt lat="44.8782700" lon="8.9718300">
<ele>312.084717</ele>
<time>2014-08-05T07:24:54.999Z</time>
</trkpt>
<trkpt lat="44.8781800" lon="8.9717800">
<ele>311.597046</ele>
<time>2014-08-05T07:25:05.998Z</time>
</trkpt>
<trkpt lat="44.8781000" lon="8.9717300">
<ele>311.597046</ele>
<time>2014-08-05T07:25:15.001Z</time>
</trkpt>
<trkpt lat="44.8780100" lon="8.9716700">
<ele>311.109375</ele>
<time>2014-08-05T07:25:23.002Z</time>
</trkpt>
<trkpt lat="44.8779200" lon="8.9716200">
<ele>310.164459</ele>
<time>2014-08-05T07:25:31.996Z</time>
</trkpt>
<trkpt lat="44.8778200" lon="8.9715700">
<ele>310.164459</ele>
<time>2014-08-05T07:25:42.001Z</time>
</trkpt>
<trkpt lat="44.8777300" lon="8.9715200">
<ele>309.189117</ele>
<time>2014-08-05T07:25:51.997Z</time>
</trkpt>
<trkpt lat="44.8776400" lon="8.9714800">
<ele>309.189117</ele>
<time>2014-08-05T07:26:01.000Z</time>
</trkpt>
<trkpt lat="44.8775500" lon="8.9714300">
<ele>308.244232</ele>
<time>2014-08-05T07:26:09.001Z</time>
</trkpt>
<trkpt lat="44.8774620" lon="8.9713770">
<ele>308.244232</ele>
<time>2014-08-05T07:26:17.002Z</time>
</trkpt>
<trkpt lat="44.8773940" lon="8.9713230">
<ele>308.244232</ele>
<time>2014-08-05T07:26:25.002Z</time>
</trkpt>
<trkpt lat="44.8773020" lon="8.9712590">
<ele>307.756561</ele>
<time>2014-08-05T07:26:33.996Z</time>
</trkpt>
<trkpt lat="44.8772110" lon="8.9711840">
<ele>307.268860</ele>
<time>2014-08-05T07:26:42.999Z</time>
</trkpt>
<trkpt lat="44.8771190" lon="8.9711300">
<ele>306.811676</ele>
<time>2014-08-05T07:26:51.000Z</time>
</trkpt>
<trkpt lat="44.8770430" lon="8.9710550">
<ele>305.836334</ele>
<time>2014-08-05T07:27:00.003Z</time>
</trkpt>
<trkpt lat="44.8769590" lon="8.9709800">
<ele>306.324005</ele>
<time>2014-08-05T07:27:08.004Z</time>
</trkpt>
<trkpt lat="44.8768900" lon="8.9709500">
<ele>304.403778</ele>
<time>2014-08-05T07:27:16.004Z</time>
</trkpt>
<trkpt lat="44.8768200" lon="8.9708800">
<ele>303.916077</ele>
<time>2014-08-05T07:27:23.996Z</time>
</trkpt>
<trkpt lat="44.8767500" lon="8.9708000">
<ele>303.916077</ele>
<time>2014-08-05T07:27:31.997Z</time>
</trkpt>
<trkpt lat="44.8766600" lon="8.9707200">
<ele>303.428406</ele>
<time>2014-08-05T07:27:39.997Z</time>
</trkpt>
<trkpt lat="44.8765800" lon="8.9706600">
<ele>303.428406</ele>
<time>2014-08-05T07:27:47.998Z</time>
</trkpt>
<trkpt lat="44.8764940" lon="8.9706270">
<ele>303.428406</ele>
<time>2014-08-05T07:27:55.999Z</time>
</trkpt>
<trkpt lat="44.8764330" lon="8.9705950">
<ele>302.940735</ele>
<time>2014-08-05T07:28:03.999Z</time>
</trkpt>
<trkpt lat="44.8763270" lon="8.9705630">
<ele>302.483521</ele>
<time>2014-08-05T07:28:12.000Z</time>
</trkpt>
<trkpt lat="44.8762000" lon="8.9705200">
<ele>302.940735</ele>
<time>2014-08-05T07:28:20.001Z</time>
</trkpt>
<trkpt lat="44.8761100" lon="8.9705100">
<ele>302.940735</ele>
<time>2014-08-05T07:28:28.001Z</time>
</trkpt>
<trkpt lat="44.8760200" lon="8.9705100">
<ele>301.995850</ele>
<time>2014-08-05T07:28:36.002Z</time>
</trkpt>
<trkpt lat="44.8759300" lon="8.9705100">
<ele>301.995850</ele>
<time>2014-08-05T07:28:44.003Z</time>
</trkpt>
<trkpt lat="44.8758300" lon="8.9705000">
<ele>301.508179</ele>
<time>2014-08-05T07:28:52.003Z</time>
</trkpt>
<trkpt lat="44.8757250" lon="8.9704990">
<ele>302.483521</ele>
<time>2014-08-05T07:29:00.997Z</time>
</trkpt>
<trkpt lat="44.8756560" lon="8.9704770">
<ele>302.483521</ele>
<time>2014-08-05T07:29:34.996Z</time>
</trkpt>
<trkpt lat="44.8755490" lon="8.9704450">
<ele>303.428406</ele>
<time>2014-08-05T07:29:47.999Z</time>
</trkpt>
<trkpt lat="44.8754500" lon="8.9704240">
<ele>303.428406</ele>
<time>2014-08-05T07:29:58.004Z</time>
</trkpt>
<trkpt lat="44.8753510" lon="8.9704020">
<ele>303.916077</ele>
<time>2014-08-05T07:30:06.998Z</time>
</trkpt>
<trkpt lat="44.8752600" lon="8.9703810">
<ele>302.940735</ele>
<time>2014-08-05T07:30:16.001Z</time>
</trkpt>
<trkpt lat="44.8751760" lon="8.9703490">
<ele>302.483521</ele>
<time>2014-08-05T07:30:25.004Z</time>
</trkpt>
<trkpt lat="44.8750840" lon="8.9703280">
<ele>302.483521</ele>
<time>2014-08-05T07:30:32.996Z</time>
</trkpt>
<trkpt lat="44.8749850" lon="8.9702950">
<ele>302.483521</ele>
<time>2014-08-05T07:30:40.997Z</time>
</trkpt>
<trkpt lat="44.8748940" lon="8.9702850">
<ele>301.020477</ele>
<time>2014-08-05T07:30:48.997Z</time>
</trkpt>
<trkpt lat="44.8748100" lon="8.9702630">
<ele>301.020477</ele>
<time>2014-08-05T07:30:59.003Z</time>
</trkpt>
<trkpt lat="44.8747100" lon="8.9702400">
<ele>301.020477</ele>
<time>2014-08-05T07:31:06.001Z</time>
</trkpt>
<trkpt lat="44.8746100" lon="8.9702300">
<ele>301.020477</ele>
<time>2014-08-05T07:31:14.002Z</time>
</trkpt>
<trkpt lat="44.8745200" lon="8.9702400">
<ele>301.020477</ele>
<time>2014-08-05T07:31:26.996Z</time>
</trkpt>
<trkpt lat="44.8744200" lon="8.9702600">
<ele>301.020477</ele>
<time>2014-08-05T07:31:35.999Z</time>
</trkpt>
<trkpt lat="44.8743300" lon="8.9703000">
<ele>301.995850</ele>
<time>2014-08-05T07:31:46.004Z</time>
</trkpt>
<trkpt lat="44.8742400" lon="8.9703400">
<ele>302.483521</ele>
<time>2014-08-05T07:31:53.996Z</time>
</trkpt>
<trkpt lat="44.8741550" lon="8.9703490">
<ele>302.483521</ele>
<time>2014-08-05T07:33:34.004Z</time>
</trkpt>
<trkpt lat="44.8741170" lon="8.9701890">
<ele>303.428406</ele>
<time>2014-08-05T07:33:45.003Z</time>
</trkpt>
<trkpt lat="44.8740860" lon="8.9699850">
<ele>303.916077</ele>
<time>2014-08-05T07:33:53.997Z</time>
</trkpt>
<trkpt lat="44.8740710" lon="8.9698460">
<ele>303.916077</ele>
<time>2014-08-05T07:34:03.000Z</time>
</trkpt>
<trkpt lat="44.8740630" lon="8.9697280">
<ele>304.403778</ele>
<time>2014-08-05T07:34:11.001Z</time>
</trkpt>
<trkpt lat="44.8740480" lon="8.9696210">
<ele>303.428406</ele>
<time>2014-08-05T07:34:24.997Z</time>
</trkpt>
<trkpt lat="44.8740330" lon="8.9694810">
<ele>302.940735</ele>
<time>2014-08-05T07:34:35.996Z</time>
</trkpt>
<trkpt lat="44.8740170" lon="8.9693530">
<ele>301.020477</ele>
<time>2014-08-05T07:34:46.001Z</time>
</trkpt>
<trkpt lat="44.8739870" lon="8.9692350">
<ele>299.587921</ele>
<time>2014-08-05T07:34:59.998Z</time>
</trkpt>
<trkpt lat="44.8739710" lon="8.9691060">
<ele>298.612549</ele>
<time>2014-08-05T07:35:09.001Z</time>
</trkpt>
<trkpt lat="44.8739410" lon="8.9689560">
<ele>297.179993</ele>
<time>2014-08-05T07:35:17.002Z</time>
</trkpt>
<trkpt lat="44.8738880" lon="8.9688280">
<ele>296.235138</ele>
<time>2014-08-05T07:35:25.002Z</time>
</trkpt>
<trkpt lat="44.8738490" lon="8.9687420">
<ele>295.259766</ele>
<time>2014-08-05T07:35:33.003Z</time>
</trkpt>
<trkpt lat="44.8738110" lon="8.9686130">
<ele>295.259766</ele>
<time>2014-08-05T07:35:41.997Z</time>
</trkpt>
<trkpt lat="44.8737650" lon="8.9684740">
<ele>295.259766</ele>
<time>2014-08-05T07:35:51.000Z</time>
</trkpt>
<trkpt lat="44.8737270" lon="8.9683880">
<ele>294.314880</ele>
<time>2014-08-05T07:35:59.001Z</time>
</trkpt>
<trkpt lat="44.8736890" lon="8.9682810">
<ele>293.827209</ele>
<time>2014-08-05T07:36:07.001Z</time>
</trkpt>
<trkpt lat="44.8736430" lon="8.9681740">
<ele>293.827209</ele>
<time>2014-08-05T07:36:16.004Z</time>
</trkpt>
<trkpt lat="44.8735980" lon="8.9680990">
<ele>294.314880</ele>
<time>2014-08-05T07:36:24.998Z</time>
</trkpt>
<trkpt lat="44.8735210" lon="8.9679490">
<ele>294.314880</ele>
<time>2014-08-05T07:36:34.001Z</time>
</trkpt>
<trkpt lat="44.8734380" lon="8.9678630">
<ele>293.339539</ele>
<time>2014-08-05T07:36:43.004Z</time>
</trkpt>
<trkpt lat="44.8733770" lon="8.9677880">
<ele>292.851837</ele>
<time>2014-08-05T07:36:54.003Z</time>
</trkpt>
<trkpt lat="44.8732930" lon="8.9677130">
<ele>292.851837</ele>
<time>2014-08-05T07:37:02.997Z</time>
</trkpt>
<trkpt lat="44.8732320" lon="8.9676700">
<ele>293.339539</ele>
<time>2014-08-05T07:37:12.000Z</time>
</trkpt>
<trkpt lat="44.8731560" lon="8.9676060">
<ele>294.772064</ele>
<time>2014-08-05T07:37:21.003Z</time>
</trkpt>
<trkpt lat="44.8730640" lon="8.9675520">
<ele>294.772064</ele>
<time>2014-08-05T07:37:29.997Z</time>
</trkpt>
<trkpt lat="44.8729800" lon="8.9674990">
<ele>296.235138</ele>
<time>2014-08-05T07:37:40.996Z</time>
</trkpt>
<trkpt lat="44.8728890" lon="8.9674350">
<ele>296.692322</ele>
<time>2014-08-05T07:37:51.001Z</time>
</trkpt>
<trkpt lat="44.8727900" lon="8.9673810">
<ele>297.667664</ele>
<time>2014-08-05T07:38:00.004Z</time>
</trkpt>
<trkpt lat="44.8726830" lon="8.9673170">
<ele>298.612549</ele>
<time>2014-08-05T07:38:10.000Z</time>
</trkpt>
<trkpt lat="44.8726070" lon="8.9672850">
<ele>299.587921</ele>
<time>2014-08-05T07:38:19.997Z</time>
</trkpt>
<trkpt lat="44.8725230" lon="8.9672530">
<ele>300.563263</ele>
<time>2014-08-05T07:38:30.002Z</time>
</trkpt>
<trkpt lat="44.8724160" lon="8.9671880">
<ele>301.995850</ele>
<time>2014-08-05T07:38:39.998Z</time>
</trkpt>
<trkpt lat="44.8723320" lon="8.9670810">
<ele>301.995850</ele>
<time>2014-08-05T07:38:49.001Z</time>
</trkpt>
<trkpt lat="44.8723090" lon="8.9669850">
<ele>301.020477</ele>
<time>2014-08-05T07:38:58.004Z</time>
</trkpt>
<trkpt lat="44.8723170" lon="8.9668130">
<ele>299.100250</ele>
<time>2014-08-05T07:39:09.003Z</time>
</trkpt>
<trkpt lat="44.8723630" lon="8.9666850">
<ele>299.100250</ele>
<time>2014-08-05T07:39:17.004Z</time>
</trkpt>
<trkpt lat="44.8724080" lon="8.9665880">
<ele>298.155365</ele>
<time>2014-08-05T07:39:27.000Z</time>
</trkpt>
<trkpt lat="44.8724600" lon="8.9664800">
<ele>297.179993</ele>
<time>2014-08-05T07:39:36.996Z</time>
</trkpt>
<trkpt lat="44.8725300" lon="8.9663700">
<ele>296.235138</ele>
<time>2014-08-05T07:39:45.999Z</time>
</trkpt>
<trkpt lat="44.8725700" lon="8.9662700">
<ele>294.772064</ele>
<time>2014-08-05T07:39:56.998Z</time>
</trkpt>
<trkpt lat="44.8726220" lon="8.9661810">
<ele>293.827209</ele>
<time>2014-08-05T07:40:15.997Z</time>
</trkpt>
<trkpt lat="44.8726500" lon="8.9660700">
<ele>293.339539</ele>
<time>2014-08-05T07:41:15.000Z</time>
</trkpt>
<trkpt lat="44.8725910" lon="8.9659770">
<ele>292.364166</ele>
<time>2014-08-05T07:41:24.003Z</time>
</trkpt>
<trkpt lat="44.8725150" lon="8.9658910">
<ele>292.851837</ele>
<time>2014-08-05T07:41:32.004Z</time>
</trkpt>
<trkpt lat="44.8724310" lon="8.9658060">
<ele>293.827209</ele>
<time>2014-08-05T07:41:40.004Z</time>
</trkpt>
<trkpt lat="44.8723600" lon="8.9657300">
<ele>294.314880</ele>
<time>2014-08-05T07:41:47.003Z</time>
</trkpt>
<trkpt lat="44.8722800" lon="8.9656700">
<ele>294.772064</ele>
<time>2014-08-05T07:41:54.001Z</time>
</trkpt>
<trkpt lat="44.8722200" lon="8.9655700">
<ele>293.827209</ele>
<time>2014-08-05T07:42:02.002Z</time>
</trkpt>
<trkpt lat="44.8722100" lon="8.9654400">
<ele>293.827209</ele>
<time>2014-08-05T07:42:10.996Z</time>
</trkpt>
<trkpt lat="44.8722500" lon="8.9653200">
<ele>292.851837</ele>
<time>2014-08-05T07:42:21.001Z</time>
</trkpt>
<trkpt lat="44.8723170" lon="8.9651950">
<ele>290.931610</ele>
<time>2014-08-05T07:42:30.004Z</time>
</trkpt>
<trkpt lat="44.8723780" lon="8.9651200">
<ele>289.499023</ele>
<time>2014-08-05T07:42:40.000Z</time>
</trkpt>
<trkpt lat="44.8724540" lon="8.9650450">
<ele>288.523682</ele>
<time>2014-08-05T07:42:49.997Z</time>
</trkpt>
<trkpt lat="44.8725220" lon="8.9649590">
<ele>286.603424</ele>
<time>2014-08-05T07:42:59.000Z</time>
</trkpt>
<trkpt lat="44.8726060" lon="8.9648620">
<ele>285.658569</ele>
<time>2014-08-05T07:43:07.000Z</time>
</trkpt>
<trkpt lat="44.8726750" lon="8.9647870">
<ele>284.683197</ele>
<time>2014-08-05T07:43:17.999Z</time>
</trkpt>
<trkpt lat="44.8727360" lon="8.9647230">
<ele>283.250641</ele>
<time>2014-08-05T07:43:31.996Z</time>
</trkpt>
<trkpt lat="44.8727580" lon="8.9645940">
<ele>282.275269</ele>
<time>2014-08-05T07:43:39.996Z</time>
</trkpt>
<trkpt lat="44.8727430" lon="8.9644760">
<ele>282.275269</ele>
<time>2014-08-05T07:43:47.004Z</time>
</trkpt>
<trkpt lat="44.8726970" lon="8.9643690">
<ele>281.818085</ele>
<time>2014-08-05T07:43:55.004Z</time>
</trkpt>
<trkpt lat="44.8726360" lon="8.9642410">
<ele>282.275269</ele>
<time>2014-08-05T07:44:06.996Z</time>
</trkpt>
<trkpt lat="44.8725830" lon="8.9641340">
<ele>281.818085</ele>
<time>2014-08-05T07:44:14.997Z</time>
</trkpt>
<trkpt lat="44.8725140" lon="8.9639940">
<ele>281.818085</ele>
<time>2014-08-05T07:44:22.998Z</time>
</trkpt>
<trkpt lat="44.8724380" lon="8.9638440">
<ele>282.762970</ele>
<time>2014-08-05T07:44:30.998Z</time>
</trkpt>
<trkpt lat="44.8723770" lon="8.9637160">
<ele>282.762970</ele>
<time>2014-08-05T07:44:38.999Z</time>
</trkpt>
<trkpt lat="44.8723310" lon="8.9636300">
<ele>283.250641</ele>
<time>2014-08-05T07:44:47.000Z</time>
</trkpt>
<trkpt lat="44.8722930" lon="8.9635440">
<ele>283.250641</ele>
<time>2014-08-05T07:44:59.001Z</time>
</trkpt>
<trkpt lat="44.8722470" lon="8.9634370">
<ele>283.738342</ele>
<time>2014-08-05T07:45:08.004Z</time>
</trkpt>
<trkpt lat="44.8722000" lon="8.9633100">
<ele>283.250641</ele>
<time>2014-08-05T07:45:31.997Z</time>
</trkpt>
<trkpt lat="44.8721700" lon="8.9631700">
<ele>282.275269</ele>
<time>2014-08-05T07:45:41.000Z</time>
</trkpt>
<trkpt lat="44.8721600" lon="8.9630500">
<ele>282.275269</ele>
<time>2014-08-05T07:45:50.003Z</time>
</trkpt>
<trkpt lat="44.8721940" lon="8.9629230">
<ele>283.250641</ele>
<time>2014-08-05T07:45:58.003Z</time>
</trkpt>
<trkpt lat="44.8722170" lon="8.9627730">
<ele>282.762970</ele>
<time>2014-08-05T07:46:21.996Z</time>
</trkpt>
<trkpt lat="44.8722550" lon="8.9626440">
<ele>283.250641</ele>
<time>2014-08-05T07:46:30.999Z</time>
</trkpt>
<trkpt lat="44.8722550" lon="8.9625150">
<ele>285.170868</ele>
<time>2014-08-05T07:46:40.996Z</time>
</trkpt>
<trkpt lat="44.8722090" lon="8.9623970">
<ele>286.115753</ele>
<time>2014-08-05T07:47:15.996Z</time>
</trkpt>
<trkpt lat="44.8721180" lon="8.9623010">
<ele>289.011353</ele>
<time>2014-08-05T07:47:38.003Z</time>
</trkpt>
<trkpt lat="44.8720400" lon="8.9621900">
<ele>292.364166</ele>
<time>2014-08-05T07:47:54.004Z</time>
</trkpt>
<trkpt lat="44.8719730" lon="8.9620220">
<ele>293.827209</ele>
<time>2014-08-05T07:48:02.998Z</time>
</trkpt>
<trkpt lat="44.8719500" lon="8.9617760">
<ele>294.772064</ele>
<time>2014-08-05T07:48:12.001Z</time>
</trkpt>
<trkpt lat="44.8719650" lon="8.9616470">
<ele>295.259766</ele>
<time>2014-08-05T07:48:21.997Z</time>
</trkpt>
<trkpt lat="44.8720030" lon="8.9614860">
<ele>296.692322</ele>
<time>2014-08-05T07:48:32.003Z</time>
</trkpt>
<trkpt lat="44.8720790" lon="8.9613360">
<ele>298.155365</ele>
<time>2014-08-05T07:48:40.997Z</time>
</trkpt>
<trkpt lat="44.8721630" lon="8.9611860">
<ele>299.587921</ele>
<time>2014-08-05T07:48:52.004Z</time>
</trkpt>
<trkpt lat="44.8722620" lon="8.9610580">
<ele>301.020477</ele>
<time>2014-08-05T07:48:59.996Z</time>
</trkpt>
<trkpt lat="44.8723530" lon="8.9609500">
<ele>301.995850</ele>
<time>2014-08-05T07:49:08.999Z</time>
</trkpt>
<trkpt lat="44.8724220" lon="8.9608750">
<ele>302.940735</ele>
<time>2014-08-05T07:49:18.002Z</time>
</trkpt>
<trkpt lat="44.8725060" lon="8.9608000">
<ele>303.916077</ele>
<time>2014-08-05T07:49:26.996Z</time>
</trkpt>
<trkpt lat="44.8725670" lon="8.9607360">
<ele>304.860962</ele>
<time>2014-08-05T07:49:35.999Z</time>
</trkpt>
<trkpt lat="44.8726280" lon="8.9606710">
<ele>306.324005</ele>
<time>2014-08-05T07:49:46.004Z</time>
</trkpt>
<trkpt lat="44.8726800" lon="8.9605600">
<ele>308.731934</ele>
<time>2014-08-05T07:50:00.001Z</time>
</trkpt>
<trkpt lat="44.8727340" lon="8.9604140">
<ele>309.676788</ele>
<time>2014-08-05T07:50:17.998Z</time>
</trkpt>
<trkpt lat="44.8726430" lon="8.9604890">
<ele>310.164459</ele>
<time>2014-08-05T07:50:54.001Z</time>
</trkpt>
<trkpt lat="44.8725670" lon="8.9605110">
<ele>311.597046</ele>
<time>2014-08-05T07:51:09.000Z</time>
</trkpt>
<trkpt lat="44.8724830" lon="8.9605750">
<ele>314.004944</ele>
<time>2014-08-05T07:51:26.004Z</time>
</trkpt>
<trkpt lat="44.8723680" lon="8.9605970">
<ele>315.437531</ele>
<time>2014-08-05T07:51:37.002Z</time>
</trkpt>
<trkpt lat="44.8722690" lon="8.9605860">
<ele>317.357758</ele>
<time>2014-08-05T07:51:49.997Z</time>
</trkpt>
<trkpt lat="44.8721930" lon="8.9605220">
<ele>318.333130</ele>
<time>2014-08-05T07:52:01.998Z</time>
</trkpt>
<trkpt lat="44.8721090" lon="8.9604250">
<ele>319.765686</ele>
<time>2014-08-05T07:52:12.996Z</time>
</trkpt>
<trkpt lat="44.8720330" lon="8.9603180">
<ele>320.741058</ele>
<time>2014-08-05T07:52:24.997Z</time>
</trkpt>
<trkpt lat="44.8719420" lon="8.9603290">
<ele>322.173615</ele>
<time>2014-08-05T07:52:35.003Z</time>
</trkpt>
<trkpt lat="44.8718300" lon="8.9603400">
<ele>323.148956</ele>
<time>2014-08-05T07:52:47.004Z</time>
</trkpt>
<trkpt lat="44.8717500" lon="8.9603800">
<ele>324.581512</ele>
<time>2014-08-05T07:52:57.000Z</time>
</trkpt>
<trkpt lat="44.8716600" lon="8.9604100">
<ele>325.556885</ele>
<time>2014-08-05T07:53:06.996Z</time>
</trkpt>
<trkpt lat="44.8715600" lon="8.9604100">
<ele>327.477142</ele>
<time>2014-08-05T07:53:18.004Z</time>
</trkpt>
<trkpt lat="44.8714610" lon="8.9604470">
<ele>327.934326</ele>
<time>2014-08-05T07:53:28.000Z</time>
</trkpt>
<trkpt lat="44.8714010" lon="8.9604690">
<ele>327.934326</ele>
<time>2014-08-05T07:53:37.003Z</time>
</trkpt>
<trkpt lat="44.8712790" lon="8.9604470">
<ele>328.421997</ele>
<time>2014-08-05T07:56:02.000Z</time>
</trkpt>
<trkpt lat="44.8711950" lon="8.9604580">
<ele>329.854553</ele>
<time>2014-08-05T08:00:30.997Z</time>
</trkpt>
<trkpt lat="44.8711260" lon="8.9604800">
<ele>329.397339</ele>
<time>2014-08-05T08:00:40.000Z</time>
</trkpt>
<trkpt lat="44.8710200" lon="8.9605000">
<ele>329.854553</ele>
<time>2014-08-05T08:00:48.001Z</time>
</trkpt>
<trkpt lat="44.8709300" lon="8.9605300">
<ele>330.829926</ele>
<time>2014-08-05T08:00:57.004Z</time>
</trkpt>
<trkpt lat="44.8708500" lon="8.9605500">
<ele>330.342255</ele>
<time>2014-08-05T08:01:07.000Z</time>
</trkpt>
<trkpt lat="44.8707600" lon="8.9605600">
<ele>329.854553</ele>
<time>2014-08-05T08:01:27.002Z</time>
</trkpt>
<trkpt lat="44.8706900" lon="8.9606100">
<ele>330.342255</ele>
<time>2014-08-05T08:01:36.998Z</time>
</trkpt>
<trkpt lat="44.8705900" lon="8.9605500">
<ele>330.829926</ele>
<time>2014-08-05T08:02:02.996Z</time>
</trkpt>
<trkpt lat="44.8705100" lon="8.9605000">
<ele>330.829926</ele>
<time>2014-08-05T08:02:13.001Z</time>
</trkpt>
<trkpt lat="44.8704200" lon="8.9604400">
<ele>331.805267</ele>
<time>2014-08-05T08:02:25.002Z</time>
</trkpt>
<trkpt lat="44.8703790" lon="8.9604370">
<ele>330.342255</ele>
<time>2014-08-05T08:03:14.000Z</time>
</trkpt>
<trkpt lat="44.8703410" lon="8.9604160">
<ele>331.317596</ele>
<time>2014-08-05T08:03:34.001Z</time>
</trkpt>
<trkpt lat="44.8702880" lon="8.9603730">
<ele>331.317596</ele>
<time>2014-08-05T08:03:43.004Z</time>
</trkpt>
<trkpt lat="44.8702120" lon="8.9603410">
<ele>332.750153</ele>
<time>2014-08-05T08:03:50.996Z</time>
</trkpt>
<trkpt lat="44.8700970" lon="8.9602770">
<ele>334.182739</ele>
<time>2014-08-05T08:03:58.997Z</time>
</trkpt>
<trkpt lat="44.8700060" lon="8.9602230">
<ele>335.158081</ele>
<time>2014-08-05T08:04:06.997Z</time>
</trkpt>
<trkpt lat="44.8698990" lon="8.9601800">
<ele>336.102936</ele>
<time>2014-08-05T08:04:14.998Z</time>
</trkpt>
<trkpt lat="44.8698000" lon="8.9601200">
<ele>335.645752</ele>
<time>2014-08-05T08:04:24.001Z</time>
</trkpt>
<trkpt lat="44.8696900" lon="8.9600900">
<ele>336.102936</ele>
<time>2014-08-05T08:04:33.004Z</time>
</trkpt>
<trkpt lat="44.8696000" lon="8.9600300">
<ele>337.078339</ele>
<time>2014-08-05T08:04:40.996Z</time>
</trkpt>
<trkpt lat="44.8695200" lon="8.9599800">
<ele>337.078339</ele>
<time>2014-08-05T08:04:48.996Z</time>
</trkpt>
<trkpt lat="44.8694400" lon="8.9599200">
<ele>336.590668</ele>
<time>2014-08-05T08:04:57.999Z</time>
</trkpt>
<trkpt lat="44.8693500" lon="8.9598800">
<ele>334.182739</ele>
<time>2014-08-05T08:05:04.004Z</time>
</trkpt>
<trkpt lat="44.8692820" lon="8.9598380">
<ele>332.750153</ele>
<time>2014-08-05T08:05:20.999Z</time>
</trkpt>
<trkpt lat="44.8691900" lon="8.9597730">
<ele>331.317596</ele>
<time>2014-08-05T08:05:29.000Z</time>
</trkpt>
<trkpt lat="44.8691060" lon="8.9596980">
<ele>330.342255</ele>
<time>2014-08-05T08:05:37.000Z</time>
</trkpt>
<trkpt lat="44.8690300" lon="8.9596450">
<ele>329.397339</ele>
<time>2014-08-05T08:05:45.001Z</time>
</trkpt>
<trkpt lat="44.8689310" lon="8.9595910">
<ele>328.909668</ele>
<time>2014-08-05T08:05:53.002Z</time>
</trkpt>
<trkpt lat="44.8688470" lon="8.9595590">
<ele>327.477142</ele>
<time>2014-08-05T08:06:00.000Z</time>
</trkpt>
<trkpt lat="44.8687710" lon="8.9595380">
<ele>326.014069</ele>
<time>2014-08-05T08:06:06.998Z</time>
</trkpt>
<trkpt lat="44.8686720" lon="8.9595270">
<ele>325.556885</ele>
<time>2014-08-05T08:06:16.001Z</time>
</trkpt>
<trkpt lat="44.8685800" lon="8.9595170">
<ele>325.069214</ele>
<time>2014-08-05T08:06:28.002Z</time>
</trkpt>
<trkpt lat="44.8684810" lon="8.9595060">
<ele>325.556885</ele>
<time>2014-08-05T08:06:35.001Z</time>
</trkpt>
<trkpt lat="44.8683900" lon="8.9594700">
<ele>325.069214</ele>
<time>2014-08-05T08:06:44.997Z</time>
</trkpt>
<trkpt lat="44.8683520" lon="8.9593990">
<ele>325.556885</ele>
<time>2014-08-05T08:07:37.001Z</time>
</trkpt>
<trkpt lat="44.8683210" lon="8.9592600">
<ele>326.014069</ele>
<time>2014-08-05T08:07:46.004Z</time>
</trkpt>
<trkpt lat="44.8683360" lon="8.9591520">
<ele>326.501740</ele>
<time>2014-08-05T08:08:02.999Z</time>
</trkpt>
<trkpt lat="44.8683820" lon="8.9590450">
<ele>325.556885</ele>
<time>2014-08-05T08:08:15.000Z</time>
</trkpt>
<trkpt lat="44.8684350" lon="8.9589490">
<ele>326.014069</ele>
<time>2014-08-05T08:08:23.001Z</time>
</trkpt>
<trkpt lat="44.8684740" lon="8.9588410">
<ele>326.501740</ele>
<time>2014-08-05T08:08:31.001Z</time>
</trkpt>
<trkpt lat="44.8685420" lon="8.9587130">
<ele>328.909668</ele>
<time>2014-08-05T08:08:40.998Z</time>
</trkpt>
<trkpt lat="44.8686030" lon="8.9585730">
<ele>331.317596</ele>
<time>2014-08-05T08:08:51.996Z</time>
</trkpt>
<trkpt lat="44.8686490" lon="8.9584230">
<ele>333.725525</ele>
<time>2014-08-05T08:09:03.004Z</time>
</trkpt>
<trkpt lat="44.8687020" lon="8.9582730">
<ele>335.158081</ele>
<time>2014-08-05T08:09:14.003Z</time>
</trkpt>
<trkpt lat="44.8687400" lon="8.9581230">
<ele>336.590668</ele>
<time>2014-08-05T08:09:23.999Z</time>
</trkpt>
<trkpt lat="44.8687630" lon="8.9579950">
<ele>338.053680</ele>
<time>2014-08-05T08:09:34.004Z</time>
</trkpt>
<trkpt lat="44.8687860" lon="8.9578340">
<ele>339.973938</ele>
<time>2014-08-05T08:09:44.001Z</time>
</trkpt>
<trkpt lat="44.8687860" lon="8.9576840">
<ele>340.431122</ele>
<time>2014-08-05T08:09:52.001Z</time>
</trkpt>
<trkpt lat="44.8687930" lon="8.9575870">
<ele>341.406464</ele>
<time>2014-08-05T08:10:01.004Z</time>
</trkpt>
<trkpt lat="44.8688000" lon="8.9574600">
<ele>342.839050</ele>
<time>2014-08-05T08:11:01.000Z</time>
</trkpt>
<trkpt lat="44.8688010" lon="8.9573730">
<ele>340.431122</ele>
<time>2014-08-05T08:11:22.998Z</time>
</trkpt>
<trkpt lat="44.8688200" lon="8.9572100">
<ele>338.998535</ele>
<time>2014-08-05T08:11:33.996Z</time>
</trkpt>
<trkpt lat="44.8688080" lon="8.9572660">
<ele>338.510864</ele>
<time>2014-08-05T08:11:49.004Z</time>
</trkpt>
<trkpt lat="44.8688310" lon="8.9571480">
<ele>337.078339</ele>
<time>2014-08-05T08:12:39.997Z</time>
</trkpt>
<trkpt lat="44.8688010" lon="8.9571370">
<ele>337.078339</ele>
<time>2014-08-05T08:25:38.004Z</time>
</trkpt>
<trkpt lat="44.8687170" lon="8.9571800">
<ele>337.566010</ele>
<time>2014-08-05T08:25:46.004Z</time>
</trkpt>
<trkpt lat="44.8686560" lon="8.9572120">
<ele>338.510864</ele>
<time>2014-08-05T08:25:53.996Z</time>
</trkpt>
<trkpt lat="44.8685420" lon="8.9572660">
<ele>338.053680</ele>
<time>2014-08-05T08:26:02.999Z</time>
</trkpt>
<trkpt lat="44.8684420" lon="8.9572870">
<ele>339.486267</ele>
<time>2014-08-05T08:26:12.002Z</time>
</trkpt>
<trkpt lat="44.8683430" lon="8.9572880">
<ele>340.431122</ele>
<time>2014-08-05T08:26:20.996Z</time>
</trkpt>
<trkpt lat="44.8682370" lon="8.9572880">
<ele>340.431122</ele>
<time>2014-08-05T08:26:29.999Z</time>
</trkpt>
<trkpt lat="44.8681380" lon="8.9572880">
<ele>341.406464</ele>
<time>2014-08-05T08:26:39.002Z</time>
</trkpt>
<trkpt lat="44.8680390" lon="8.9572880">
<ele>341.894135</ele>
<time>2014-08-05T08:26:47.996Z</time>
</trkpt>
<trkpt lat="44.8679470" lon="8.9572880">
<ele>342.839050</ele>
<time>2014-08-05T08:26:56.999Z</time>
</trkpt>
<trkpt lat="44.8678480" lon="8.9572770">
<ele>343.814392</ele>
<time>2014-08-05T08:27:09.000Z</time>
</trkpt>
<trkpt lat="44.8677490" lon="8.9572770">
<ele>343.814392</ele>
<time>2014-08-05T08:27:17.001Z</time>
</trkpt>
<trkpt lat="44.8676270" lon="8.9572770">
<ele>344.302063</ele>
<time>2014-08-05T08:27:25.001Z</time>
</trkpt>
<trkpt lat="44.8675510" lon="8.9572670">
<ele>344.759277</ele>
<time>2014-08-05T08:27:33.002Z</time>
</trkpt>
<trkpt lat="44.8674370" lon="8.9572560">
<ele>345.246948</ele>
<time>2014-08-05T08:27:41.003Z</time>
</trkpt>
<trkpt lat="44.8673370" lon="8.9572350">
<ele>345.246948</ele>
<time>2014-08-05T08:27:49.003Z</time>
</trkpt>
<trkpt lat="44.8672540" lon="8.9572350">
<ele>345.734650</ele>
<time>2014-08-05T08:27:57.004Z</time>
</trkpt>
<trkpt lat="44.8671240" lon="8.9572030">
<ele>345.734650</ele>
<time>2014-08-05T08:28:04.996Z</time>
</trkpt>
<trkpt lat="44.8670330" lon="8.9571710">
<ele>346.222321</ele>
<time>2014-08-05T08:28:12.996Z</time>
</trkpt>
<trkpt lat="44.8669720" lon="8.9571060">
<ele>346.222321</ele>
<time>2014-08-05T08:28:20.997Z</time>
</trkpt>
<trkpt lat="44.8668880" lon="8.9570310">
<ele>347.167206</ele>
<time>2014-08-05T08:28:28.998Z</time>
</trkpt>
<trkpt lat="44.8668190" lon="8.9569780">
<ele>349.087463</ele>
<time>2014-08-05T08:28:38.001Z</time>
</trkpt>
<trkpt lat="44.8667200" lon="8.9568920">
<ele>349.575134</ele>
<time>2014-08-05T08:28:47.004Z</time>
</trkpt>
<trkpt lat="44.8666440" lon="8.9568280">
<ele>351.495331</ele>
<time>2014-08-05T08:28:55.004Z</time>
</trkpt>
<trkpt lat="44.8665450" lon="8.9568070">
<ele>351.983063</ele>
<time>2014-08-05T08:29:03.998Z</time>
</trkpt>
<trkpt lat="44.8664400" lon="8.9567600">
<ele>352.927917</ele>
<time>2014-08-05T08:29:11.999Z</time>
</trkpt>
<trkpt lat="44.8663400" lon="8.9567700">
<ele>353.415588</ele>
<time>2014-08-05T08:29:20.000Z</time>
</trkpt>
<trkpt lat="44.8662400" lon="8.9567700">
<ele>353.903259</ele>
<time>2014-08-05T08:29:28.000Z</time>
</trkpt>
<trkpt lat="44.8661500" lon="8.9567300">
<ele>354.390930</ele>
<time>2014-08-05T08:29:36.001Z</time>
</trkpt>
<trkpt lat="44.8660570" lon="8.9567000">
<ele>354.878662</ele>
<time>2014-08-05T08:29:44.002Z</time>
</trkpt>
<trkpt lat="44.8659650" lon="8.9566460">
<ele>355.335846</ele>
<time>2014-08-05T08:29:52.002Z</time>
</trkpt>
<trkpt lat="44.8658890" lon="8.9566030">
<ele>355.823517</ele>
<time>2014-08-05T08:30:00.996Z</time>
</trkpt>
<trkpt lat="44.8657980" lon="8.9565710">
<ele>358.231445</ele>
<time>2014-08-05T08:30:11.002Z</time>
</trkpt>
<trkpt lat="44.8657220" lon="8.9565180">
<ele>358.719116</ele>
<time>2014-08-05T08:30:20.998Z</time>
</trkpt>
<trkpt lat="44.8656800" lon="8.9564100">
<ele>358.719116</ele>
<time>2014-08-05T08:30:54.003Z</time>
</trkpt>
<trkpt lat="44.8656380" lon="8.9563140">
<ele>359.176331</ele>
<time>2014-08-05T08:31:35.000Z</time>
</trkpt>
<trkpt lat="44.8655770" lon="8.9561960">
<ele>359.176331</ele>
<time>2014-08-05T08:31:44.003Z</time>
</trkpt>
<trkpt lat="44.8655160" lon="8.9560680">
<ele>359.176331</ele>
<time>2014-08-05T08:31:52.003Z</time>
</trkpt>
<trkpt lat="44.8654850" lon="8.9559820">
<ele>359.176331</ele>
<time>2014-08-05T08:32:00.004Z</time>
</trkpt>
<trkpt lat="44.8654240" lon="8.9558750">
<ele>359.176331</ele>
<time>2014-08-05T08:32:07.996Z</time>
</trkpt>
<trkpt lat="44.8653630" lon="8.9557460">
<ele>359.176331</ele>
<time>2014-08-05T08:32:15.996Z</time>
</trkpt>
<trkpt lat="44.8653330" lon="8.9556180">
<ele>359.176331</ele>
<time>2014-08-05T08:32:23.997Z</time>
</trkpt>
<trkpt lat="44.8652720" lon="8.9555000">
<ele>359.664001</ele>
<time>2014-08-05T08:32:31.998Z</time>
</trkpt>
<trkpt lat="44.8652330" lon="8.9554040">
<ele>359.176331</ele>
<time>2014-08-05T08:32:39.998Z</time>
</trkpt>
<trkpt lat="44.8651880" lon="8.9552860">
<ele>358.719116</ele>
<time>2014-08-05T08:32:57.002Z</time>
</trkpt>
<trkpt lat="44.8651270" lon="8.9551680">
<ele>358.231445</ele>
<time>2014-08-05T08:33:16.001Z</time>
</trkpt>
<trkpt lat="44.8650810" lon="8.9550610">
<ele>358.231445</ele>
<time>2014-08-05T08:33:24.002Z</time>
</trkpt>
<trkpt lat="44.8650500" lon="8.9549540">
<ele>356.311188</ele>
<time>2014-08-05T08:33:32.003Z</time>
</trkpt>
<trkpt lat="44.8650050" lon="8.9548250">
<ele>355.335846</ele>
<time>2014-08-05T08:33:40.003Z</time>
</trkpt>
<trkpt lat="44.8649510" lon="8.9547070">
<ele>354.390930</ele>
<time>2014-08-05T08:33:48.997Z</time>
</trkpt>
<trkpt lat="44.8649130" lon="8.9545790">
<ele>353.415588</ele>
<time>2014-08-05T08:33:56.998Z</time>
</trkpt>
<trkpt lat="44.8648900" lon="8.9544610">
<ele>351.983063</ele>
<time>2014-08-05T08:34:06.001Z</time>
</trkpt>
<trkpt lat="44.8648290" lon="8.9543640">
<ele>351.007660</ele>
<time>2014-08-05T08:34:14.002Z</time>
</trkpt>
<trkpt lat="44.8647830" lon="8.9542460">
<ele>350.062805</ele>
<time>2014-08-05T08:34:22.002Z</time>
</trkpt>
<trkpt lat="44.8647450" lon="8.9541710">
<ele>350.062805</ele>
<time>2014-08-05T08:34:57.003Z</time>
</trkpt>
<trkpt lat="44.8646840" lon="8.9540430">
<ele>349.087463</ele>
<time>2014-08-05T08:35:19.000Z</time>
</trkpt>
<trkpt lat="44.8646080" lon="8.9539250">
<ele>349.575134</ele>
<time>2014-08-05T08:35:36.997Z</time>
</trkpt>
<trkpt lat="44.8645470" lon="8.9538070">
<ele>351.007660</ele>
<time>2014-08-05T08:35:47.996Z</time>
</trkpt>
<trkpt lat="44.8645010" lon="8.9537000">
<ele>351.495331</ele>
<time>2014-08-05T08:35:59.004Z</time>
</trkpt>
<trkpt lat="44.8644600" lon="8.9535900">
<ele>352.470734</ele>
<time>2014-08-05T08:36:15.998Z</time>
</trkpt>
<trkpt lat="44.8644000" lon="8.9534900">
<ele>352.470734</ele>
<time>2014-08-05T08:36:26.997Z</time>
</trkpt>
<trkpt lat="44.8643400" lon="8.9533800">
<ele>355.335846</ele>
<time>2014-08-05T08:36:38.998Z</time>
</trkpt>
<trkpt lat="44.8642900" lon="8.9532500">
<ele>356.311188</ele>
<time>2014-08-05T08:36:50.999Z</time>
</trkpt>
<trkpt lat="44.8643560" lon="8.9531750">
<ele>356.798859</ele>
<time>2014-08-05T08:37:04.002Z</time>
</trkpt>
<trkpt lat="44.8644320" lon="8.9530790">
<ele>357.256073</ele>
<time>2014-08-05T08:37:15.001Z</time>
</trkpt>
<trkpt lat="44.8645010" lon="8.9529500">
<ele>358.231445</ele>
<time>2014-08-05T08:37:24.004Z</time>
</trkpt>
<trkpt lat="44.8645540" lon="8.9528320">
<ele>358.231445</ele>
<time>2014-08-05T08:37:31.996Z</time>
</trkpt>
<trkpt lat="44.8646150" lon="8.9527360">
<ele>358.231445</ele>
<time>2014-08-05T08:37:39.996Z</time>
</trkpt>
<trkpt lat="44.8646990" lon="8.9526070">
<ele>358.719116</ele>
<time>2014-08-05T08:37:47.997Z</time>
</trkpt>
<trkpt lat="44.8647520" lon="8.9525000">
<ele>360.639343</ele>
<time>2014-08-05T08:37:55.998Z</time>
</trkpt>
<trkpt lat="44.8647830" lon="8.9523820">
<ele>361.127045</ele>
<time>2014-08-05T08:38:05.001Z</time>
</trkpt>
<trkpt lat="44.8648000" lon="8.9522600">
<ele>363.504486</ele>
<time>2014-08-05T08:38:14.997Z</time>
</trkpt>
<trkpt lat="44.8648100" lon="8.9521200">
<ele>364.967529</ele>
<time>2014-08-05T08:38:25.002Z</time>
</trkpt>
<trkpt lat="44.8647900" lon="8.9519800">
<ele>365.912415</ele>
<time>2014-08-05T08:38:34.999Z</time>
</trkpt>
<trkpt lat="44.8647800" lon="8.9518400">
<ele>366.887756</ele>
<time>2014-08-05T08:38:45.004Z</time>
</trkpt>
<trkpt lat="44.8647900" lon="8.9517600">
<ele>365.912415</ele>
<time>2014-08-05T08:38:53.998Z</time>
</trkpt>
<trkpt lat="44.8648130" lon="8.9516740">
<ele>365.424713</ele>
<time>2014-08-05T08:39:22.000Z</time>
</trkpt>
<trkpt lat="44.8648280" lon="8.9515890">
<ele>364.967529</ele>
<time>2014-08-05T08:39:32.999Z</time>
</trkpt>
<trkpt lat="44.8648510" lon="8.9514810">
<ele>364.967529</ele>
<time>2014-08-05T08:39:53.001Z</time>
</trkpt>
<trkpt lat="44.8648890" lon="8.9513310">
<ele>365.912415</ele>
<time>2014-08-05T08:40:03.999Z</time>
</trkpt>
<trkpt lat="44.8648960" lon="8.9512030">
<ele>366.400085</ele>
<time>2014-08-05T08:40:14.998Z</time>
</trkpt>
<trkpt lat="44.8648890" lon="8.9510630">
<ele>366.400085</ele>
<time>2014-08-05T08:40:29.004Z</time>
</trkpt>
<trkpt lat="44.8649000" lon="8.9509600">
<ele>368.320313</ele>
<time>2014-08-05T08:40:40.996Z</time>
</trkpt>
<trkpt lat="44.8649100" lon="8.9508500">
<ele>370.728241</ele>
<time>2014-08-05T08:41:04.004Z</time>
</trkpt>
<trkpt lat="44.8649400" lon="8.9507300">
<ele>373.136139</ele>
<time>2014-08-05T08:41:18.001Z</time>
</trkpt>
<trkpt lat="44.8649600" lon="8.9506100">
<ele>376.976654</ele>
<time>2014-08-05T08:41:50.004Z</time>
</trkpt>
<trkpt lat="44.8649900" lon="8.9504700">
<ele>379.872253</ele>
<time>2014-08-05T08:42:01.002Z</time>
</trkpt>
<trkpt lat="44.8650400" lon="8.9504100">
<ele>379.872253</ele>
<time>2014-08-05T08:42:21.004Z</time>
</trkpt>
<trkpt lat="44.8650600" lon="8.9503900">
<ele>380.329468</ele>
<time>2014-08-05T08:45:50.999Z</time>
</trkpt>
<trkpt lat="44.8650100" lon="8.9503100">
<ele>379.384552</ele>
<time>2014-08-05T08:46:11.001Z</time>
</trkpt>
<trkpt lat="44.8650100" lon="8.9501900">
<ele>377.921539</ele>
<time>2014-08-05T08:46:26.000Z</time>
</trkpt>
<trkpt lat="44.8650400" lon="8.9500600">
<ele>376.488953</ele>
<time>2014-08-05T08:46:35.003Z</time>
</trkpt>
<trkpt lat="44.8650700" lon="8.9499400">
<ele>375.056396</ele>
<time>2014-08-05T08:46:43.997Z</time>
</trkpt>
<trkpt lat="44.8651000" lon="8.9498100">
<ele>373.136139</ele>
<time>2014-08-05T08:46:51.997Z</time>
</trkpt>
<trkpt lat="44.8651300" lon="8.9496800">
<ele>373.136139</ele>
<time>2014-08-05T08:46:59.998Z</time>
</trkpt>
<trkpt lat="44.8651700" lon="8.9495800">
<ele>373.136139</ele>
<time>2014-08-05T08:47:09.001Z</time>
</trkpt>
<trkpt lat="44.8652000" lon="8.9494400">
<ele>373.136139</ele>
<time>2014-08-05T08:47:18.997Z</time>
</trkpt>
<trkpt lat="44.8652500" lon="8.9493200">
<ele>373.623840</ele>
<time>2014-08-05T08:47:28.000Z</time>
</trkpt>
<trkpt lat="44.8652900" lon="8.9491900">
<ele>375.056396</ele>
<time>2014-08-05T08:47:37.003Z</time>
</trkpt>
<trkpt lat="44.8653300" lon="8.9490700">
<ele>376.001282</ele>
<time>2014-08-05T08:47:51.000Z</time>
</trkpt>
<trkpt lat="44.8654200" lon="8.9490100">
<ele>375.056396</ele>
<time>2014-08-05T08:48:12.004Z</time>
</trkpt>
<trkpt lat="44.8656100" lon="8.9489700">
<ele>369.295685</ele>
<time>2014-08-05T08:48:42.002Z</time>
</trkpt>
<trkpt lat="44.8657000" lon="8.9489600">
<ele>366.400085</ele>
<time>2014-08-05T08:48:50.996Z</time>
</trkpt>
<trkpt lat="44.8658000" lon="8.9489500">
<ele>363.504486</ele>
<time>2014-08-05T08:48:58.003Z</time>
</trkpt>
<trkpt lat="44.8658800" lon="8.9489300">
<ele>361.584259</ele>
<time>2014-08-05T08:49:03.999Z</time>
</trkpt>
<trkpt lat="44.8659600" lon="8.9489200">
<ele>360.639343</ele>
<time>2014-08-05T08:49:12.000Z</time>
</trkpt>
<trkpt lat="44.8660300" lon="8.9488700">
<ele>359.176331</ele>
<time>2014-08-05T08:49:25.997Z</time>
</trkpt>
<trkpt lat="44.8660900" lon="8.9487700">
<ele>357.256073</ele>
<time>2014-08-05T08:49:36.002Z</time>
</trkpt>
<trkpt lat="44.8661500" lon="8.9486800">
<ele>355.335846</ele>
<time>2014-08-05T08:49:44.996Z</time>
</trkpt>
<trkpt lat="44.8662300" lon="8.9486100">
<ele>352.470734</ele>
<time>2014-08-05T08:49:52.997Z</time>
</trkpt>
<trkpt lat="44.8663100" lon="8.9485400">
<ele>350.550476</ele>
<time>2014-08-05T08:50:00.997Z</time>
</trkpt>
<trkpt lat="44.8663800" lon="8.9484700">
<ele>349.087463</ele>
<time>2014-08-05T08:50:08.998Z</time>
</trkpt>
<trkpt lat="44.8664700" lon="8.9483900">
<ele>348.142548</ele>
<time>2014-08-05T08:50:16.999Z</time>
</trkpt>
<trkpt lat="44.8665500" lon="8.9483200">
<ele>347.654877</ele>
<time>2014-08-05T08:50:24.999Z</time>
</trkpt>
<trkpt lat="44.8666300" lon="8.9482600">
<ele>347.654877</ele>
<time>2014-08-05T08:50:33.000Z</time>
</trkpt>
<trkpt lat="44.8667200" lon="8.9482000">
<ele>347.167206</ele>
<time>2014-08-05T08:50:41.001Z</time>
</trkpt>
<trkpt lat="44.8667900" lon="8.9481400">
<ele>346.679535</ele>
<time>2014-08-05T08:50:50.997Z</time>
</trkpt>
<trkpt lat="44.8668800" lon="8.9480700">
<ele>346.679535</ele>
<time>2014-08-05T08:50:58.998Z</time>
</trkpt>
<trkpt lat="44.8669600" lon="8.9480100">
<ele>347.654877</ele>
<time>2014-08-05T08:51:06.998Z</time>
</trkpt>
<trkpt lat="44.8670300" lon="8.9479400">
<ele>348.630249</ele>
<time>2014-08-05T08:51:17.004Z</time>
</trkpt>
<trkpt lat="44.8670800" lon="8.9478800">
<ele>348.630249</ele>
<time>2014-08-05T08:51:48.004Z</time>
</trkpt>
<trkpt lat="44.8671600" lon="8.9478000">
<ele>350.062805</ele>
<time>2014-08-05T08:51:56.998Z</time>
</trkpt>
<trkpt lat="44.8672200" lon="8.9477100">
<ele>349.575134</ele>
<time>2014-08-05T08:52:06.001Z</time>
</trkpt>
<trkpt lat="44.8672900" lon="8.9476100">
<ele>350.062805</ele>
<time>2014-08-05T08:52:15.004Z</time>
</trkpt>
<trkpt lat="44.8673500" lon="8.9475000">
<ele>350.550476</ele>
<time>2014-08-05T08:52:22.996Z</time>
</trkpt>
<trkpt lat="44.8674100" lon="8.9474100">
<ele>350.550476</ele>
<time>2014-08-05T08:52:30.996Z</time>
</trkpt>
<trkpt lat="44.8674900" lon="8.9473400">
<ele>349.575134</ele>
<time>2014-08-05T08:52:41.002Z</time>
</trkpt>
<trkpt lat="44.8675800" lon="8.9473300">
<ele>347.654877</ele>
<time>2014-08-05T08:52:49.996Z</time>
</trkpt>
<trkpt lat="44.8676700" lon="8.9473400">
<ele>345.734650</ele>
<time>2014-08-05T08:52:58.999Z</time>
</trkpt>
<trkpt lat="44.8678500" lon="8.9473800">
<ele>341.406464</ele>
<time>2014-08-05T08:53:13.004Z</time>
</trkpt>
<trkpt lat="44.8679500" lon="8.9473900">
<ele>340.918793</ele>
<time>2014-08-05T08:53:20.996Z</time>
</trkpt>
<trkpt lat="44.8680400" lon="8.9473800">
<ele>340.918793</ele>
<time>2014-08-05T08:53:32.004Z</time>
</trkpt>
<trkpt lat="44.8681400" lon="8.9473700">
<ele>339.486267</ele>
<time>2014-08-05T08:53:47.003Z</time>
</trkpt>
<trkpt lat="44.8681800" lon="8.9474100">
<ele>339.973938</ele>
<time>2014-08-05T08:54:06.002Z</time>
</trkpt>
<trkpt lat="44.8682710" lon="8.9474170">
<ele>338.998535</ele>
<time>2014-08-05T08:54:18.003Z</time>
</trkpt>
<trkpt lat="44.8683620" lon="8.9474380">
<ele>339.486267</ele>
<time>2014-08-05T08:54:26.997Z</time>
</trkpt>
<trkpt lat="44.8684300" lon="8.9474600">
<ele>339.973938</ele>
<time>2014-08-05T08:54:45.996Z</time>
</trkpt>
<trkpt lat="44.8685300" lon="8.9474800">
<ele>339.973938</ele>
<time>2014-08-05T08:54:54.999Z</time>
</trkpt>
<trkpt lat="44.8686100" lon="8.9475000">
<ele>340.431122</ele>
<time>2014-08-05T08:55:05.998Z</time>
</trkpt>
<trkpt lat="44.8686600" lon="8.9475400">
<ele>338.998535</ele>
<time>2014-08-05T08:56:03.998Z</time>
</trkpt>
<trkpt lat="44.8687590" lon="8.9475550">
<ele>337.566010</ele>
<time>2014-08-05T08:56:14.004Z</time>
</trkpt>
<trkpt lat="44.8688600" lon="8.9475900">
<ele>336.590668</ele>
<time>2014-08-05T08:56:22.004Z</time>
</trkpt>
<trkpt lat="44.8689700" lon="8.9476100">
<ele>335.645752</ele>
<time>2014-08-05T08:56:32.001Z</time>
</trkpt>
<trkpt lat="44.8690600" lon="8.9476300">
<ele>334.670410</ele>
<time>2014-08-05T08:56:41.004Z</time>
</trkpt>
<trkpt lat="44.8692460" lon="8.9476090">
<ele>333.237854</ele>
<time>2014-08-05T08:56:56.996Z</time>
</trkpt>
<trkpt lat="44.8693530" lon="8.9475870">
<ele>332.262482</ele>
<time>2014-08-05T08:57:04.997Z</time>
</trkpt>
<trkpt lat="44.8694400" lon="8.9475600">
<ele>331.317596</ele>
<time>2014-08-05T08:57:15.002Z</time>
</trkpt>
<trkpt lat="44.8696040" lon="8.9475330">
<ele>327.477142</ele>
<time>2014-08-05T08:57:35.004Z</time>
</trkpt>
<trkpt lat="44.8697000" lon="8.9475200">
<ele>326.501740</ele>
<time>2014-08-05T08:57:45.000Z</time>
</trkpt>
<trkpt lat="44.8697870" lon="8.9475330">
<ele>325.069214</ele>
<time>2014-08-05T08:57:54.996Z</time>
</trkpt>
<trkpt lat="44.8699020" lon="8.9475540">
<ele>322.173615</ele>
<time>2014-08-05T08:58:06.004Z</time>
</trkpt>
<trkpt lat="44.8700240" lon="8.9475650">
<ele>321.228729</ele>
<time>2014-08-05T08:58:32.002Z</time>
</trkpt>
<trkpt lat="44.8700920" lon="8.9475760">
<ele>319.308472</ele>
<time>2014-08-05T08:58:43.000Z</time>
</trkpt>
<trkpt lat="44.8701910" lon="8.9475860">
<ele>318.333130</ele>
<time>2014-08-05T08:58:52.997Z</time>
</trkpt>
<trkpt lat="44.8702520" lon="8.9475970">
<ele>315.925201</ele>
<time>2014-08-05T08:59:02.000Z</time>
</trkpt>
<trkpt lat="44.8703590" lon="8.9476080">
<ele>313.517273</ele>
<time>2014-08-05T08:59:11.003Z</time>
</trkpt>
<trkpt lat="44.8704200" lon="8.9476180">
<ele>312.572388</ele>
<time>2014-08-05T08:59:19.003Z</time>
</trkpt>
<trkpt lat="44.8705490" lon="8.9476290">
<ele>311.109375</ele>
<time>2014-08-05T08:59:27.004Z</time>
</trkpt>
<trkpt lat="44.8706180" lon="8.9476390">
<ele>309.676788</ele>
<time>2014-08-05T08:59:34.996Z</time>
</trkpt>
<trkpt lat="44.8707020" lon="8.9476500">
<ele>308.731934</ele>
<time>2014-08-05T08:59:43.999Z</time>
</trkpt>
<trkpt lat="44.8707860" lon="8.9476610">
<ele>308.244232</ele>
<time>2014-08-05T08:59:54.004Z</time>
</trkpt>
<trkpt lat="44.8708700" lon="8.9476820">
<ele>308.244232</ele>
<time>2014-08-05T09:00:04.000Z</time>
</trkpt>
<trkpt lat="44.8709690" lon="8.9476930">
<ele>307.268860</ele>
<time>2014-08-05T09:00:12.001Z</time>
</trkpt>
<trkpt lat="44.8710600" lon="8.9477030">
<ele>305.836334</ele>
<time>2014-08-05T09:00:21.004Z</time>
</trkpt>
<trkpt lat="44.8711600" lon="8.9477000">
<ele>305.348633</ele>
<time>2014-08-05T09:00:31.000Z</time>
</trkpt>
<trkpt lat="44.8712500" lon="8.9477200">
<ele>304.403778</ele>
<time>2014-08-05T09:00:39.001Z</time>
</trkpt>
<trkpt lat="44.8714500" lon="8.9476900">
<ele>303.428406</ele>
<time>2014-08-05T09:00:55.002Z</time>
</trkpt>
<trkpt lat="44.8715400" lon="8.9476710">
<ele>301.995850</ele>
<time>2014-08-05T09:01:03.003Z</time>
</trkpt>
<trkpt lat="44.8716390" lon="8.9476170">
<ele>300.563263</ele>
<time>2014-08-05T09:01:11.997Z</time>
</trkpt>
<trkpt lat="44.8717150" lon="8.9475960">
<ele>299.587921</ele>
<time>2014-08-05T09:01:19.998Z</time>
</trkpt>
<trkpt lat="44.8718070" lon="8.9475530">
<ele>299.100250</ele>
<time>2014-08-05T09:01:27.998Z</time>
</trkpt>
<trkpt lat="44.8718910" lon="8.9475200">
<ele>297.667664</ele>
<time>2014-08-05T09:01:37.001Z</time>
</trkpt>
<trkpt lat="44.8719820" lon="8.9474880">
<ele>297.179993</ele>
<time>2014-08-05T09:01:46.004Z</time>
</trkpt>
<trkpt lat="44.8720600" lon="8.9474500">
<ele>295.747437</ele>
<time>2014-08-05T09:02:17.998Z</time>
</trkpt>
<trkpt lat="44.8721400" lon="8.9474200">
<ele>294.772064</ele>
<time>2014-08-05T09:02:25.999Z</time>
</trkpt>
<trkpt lat="44.8722000" lon="8.9473800">
<ele>294.314880</ele>
<time>2014-08-05T09:02:47.003Z</time>
</trkpt>
<trkpt lat="44.8723000" lon="8.9473400">
<ele>292.364166</ele>
<time>2014-08-05T09:03:11.998Z</time>
</trkpt>
<trkpt lat="44.8723900" lon="8.9473200">
<ele>291.906952</ele>
<time>2014-08-05T09:03:21.001Z</time>
</trkpt>
<trkpt lat="44.8724800" lon="8.9473000">
<ele>290.931610</ele>
<time>2014-08-05T09:03:30.997Z</time>
</trkpt>
<trkpt lat="44.8725700" lon="8.9472700">
<ele>290.931610</ele>
<time>2014-08-05T09:03:41.003Z</time>
</trkpt>
<trkpt lat="44.8726600" lon="8.9472400">
<ele>289.011353</ele>
<time>2014-08-05T09:03:49.997Z</time>
</trkpt>
<trkpt lat="44.8727500" lon="8.9472100">
<ele>287.091125</ele>
<time>2014-08-05T09:03:59.000Z</time>
</trkpt>
<trkpt lat="44.8728500" lon="8.9471900">
<ele>286.603424</ele>
<time>2014-08-05T09:04:08.003Z</time>
</trkpt>
<trkpt lat="44.8729400" lon="8.9471500">
<ele>284.195526</ele>
<time>2014-08-05T09:04:16.997Z</time>
</trkpt>
<trkpt lat="44.8730180" lon="8.9471440">
<ele>283.738342</ele>
<time>2014-08-05T09:04:28.004Z</time>
</trkpt>
<trkpt lat="44.8730900" lon="8.9471500">
<ele>284.195526</ele>
<time>2014-08-05T09:04:47.004Z</time>
</trkpt>
<trkpt lat="44.8731800" lon="8.9472100">
<ele>283.250641</ele>
<time>2014-08-05T09:04:55.998Z</time>
</trkpt>
<trkpt lat="44.8732600" lon="8.9472700">
<ele>282.762970</ele>
<time>2014-08-05T09:05:03.998Z</time>
</trkpt>
<trkpt lat="44.8733300" lon="8.9473400">
<ele>282.762970</ele>
<time>2014-08-05T09:05:11.999Z</time>
</trkpt>
<trkpt lat="44.8734200" lon="8.9474000">
<ele>282.275269</ele>
<time>2014-08-05T09:05:21.002Z</time>
</trkpt>
<trkpt lat="44.8735000" lon="8.9474700">
<ele>281.330414</ele>
<time>2014-08-05T09:05:29.996Z</time>
</trkpt>
<trkpt lat="44.8735800" lon="8.9475400">
<ele>280.842712</ele>
<time>2014-08-05T09:05:42.999Z</time>
</trkpt>
<trkpt lat="44.8736700" lon="8.9476000">
<ele>280.842712</ele>
<time>2014-08-05T09:05:52.002Z</time>
</trkpt>
<trkpt lat="44.8737700" lon="8.9476300">
<ele>280.355042</ele>
<time>2014-08-05T09:06:00.996Z</time>
</trkpt>
<trkpt lat="44.8738700" lon="8.9476600">
<ele>279.867371</ele>
<time>2014-08-05T09:06:08.997Z</time>
</trkpt>
<trkpt lat="44.8739600" lon="8.9477000">
<ele>279.867371</ele>
<time>2014-08-05T09:06:16.998Z</time>
</trkpt>
<trkpt lat="44.8740500" lon="8.9477100">
<ele>279.410156</ele>
<time>2014-08-05T09:06:39.004Z</time>
</trkpt>
<trkpt lat="44.8741100" lon="8.9477500">
<ele>279.410156</ele>
<time>2014-08-05T09:08:23.004Z</time>
</trkpt>
<trkpt lat="44.8741800" lon="8.9478400">
<ele>278.922485</ele>
<time>2014-08-05T09:08:38.003Z</time>
</trkpt>
<trkpt lat="44.8742600" lon="8.9478600">
<ele>278.922485</ele>
<time>2014-08-05T09:08:50.004Z</time>
</trkpt>
<trkpt lat="44.8743450" lon="8.9479470">
<ele>279.867371</ele>
<time>2014-08-05T09:09:06.998Z</time>
</trkpt>
<trkpt lat="44.8744060" lon="8.9479900">
<ele>279.410156</ele>
<time>2014-08-05T09:09:14.999Z</time>
</trkpt>
<trkpt lat="44.8744740" lon="8.9480750">
<ele>279.410156</ele>
<time>2014-08-05T09:09:23.000Z</time>
</trkpt>
<trkpt lat="44.8745430" lon="8.9481610">
<ele>279.410156</ele>
<time>2014-08-05T09:09:31.000Z</time>
</trkpt>
<trkpt lat="44.8746270" lon="8.9482470">
<ele>278.922485</ele>
<time>2014-08-05T09:09:39.001Z</time>
</trkpt>
<trkpt lat="44.8746880" lon="8.9483220">
<ele>278.434814</ele>
<time>2014-08-05T09:09:44.997Z</time>
</trkpt>
<trkpt lat="44.8747570" lon="8.9484070">
<ele>278.922485</ele>
<time>2014-08-05T09:09:52.998Z</time>
</trkpt>
<trkpt lat="44.8748250" lon="8.9484820">
<ele>278.922485</ele>
<time>2014-08-05T09:09:59.996Z</time>
</trkpt>
<trkpt lat="44.8749010" lon="8.9485570">
<ele>278.922485</ele>
<time>2014-08-05T09:10:07.003Z</time>
</trkpt>
<trkpt lat="44.8749620" lon="8.9486320">
<ele>278.922485</ele>
<time>2014-08-05T09:10:14.002Z</time>
</trkpt>
<trkpt lat="44.8750390" lon="8.9487290">
<ele>279.410156</ele>
<time>2014-08-05T09:10:21.000Z</time>
</trkpt>
<trkpt lat="44.8751070" lon="8.9488040">
<ele>279.410156</ele>
<time>2014-08-05T09:10:27.998Z</time>
</trkpt>
<trkpt lat="44.8751910" lon="8.9489110">
<ele>278.434814</ele>
<time>2014-08-05T09:10:34.997Z</time>
</trkpt>
<trkpt lat="44.8752450" lon="8.9489640">
<ele>278.922485</ele>
<time>2014-08-05T09:10:42.004Z</time>
</trkpt>
<trkpt lat="44.8753060" lon="8.9490390">
<ele>279.410156</ele>
<time>2014-08-05T09:10:49.002Z</time>
</trkpt>
<trkpt lat="44.8753820" lon="8.9491470">
<ele>279.867371</ele>
<time>2014-08-05T09:10:56.001Z</time>
</trkpt>
<trkpt lat="44.8754660" lon="8.9492540">
<ele>279.867371</ele>
<time>2014-08-05T09:11:02.999Z</time>
</trkpt>
<trkpt lat="44.8755420" lon="8.9493500">
<ele>279.867371</ele>
<time>2014-08-05T09:11:09.997Z</time>
</trkpt>
<trkpt lat="44.8756110" lon="8.9494460">
<ele>280.842712</ele>
<time>2014-08-05T09:11:17.998Z</time>
</trkpt>
<trkpt lat="44.8756720" lon="8.9495320">
<ele>281.330414</ele>
<time>2014-08-05T09:11:25.999Z</time>
</trkpt>
<trkpt lat="44.8757250" lon="8.9496070">
<ele>280.842712</ele>
<time>2014-08-05T09:11:33.999Z</time>
</trkpt>
<trkpt lat="44.8757940" lon="8.9497140">
<ele>280.355042</ele>
<time>2014-08-05T09:11:42.000Z</time>
</trkpt>
<trkpt lat="44.8758470" lon="8.9498110">
<ele>280.355042</ele>
<time>2014-08-05T09:11:50.001Z</time>
</trkpt>
<trkpt lat="44.8759000" lon="8.9498960">
<ele>280.355042</ele>
<time>2014-08-05T09:11:58.001Z</time>
</trkpt>
<trkpt lat="44.8759540" lon="8.9500140">
<ele>281.330414</ele>
<time>2014-08-05T09:12:06.002Z</time>
</trkpt>
<trkpt lat="44.8760070" lon="8.9501210">
<ele>281.330414</ele>
<time>2014-08-05T09:12:14.003Z</time>
</trkpt>
<trkpt lat="44.8760530" lon="8.9502180">
<ele>282.275269</ele>
<time>2014-08-05T09:12:22.003Z</time>
</trkpt>
<trkpt lat="44.8761200" lon="8.9503200">
<ele>282.275269</ele>
<time>2014-08-05T09:12:30.004Z</time>
</trkpt>
<trkpt lat="44.8761800" lon="8.9504400">
<ele>282.762970</ele>
<time>2014-08-05T09:12:37.996Z</time>
</trkpt>
<trkpt lat="44.8762130" lon="8.9505290">
<ele>282.762970</ele>
<time>2014-08-05T09:12:45.996Z</time>
</trkpt>
<trkpt lat="44.8762440" lon="8.9505710">
<ele>282.762970</ele>
<time>2014-08-05T09:12:53.997Z</time>
</trkpt>
<trkpt lat="44.8762660" lon="8.9506040">
<ele>283.250641</ele>
<time>2014-08-05T09:13:01.998Z</time>
</trkpt>
<trkpt lat="44.8762890" lon="8.9506680">
<ele>283.250641</ele>
<time>2014-08-05T09:13:20.997Z</time>
</trkpt>
<trkpt lat="44.8763200" lon="8.9507320">
<ele>282.762970</ele>
<time>2014-08-05T09:13:30.000Z</time>
</trkpt>
<trkpt lat="44.8763500" lon="8.9507540">
<ele>283.738342</ele>
<time>2014-08-05T09:13:39.996Z</time>
</trkpt>
<trkpt lat="44.8763810" lon="8.9507750">
<ele>283.738342</ele>
<time>2014-08-05T09:13:50.002Z</time>
</trkpt>
<trkpt lat="44.8764650" lon="8.9507640">
<ele>283.738342</ele>
<time>2014-08-05T09:13:59.998Z</time>
</trkpt>
<trkpt lat="44.8765260" lon="8.9507430">
<ele>283.738342</ele>
<time>2014-08-05T09:24:04.003Z</time>
</trkpt>
<trkpt lat="44.8766090" lon="8.9507530">
<ele>284.195526</ele>
<time>2014-08-05T09:24:14.000Z</time>
</trkpt>
<trkpt lat="44.8766900" lon="8.9508500">
<ele>283.738342</ele>
<time>2014-08-05T09:24:27.003Z</time>
</trkpt>
<trkpt lat="44.8767700" lon="8.9509000">
<ele>283.250641</ele>
<time>2014-08-05T09:24:39.004Z</time>
</trkpt>
<trkpt lat="44.8768600" lon="8.9509600">
<ele>283.250641</ele>
<time>2014-08-05T09:24:50.996Z</time>
</trkpt>
<trkpt lat="44.8769600" lon="8.9510100">
<ele>282.762970</ele>
<time>2014-08-05T09:25:24.001Z</time>
</trkpt>
<trkpt lat="44.8770500" lon="8.9510900">
<ele>281.330414</ele>
<time>2014-08-05T09:26:00.004Z</time>
</trkpt>
<trkpt lat="44.8771200" lon="8.9511700">
<ele>281.330414</ele>
<time>2014-08-05T09:26:15.003Z</time>
</trkpt>
<trkpt lat="44.8772000" lon="8.9512600">
<ele>280.355042</ele>
<time>2014-08-05T09:26:23.997Z</time>
</trkpt>
<trkpt lat="44.8772800" lon="8.9513400">
<ele>279.867371</ele>
<time>2014-08-05T09:26:33.000Z</time>
</trkpt>
<trkpt lat="44.8773500" lon="8.9514300">
<ele>278.922485</ele>
<time>2014-08-05T09:26:39.998Z</time>
</trkpt>
<trkpt lat="44.8774000" lon="8.9515600">
<ele>277.002228</ele>
<time>2014-08-05T09:26:49.001Z</time>
</trkpt>
<trkpt lat="44.8774600" lon="8.9516300">
<ele>275.569672</ele>
<time>2014-08-05T09:27:02.998Z</time>
</trkpt>
<trkpt lat="44.8775100" lon="8.9517500">
<ele>273.618958</ele>
<time>2014-08-05T09:27:13.003Z</time>
</trkpt>
<trkpt lat="44.8775800" lon="8.9518100">
<ele>272.186401</ele>
<time>2014-08-05T09:27:25.998Z</time>
</trkpt>
<trkpt lat="44.8776700" lon="8.9517900">
<ele>270.753845</ele>
<time>2014-08-05T09:27:40.997Z</time>
</trkpt>
<trkpt lat="44.8778600" lon="8.9518400">
<ele>266.425659</ele>
<time>2014-08-05T09:28:07.997Z</time>
</trkpt>
<trkpt lat="44.8779500" lon="8.9519200">
<ele>264.017761</ele>
<time>2014-08-05T09:28:26.996Z</time>
</trkpt>
<trkpt lat="44.8779400" lon="8.9520000">
<ele>263.530060</ele>
<time>2014-08-05T09:29:13.998Z</time>
</trkpt>
<trkpt lat="44.8779890" lon="8.9521140">
<ele>263.530060</ele>
<time>2014-08-05T09:29:24.003Z</time>
</trkpt>
<trkpt lat="44.8780890" lon="8.9521990">
<ele>263.530060</ele>
<time>2014-08-05T09:29:32.997Z</time>
</trkpt>
<trkpt lat="44.8781720" lon="8.9522630">
<ele>263.072876</ele>
<time>2014-08-05T09:29:43.002Z</time>
</trkpt>
<trkpt lat="44.8782500" lon="8.9523100">
<ele>263.072876</ele>
<time>2014-08-05T09:29:51.996Z</time>
</trkpt>
<trkpt lat="44.8783480" lon="8.9523920">
<ele>262.097534</ele>
<time>2014-08-05T09:30:02.002Z</time>
</trkpt>
<trkpt lat="44.8784390" lon="8.9524450">
<ele>262.097534</ele>
<time>2014-08-05T09:30:10.996Z</time>
</trkpt>
<trkpt lat="44.8785380" lon="8.9525200">
<ele>261.609833</ele>
<time>2014-08-05T09:30:18.996Z</time>
</trkpt>
<trkpt lat="44.8786150" lon="8.9525630">
<ele>261.122162</ele>
<time>2014-08-05T09:30:26.004Z</time>
</trkpt>
<trkpt lat="44.8786800" lon="8.9526300">
<ele>261.609833</ele>
<time>2014-08-05T09:30:33.002Z</time>
</trkpt>
<trkpt lat="44.8787700" lon="8.9526900">
<ele>260.664978</ele>
<time>2014-08-05T09:30:41.003Z</time>
</trkpt>
<trkpt lat="44.8788500" lon="8.9527500">
<ele>260.664978</ele>
<time>2014-08-05T09:30:49.003Z</time>
</trkpt>
<trkpt lat="44.8789400" lon="8.9528200">
<ele>260.177277</ele>
<time>2014-08-05T09:30:57.997Z</time>
</trkpt>
<trkpt lat="44.8790260" lon="8.9528630">
<ele>260.177277</ele>
<time>2014-08-05T09:31:05.998Z</time>
</trkpt>
<trkpt lat="44.8791180" lon="8.9529380">
<ele>260.664978</ele>
<time>2014-08-05T09:31:13.999Z</time>
</trkpt>
<trkpt lat="44.8792090" lon="8.9530130">
<ele>260.664978</ele>
<time>2014-08-05T09:31:21.999Z</time>
</trkpt>
<trkpt lat="44.8792850" lon="8.9530670">
<ele>260.664978</ele>
<time>2014-08-05T09:31:30.000Z</time>
</trkpt>
<trkpt lat="44.8793690" lon="8.9531200">
<ele>260.664978</ele>
<time>2014-08-05T09:31:38.001Z</time>
</trkpt>
<trkpt lat="44.8794610" lon="8.9531840">
<ele>260.664978</ele>
<time>2014-08-05T09:31:46.001Z</time>
</trkpt>
<trkpt lat="44.8795450" lon="8.9532490">
<ele>260.664978</ele>
<time>2014-08-05T09:31:55.004Z</time>
</trkpt>
<trkpt lat="44.8796100" lon="8.9533200">
<ele>260.177277</ele>
<time>2014-08-05T09:32:02.996Z</time>
</trkpt>
<trkpt lat="44.8797000" lon="8.9533600">
<ele>260.664978</ele>
<time>2014-08-05T09:32:10.003Z</time>
</trkpt>
<trkpt lat="44.8797500" lon="8.9534500">
<ele>260.177277</ele>
<time>2014-08-05T09:32:33.996Z</time>
</trkpt>
<trkpt lat="44.8797400" lon="8.9535800">
<ele>260.177277</ele>
<time>2014-08-05T09:32:45.997Z</time>
</trkpt>
<trkpt lat="44.8797300" lon="8.9537100">
<ele>259.689606</ele>
<time>2014-08-05T09:32:55.000Z</time>
</trkpt>
<trkpt lat="44.8797100" lon="8.9538500">
<ele>260.177277</ele>
<time>2014-08-05T09:33:04.003Z</time>
</trkpt>
<trkpt lat="44.8797050" lon="8.9539450">
<ele>259.689606</ele>
<time>2014-08-05T09:33:18.000Z</time>
</trkpt>
<trkpt lat="44.8796820" lon="8.9540100">
<ele>258.744720</ele>
<time>2014-08-05T09:33:58.997Z</time>
</trkpt>
<trkpt lat="44.8796670" lon="8.9541600">
<ele>257.769379</ele>
<time>2014-08-05T09:34:08.000Z</time>
</trkpt>
<trkpt lat="44.8796600" lon="8.9542800">
<ele>255.361435</ele>
<time>2014-08-05T09:34:17.003Z</time>
</trkpt>
<trkpt lat="44.8796590" lon="8.9544060">
<ele>253.928879</ele>
<time>2014-08-05T09:34:25.997Z</time>
</trkpt>
<trkpt lat="44.8796670" lon="8.9545240">
<ele>252.953522</ele>
<time>2014-08-05T09:34:40.996Z</time>
</trkpt>
<trkpt lat="44.8796820" lon="8.9546420">
<ele>252.008636</ele>
<time>2014-08-05T09:35:02.000Z</time>
</trkpt>
<trkpt lat="44.8796980" lon="8.9547600">
<ele>251.033279</ele>
<time>2014-08-05T09:35:11.996Z</time>
</trkpt>
<trkpt lat="44.8797130" lon="8.9548890">
<ele>250.545593</ele>
<time>2014-08-05T09:35:20.999Z</time>
</trkpt>
<trkpt lat="44.8797360" lon="8.9550170">
<ele>249.113037</ele>
<time>2014-08-05T09:35:30.002Z</time>
</trkpt>
<trkpt lat="44.8797660" lon="8.9551460">
<ele>247.192795</ele>
<time>2014-08-05T09:35:38.996Z</time>
</trkpt>
<trkpt lat="44.8798040" lon="8.9552740">
<ele>246.247925</ele>
<time>2014-08-05T09:35:47.999Z</time>
</trkpt>
<trkpt lat="44.8798430" lon="8.9554030">
<ele>243.839996</ele>
<time>2014-08-05T09:35:57.002Z</time>
</trkpt>
<trkpt lat="44.8798810" lon="8.9555210">
<ele>242.376968</ele>
<time>2014-08-05T09:36:05.996Z</time>
</trkpt>
<trkpt lat="44.8799340" lon="8.9556500">
<ele>240.944397</ele>
<time>2014-08-05T09:36:14.999Z</time>
</trkpt>
<trkpt lat="44.8799720" lon="8.9557460">
<ele>239.511841</ele>
<time>2014-08-05T09:36:23.000Z</time>
</trkpt>
<trkpt lat="44.8800100" lon="8.9558640">
<ele>238.048798</ele>
<time>2014-08-05T09:36:31.000Z</time>
</trkpt>
<trkpt lat="44.8800560" lon="8.9559820">
<ele>236.128571</ele>
<time>2014-08-05T09:36:39.001Z</time>
</trkpt>
<trkpt lat="44.8801170" lon="8.9560890">
<ele>235.183670</ele>
<time>2014-08-05T09:36:47.002Z</time>
</trkpt>
<trkpt lat="44.8801630" lon="8.9562170">
<ele>234.208328</ele>
<time>2014-08-05T09:36:55.002Z</time>
</trkpt>
<trkpt lat="44.8801780" lon="8.9563250">
<ele>232.775757</ele>
<time>2014-08-05T09:37:03.003Z</time>
</trkpt>
<trkpt lat="44.8801940" lon="8.9564640">
<ele>231.343201</ele>
<time>2014-08-05T09:37:11.004Z</time>
</trkpt>
<trkpt lat="44.8801780" lon="8.9566250">
<ele>229.880157</ele>
<time>2014-08-05T09:37:19.004Z</time>
</trkpt>
<trkpt lat="44.8801600" lon="8.9568000">
<ele>228.935272</ele>
<time>2014-08-05T09:37:26.996Z</time>
</trkpt>
<trkpt lat="44.8801480" lon="8.9569140">
<ele>228.935272</ele>
<time>2014-08-05T09:37:34.003Z</time>
</trkpt>
<trkpt lat="44.8801400" lon="8.9570500">
<ele>227.959930</ele>
<time>2014-08-05T09:37:42.004Z</time>
</trkpt>
<trkpt lat="44.8801300" lon="8.9571900">
<ele>227.959930</ele>
<time>2014-08-05T09:37:49.996Z</time>
</trkpt>
<trkpt lat="44.8801600" lon="8.9573200">
<ele>227.502731</ele>
<time>2014-08-05T09:37:58.999Z</time>
</trkpt>
<trkpt lat="44.8801600" lon="8.9573800">
<ele>228.447601</ele>
<time>2014-08-05T09:39:07.004Z</time>
</trkpt>
<trkpt lat="44.8801900" lon="8.9574700">
<ele>227.959930</ele>
<time>2014-08-05T09:39:36.000Z</time>
</trkpt>
<trkpt lat="44.8802300" lon="8.9576100">
<ele>227.015030</ele>
<time>2014-08-05T09:39:45.003Z</time>
</trkpt>
<trkpt lat="44.8802800" lon="8.9577200">
<ele>225.552002</ele>
<time>2014-08-05T09:39:53.004Z</time>
</trkpt>
<trkpt lat="44.8803500" lon="8.9578400">
<ele>225.094803</ele>
<time>2014-08-05T09:40:01.004Z</time>
</trkpt>
<trkpt lat="44.8804080" lon="8.9579220">
<ele>224.607132</ele>
<time>2014-08-05T09:40:08.003Z</time>
</trkpt>
<trkpt lat="44.8805000" lon="8.9580000">
<ele>224.119431</ele>
<time>2014-08-05T09:40:15.001Z</time>
</trkpt>
<trkpt lat="44.8805800" lon="8.9580700">
<ele>223.631760</ele>
<time>2014-08-05T09:40:21.999Z</time>
</trkpt>
<trkpt lat="44.8806700" lon="8.9581400">
<ele>222.686874</ele>
<time>2014-08-05T09:40:30.000Z</time>
</trkpt>
<trkpt lat="44.8807500" lon="8.9582100">
<ele>223.174561</ele>
<time>2014-08-05T09:40:38.001Z</time>
</trkpt>
<trkpt lat="44.8807200" lon="8.9582000">
<ele>222.199203</ele>
<time>2014-08-05T09:40:57.000Z</time>
</trkpt>
<trkpt lat="44.8808000" lon="8.9582600">
<ele>221.711533</ele>
<time>2014-08-05T09:41:07.999Z</time>
</trkpt>
<trkpt lat="44.8808800" lon="8.9583300">
<ele>221.254333</ele>
<time>2014-08-05T09:41:14.997Z</time>
</trkpt>
<trkpt lat="44.8809600" lon="8.9584000">
<ele>220.766632</ele>
<time>2014-08-05T09:41:22.004Z</time>
</trkpt>
<trkpt lat="44.8810400" lon="8.9584700">
<ele>219.791275</ele>
<time>2014-08-05T09:41:29.003Z</time>
</trkpt>
<trkpt lat="44.8810860" lon="8.9585650">
<ele>219.791275</ele>
<time>2014-08-05T09:41:37.997Z</time>
</trkpt>
<trkpt lat="44.8811240" lon="8.9586930">
<ele>219.303604</ele>
<time>2014-08-05T09:41:45.997Z</time>
</trkpt>
<trkpt lat="44.8811550" lon="8.9588540">
<ele>218.846405</ele>
<time>2014-08-05T09:41:55.000Z</time>
</trkpt>
<trkpt lat="44.8811700" lon="8.9589610">
<ele>217.871033</ele>
<time>2014-08-05T09:42:03.001Z</time>
</trkpt>
<trkpt lat="44.8811620" lon="8.9590900">
<ele>217.383362</ele>
<time>2014-08-05T09:42:09.999Z</time>
</trkpt>
<trkpt lat="44.8811550" lon="8.9592180">
<ele>216.926163</ele>
<time>2014-08-05T09:42:18.000Z</time>
</trkpt>
<trkpt lat="44.8811470" lon="8.9593360">
<ele>216.438477</ele>
<time>2014-08-05T09:42:26.001Z</time>
</trkpt>
<trkpt lat="44.8811400" lon="8.9594540">
<ele>216.438477</ele>
<time>2014-08-05T09:42:34.001Z</time>
</trkpt>
<trkpt lat="44.8811470" lon="8.9595830">
<ele>216.438477</ele>
<time>2014-08-05T09:42:42.002Z</time>
</trkpt>
<trkpt lat="44.8811930" lon="8.9597440">
<ele>215.950806</ele>
<time>2014-08-05T09:42:50.003Z</time>
</trkpt>
<trkpt lat="44.8812310" lon="8.9598720">
<ele>216.438477</ele>
<time>2014-08-05T09:42:58.003Z</time>
</trkpt>
<trkpt lat="44.8812470" lon="8.9599900">
<ele>215.005920</ele>
<time>2014-08-05T09:43:06.004Z</time>
</trkpt>
<trkpt lat="44.8812540" lon="8.9601400">
<ele>215.005920</ele>
<time>2014-08-05T09:43:13.996Z</time>
</trkpt>
<trkpt lat="44.8812540" lon="8.9602800">
<ele>215.005920</ele>
<time>2014-08-05T09:43:21.003Z</time>
</trkpt>
<trkpt lat="44.8812470" lon="8.9603980">
<ele>215.463135</ele>
<time>2014-08-05T09:43:29.004Z</time>
</trkpt>
<trkpt lat="44.8812770" lon="8.9605150">
<ele>215.463135</ele>
<time>2014-08-05T09:43:40.002Z</time>
</trkpt>
<trkpt lat="44.8813760" lon="8.9606550">
<ele>215.005920</ele>
<time>2014-08-05T09:43:48.996Z</time>
</trkpt>
<trkpt lat="44.8814530" lon="8.9607400">
<ele>214.518234</ele>
<time>2014-08-05T09:43:56.997Z</time>
</trkpt>
<trkpt lat="44.8815360" lon="8.9608260">
<ele>214.518234</ele>
<time>2014-08-05T09:44:06.000Z</time>
</trkpt>
<trkpt lat="44.8816050" lon="8.9608900">
<ele>214.518234</ele>
<time>2014-08-05T09:44:14.001Z</time>
</trkpt>
<trkpt lat="44.8816660" lon="8.9609650">
<ele>215.950806</ele>
<time>2014-08-05T09:44:22.001Z</time>
</trkpt>
<trkpt lat="44.8817190" lon="8.9610510">
<ele>215.950806</ele>
<time>2014-08-05T09:44:30.002Z</time>
</trkpt>
<trkpt lat="44.8817420" lon="8.9611690">
<ele>215.950806</ele>
<time>2014-08-05T09:44:39.998Z</time>
</trkpt>
<trkpt lat="44.8817730" lon="8.9612980">
<ele>215.950806</ele>
<time>2014-08-05T09:44:50.997Z</time>
</trkpt>
<trkpt lat="44.8817880" lon="8.9614260">
<ele>217.383362</ele>
<time>2014-08-05T09:45:01.002Z</time>
</trkpt>
<trkpt lat="44.8818190" lon="8.9615550">
<ele>219.303604</ele>
<time>2014-08-05T09:45:12.001Z</time>
</trkpt>
<trkpt lat="44.8818420" lon="8.9617050">
<ele>220.278961</ele>
<time>2014-08-05T09:45:32.996Z</time>
</trkpt>
<trkpt lat="44.8818640" lon="8.9618340">
<ele>221.711533</ele>
<time>2014-08-05T09:45:44.004Z</time>
</trkpt>
<trkpt lat="44.8818950" lon="8.9619620">
<ele>223.631760</ele>
<time>2014-08-05T09:45:55.002Z</time>
</trkpt>
<trkpt lat="44.8819180" lon="8.9621120">
<ele>224.607132</ele>
<time>2014-08-05T09:46:04.999Z</time>
</trkpt>
<trkpt lat="44.8819480" lon="8.9622200">
<ele>226.039673</ele>
<time>2014-08-05T09:46:15.997Z</time>
</trkpt>
<trkpt lat="44.8819800" lon="8.9623200">
<ele>227.015030</ele>
<time>2014-08-05T09:46:26.003Z</time>
</trkpt>
<trkpt lat="44.8820000" lon="8.9624600">
<ele>228.447601</ele>
<time>2014-08-05T09:46:37.001Z</time>
</trkpt>
<trkpt lat="44.8820100" lon="8.9625900">
<ele>230.855530</ele>
<time>2014-08-05T09:46:48.000Z</time>
</trkpt>
<trkpt lat="44.8820300" lon="8.9627300">
<ele>231.800400</ele>
<time>2014-08-05T09:46:58.999Z</time>
</trkpt>
<trkpt lat="44.8820500" lon="8.9628600">
<ele>233.751129</ele>
<time>2014-08-05T09:47:09.997Z</time>
</trkpt>
<trkpt lat="44.8820600" lon="8.9629900">
<ele>235.671356</ele>
<time>2014-08-05T09:47:20.996Z</time>
</trkpt>
<trkpt lat="44.8820800" lon="8.9631200">
<ele>237.591599</ele>
<time>2014-08-05T09:47:32.997Z</time>
</trkpt>
<trkpt lat="44.8820700" lon="8.9632500">
<ele>239.999527</ele>
<time>2014-08-05T09:47:44.998Z</time>
</trkpt>
<trkpt lat="44.8820600" lon="8.9633800">
<ele>241.432068</ele>
<time>2014-08-05T09:47:56.999Z</time>
</trkpt>
<trkpt lat="44.8820500" lon="8.9635100">
<ele>243.839996</ele>
<time>2014-08-05T09:48:09.000Z</time>
</trkpt>
<trkpt lat="44.8820400" lon="8.9636400">
<ele>245.760239</ele>
<time>2014-08-05T09:48:21.001Z</time>
</trkpt>
<trkpt lat="44.8820250" lon="8.9637740">
<ele>247.680466</ele>
<time>2014-08-05T09:48:33.002Z</time>
</trkpt>
<trkpt lat="44.8820100" lon="8.9639100">
<ele>248.625366</ele>
<time>2014-08-05T09:48:45.003Z</time>
</trkpt>
<trkpt lat="44.8819800" lon="8.9640400">
<ele>252.008636</ele>
<time>2014-08-05T09:48:56.002Z</time>
</trkpt>
<trkpt lat="44.8819700" lon="8.9641600">
<ele>251.520966</ele>
<time>2014-08-05T09:49:07.000Z</time>
</trkpt>
<trkpt lat="44.8819490" lon="8.9642780">
<ele>252.953522</ele>
<time>2014-08-05T09:49:17.999Z</time>
</trkpt>
<trkpt lat="44.8819190" lon="8.9644060">
<ele>255.361435</ele>
<time>2014-08-05T09:49:28.998Z</time>
</trkpt>
<trkpt lat="44.8818960" lon="8.9645460">
<ele>258.257050</ele>
<time>2014-08-05T09:49:40.999Z</time>
</trkpt>
<trkpt lat="44.8818580" lon="8.9646850">
<ele>259.689606</ele>
<time>2014-08-05T09:49:51.997Z</time>
</trkpt>
<trkpt lat="44.8818350" lon="8.9648030">
<ele>261.609833</ele>
<time>2014-08-05T09:50:02.996Z</time>
</trkpt>
<trkpt lat="44.8818100" lon="8.9649300">
<ele>263.072876</ele>
<time>2014-08-05T09:50:14.004Z</time>
</trkpt>
<trkpt lat="44.8817800" lon="8.9650500">
<ele>264.993134</ele>
<time>2014-08-05T09:50:24.000Z</time>
</trkpt>
<trkpt lat="44.8817510" lon="8.9651680">
<ele>265.450317</ele>
<time>2014-08-05T09:50:34.999Z</time>
</trkpt>
<trkpt lat="44.8817210" lon="8.9653180">
<ele>267.858246</ele>
<time>2014-08-05T09:50:45.004Z</time>
</trkpt>
<trkpt lat="44.8817000" lon="8.9654300">
<ele>268.345917</ele>
<time>2014-08-05T09:50:55.000Z</time>
</trkpt>
<trkpt lat="44.8816900" lon="8.9655600">
<ele>268.833588</ele>
<time>2014-08-05T09:51:04.997Z</time>
</trkpt>
<trkpt lat="44.8816900" lon="8.9657000">
<ele>269.778473</ele>
<time>2014-08-05T09:51:16.004Z</time>
</trkpt>
<trkpt lat="44.8816900" lon="8.9658300">
<ele>271.241516</ele>
<time>2014-08-05T09:51:26.001Z</time>
</trkpt>
<trkpt lat="44.8816900" lon="8.9659600">
<ele>272.186401</ele>
<time>2014-08-05T09:51:36.999Z</time>
</trkpt>
<trkpt lat="44.8816830" lon="8.9661000">
<ele>272.674072</ele>
<time>2014-08-05T09:51:46.002Z</time>
</trkpt>
<trkpt lat="44.8816830" lon="8.9662290">
<ele>273.618958</ele>
<time>2014-08-05T09:51:54.996Z</time>
</trkpt>
<trkpt lat="44.8816830" lon="8.9663680">
<ele>274.106628</ele>
<time>2014-08-05T09:52:02.997Z</time>
</trkpt>
<trkpt lat="44.8816830" lon="8.9664860">
<ele>274.594330</ele>
<time>2014-08-05T09:52:10.998Z</time>
</trkpt>
<trkpt lat="44.8816600" lon="8.9666150">
<ele>276.026886</ele>
<time>2014-08-05T09:52:18.998Z</time>
</trkpt>
<trkpt lat="44.8816370" lon="8.9667440">
<ele>276.514557</ele>
<time>2014-08-05T09:52:28.001Z</time>
</trkpt>
<trkpt lat="44.8816150" lon="8.9668720">
<ele>277.002228</ele>
<time>2014-08-05T09:52:37.998Z</time>
</trkpt>
<trkpt lat="44.8815920" lon="8.9670010">
<ele>277.489929</ele>
<time>2014-08-05T09:52:47.001Z</time>
</trkpt>
<trkpt lat="44.8815700" lon="8.9671200">
<ele>278.922485</ele>
<time>2014-08-05T09:52:56.004Z</time>
</trkpt>
<trkpt lat="44.8815310" lon="8.9672690">
<ele>279.867371</ele>
<time>2014-08-05T09:53:06.000Z</time>
</trkpt>
<trkpt lat="44.8815080" lon="8.9673870">
<ele>281.330414</ele>
<time>2014-08-05T09:53:15.003Z</time>
</trkpt>
<trkpt lat="44.8814930" lon="8.9675260">
<ele>281.818085</ele>
<time>2014-08-05T09:53:23.997Z</time>
</trkpt>
<trkpt lat="44.8814850" lon="8.9676550">
<ele>282.762970</ele>
<time>2014-08-05T09:53:33.000Z</time>
</trkpt>
<trkpt lat="44.8814780" lon="8.9677940">
<ele>283.738342</ele>
<time>2014-08-05T09:53:42.003Z</time>
</trkpt>
<trkpt lat="44.8815010" lon="8.9679770">
<ele>285.658569</ele>
<time>2014-08-05T09:53:51.999Z</time>
</trkpt>
<trkpt lat="44.8815160" lon="8.9680940">
<ele>287.091125</ele>
<time>2014-08-05T09:54:01.002Z</time>
</trkpt>
<trkpt lat="44.8815540" lon="8.9682340">
<ele>289.011353</ele>
<time>2014-08-05T09:54:09.996Z</time>
</trkpt>
<trkpt lat="44.8815840" lon="8.9683300">
<ele>290.931610</ele>
<time>2014-08-05T09:54:18.999Z</time>
</trkpt>
<trkpt lat="44.8816070" lon="8.9684480">
<ele>292.851837</ele>
<time>2014-08-05T09:54:28.002Z</time>
</trkpt>
<trkpt lat="44.8816230" lon="8.9685660">
<ele>294.314880</ele>
<time>2014-08-05T09:54:36.996Z</time>
</trkpt>
<trkpt lat="44.8816530" lon="8.9687050">
<ele>294.314880</ele>
<time>2014-08-05T09:54:45.999Z</time>
</trkpt>
<trkpt lat="44.8816840" lon="8.9688340">
<ele>294.314880</ele>
<time>2014-08-05T09:54:55.002Z</time>
</trkpt>
<trkpt lat="44.8817140" lon="8.9689520">
<ele>294.314880</ele>
<time>2014-08-05T09:55:03.996Z</time>
</trkpt>
<trkpt lat="44.8817220" lon="8.9690700">
<ele>293.827209</ele>
<time>2014-08-05T09:55:12.999Z</time>
</trkpt>
<trkpt lat="44.8817600" lon="8.9692100">
<ele>292.851837</ele>
<time>2014-08-05T09:55:26.003Z</time>
</trkpt>
<trkpt lat="44.8816900" lon="8.9693000">
<ele>293.339539</ele>
<time>2014-08-05T09:56:46.000Z</time>
</trkpt>
<trkpt lat="44.8816200" lon="8.9693800">
<ele>292.851837</ele>
<time>2014-08-05T09:56:54.001Z</time>
</trkpt>
<trkpt lat="44.8815600" lon="8.9694500">
<ele>293.339539</ele>
<time>2014-08-05T09:57:03.997Z</time>
</trkpt>
<trkpt lat="44.8814900" lon="8.9695300">
<ele>293.339539</ele>
<time>2014-08-05T09:57:13.000Z</time>
</trkpt>
<trkpt lat="44.8814200" lon="8.9696100">
<ele>294.314880</ele>
<time>2014-08-05T09:57:21.001Z</time>
</trkpt>
<trkpt lat="44.8813490" lon="8.9696810">
<ele>294.772064</ele>
<time>2014-08-05T09:57:29.002Z</time>
</trkpt>
<trkpt lat="44.8812880" lon="8.9697990">
<ele>294.314880</ele>
<time>2014-08-05T09:57:37.002Z</time>
</trkpt>
<trkpt lat="44.8812500" lon="8.9699380">
<ele>295.259766</ele>
<time>2014-08-05T09:57:45.003Z</time>
</trkpt>
<trkpt lat="44.8812190" lon="8.9700890">
<ele>295.747437</ele>
<time>2014-08-05T09:57:53.997Z</time>
</trkpt>
<trkpt lat="44.8812040" lon="8.9702280">
<ele>295.747437</ele>
<time>2014-08-05T09:58:03.000Z</time>
</trkpt>
<trkpt lat="44.8812120" lon="8.9703570">
<ele>296.692322</ele>
<time>2014-08-05T09:58:12.003Z</time>
</trkpt>
<trkpt lat="44.8812420" lon="8.9704850">
<ele>296.692322</ele>
<time>2014-08-05T09:58:30.000Z</time>
</trkpt>
<trkpt lat="44.8812730" lon="8.9706350">
<ele>296.235138</ele>
<time>2014-08-05T09:58:38.001Z</time>
</trkpt>
<trkpt lat="44.8813260" lon="8.9707640">
<ele>296.235138</ele>
<time>2014-08-05T09:58:44.999Z</time>
</trkpt>
<trkpt lat="44.8813640" lon="8.9708820">
<ele>295.747437</ele>
<time>2014-08-05T09:58:51.997Z</time>
</trkpt>
<trkpt lat="44.8814020" lon="8.9710000">
<ele>296.692322</ele>
<time>2014-08-05T09:58:58.996Z</time>
</trkpt>
<trkpt lat="44.8814250" lon="8.9711180">
<ele>297.179993</ele>
<time>2014-08-05T09:59:06.003Z</time>
</trkpt>
<trkpt lat="44.8814710" lon="8.9712460">
<ele>296.692322</ele>
<time>2014-08-05T09:59:14.004Z</time>
</trkpt>
<trkpt lat="44.8815170" lon="8.9714180">
<ele>296.235138</ele>
<time>2014-08-05T09:59:22.004Z</time>
</trkpt>
<trkpt lat="44.8815700" lon="8.9715570">
<ele>295.259766</ele>
<time>2014-08-05T09:59:29.003Z</time>
</trkpt>
<trkpt lat="44.8816080" lon="8.9716860">
<ele>295.259766</ele>
<time>2014-08-05T09:59:41.004Z</time>
</trkpt>
<trkpt lat="44.8816390" lon="8.9718040">
<ele>293.827209</ele>
<time>2014-08-05T09:59:49.004Z</time>
</trkpt>
<trkpt lat="44.8816540" lon="8.9719320">
<ele>293.827209</ele>
<time>2014-08-05T09:59:56.996Z</time>
</trkpt>
<trkpt lat="44.8816920" lon="8.9720930">
<ele>293.827209</ele>
<time>2014-08-05T10:00:11.002Z</time>
</trkpt>
<trkpt lat="44.8817230" lon="8.9722320">
<ele>293.339539</ele>
<time>2014-08-05T10:00:19.002Z</time>
</trkpt>
<trkpt lat="44.8817460" lon="8.9723500">
<ele>292.851837</ele>
<time>2014-08-05T10:00:26.001Z</time>
</trkpt>
<trkpt lat="44.8817680" lon="8.9724570">
<ele>292.364166</ele>
<time>2014-08-05T10:00:34.001Z</time>
</trkpt>
<trkpt lat="44.8817910" lon="8.9725860">
<ele>291.906952</ele>
<time>2014-08-05T10:00:42.002Z</time>
</trkpt>
<trkpt lat="44.8818070" lon="8.9726930">
<ele>292.364166</ele>
<time>2014-08-05T10:00:50.003Z</time>
</trkpt>
<trkpt lat="44.8818370" lon="8.9728110">
<ele>292.851837</ele>
<time>2014-08-05T10:00:58.997Z</time>
</trkpt>
<trkpt lat="44.8818520" lon="8.9728970">
<ele>293.339539</ele>
<time>2014-08-05T10:01:06.997Z</time>
</trkpt>
<trkpt lat="44.8818910" lon="8.9730150">
<ele>293.339539</ele>
<time>2014-08-05T10:01:14.998Z</time>
</trkpt>
<trkpt lat="44.8819290" lon="8.9731540">
<ele>293.827209</ele>
<time>2014-08-05T10:01:24.001Z</time>
</trkpt>
<trkpt lat="44.8819740" lon="8.9732830">
<ele>292.851837</ele>
<time>2014-08-05T10:01:32.002Z</time>
</trkpt>
<trkpt lat="44.8820200" lon="8.9734110">
<ele>293.339539</ele>
<time>2014-08-05T10:01:40.002Z</time>
</trkpt>
<trkpt lat="44.8820890" lon="8.9735510">
<ele>293.827209</ele>
<time>2014-08-05T10:01:48.003Z</time>
</trkpt>
<trkpt lat="44.8821300" lon="8.9736200">
<ele>293.339539</ele>
<time>2014-08-05T10:01:56.004Z</time>
</trkpt>
<trkpt lat="44.8822000" lon="8.9737200">
<ele>293.339539</ele>
<time>2014-08-05T10:02:07.996Z</time>
</trkpt>
<trkpt lat="44.8822700" lon="8.9738000">
<ele>293.339539</ele>
<time>2014-08-05T10:02:15.003Z</time>
</trkpt>
<trkpt lat="44.8823500" lon="8.9738600">
<ele>292.851837</ele>
<time>2014-08-05T10:02:22.001Z</time>
</trkpt>
<trkpt lat="44.8824320" lon="8.9739040">
<ele>292.364166</ele>
<time>2014-08-05T10:02:31.998Z</time>
</trkpt>
<trkpt lat="44.8825310" lon="8.9739470">
<ele>292.364166</ele>
<time>2014-08-05T10:02:41.001Z</time>
</trkpt>
<trkpt lat="44.8826070" lon="8.9739790">
<ele>290.443939</ele>
<time>2014-08-05T10:02:49.001Z</time>
</trkpt>
<trkpt lat="44.8827900" lon="8.9740000">
<ele>289.986725</ele>
<time>2014-08-05T10:03:09.003Z</time>
</trkpt>
<trkpt lat="44.8828900" lon="8.9739800">
<ele>289.011353</ele>
<time>2014-08-05T10:03:17.997Z</time>
</trkpt>
<trkpt lat="44.8829800" lon="8.9739700">
<ele>289.011353</ele>
<time>2014-08-05T10:03:25.998Z</time>
</trkpt>
<trkpt lat="44.8831700" lon="8.9739600">
<ele>289.499023</ele>
<time>2014-08-05T10:03:45.999Z</time>
</trkpt>
<trkpt lat="44.8832400" lon="8.9739400">
<ele>289.499023</ele>
<time>2014-08-05T10:03:52.998Z</time>
</trkpt>
</trkseg>
</trk>
</gpx>