<?xml version="1.0" encoding="utf-8"?>
<gpx xmlns:xsi="http://www.w3.org/2001/XMLSchema-instance" xmlns:xsd="http://www.w3.org/2001/XMLSchema" version="1.1" creator="Catasto Piemonte" xmlns="http://www.topografix.com/GPX/1/1">
  <trk>
    <name>EALA152000A</name>
    <trkseg>
      <trkpt lat="44.8688017627093" lon="8.95715311275869" />
      <trkpt lat="44.868879" lon="8.9570702" />
      <trkpt lat="44.8689096952287" lon="8.95700564798844" />
      <trkpt lat="44.8689386286304" lon="8.95691151018717" />
      <trkpt lat="44.868945654915" lon="8.95677641140615" />
      <trkpt lat="44.8691233381037" lon="8.95666835498517" />
      <trkpt lat="44.869237178381" lon="8.9565699386402" />
      <trkpt lat="44.8693270507578" lon="8.95648839672912" />
      <trkpt lat="44.8694176" lon="8.9563864" />
      <trkpt lat="44.869509" lon="8.9562792" />
      <trkpt lat="44.8695706674315" lon="8.95617074291558" />
      <trkpt lat="44.8696233" lon="8.9560754" />
      <trkpt lat="44.8696689" lon="8.9559575" />
      <trkpt lat="44.8696994" lon="8.955861" />
      <trkpt lat="44.8698111774834" lon="8.95557214048621" />
      <trkpt lat="44.8698920028684" lon="8.95534731934524" />
      <trkpt lat="44.8699532792362" lon="8.95518176423904" />
      <trkpt lat="44.8700268" lon="8.9550248" />
      <trkpt lat="44.8701029" lon="8.9548532" />
      <trkpt lat="44.8702019" lon="8.9546388" />
      <trkpt lat="44.8702552" lon="8.954553" />
      <trkpt lat="44.8703525994013" lon="8.95436218160267" />
      <trkpt lat="44.8704429788112" lon="8.95425680196334" />
      <trkpt lat="44.8705605237632" lon="8.95417527406765" />
      <trkpt lat="44.8706916539756" lon="8.95411331916738" />
      <trkpt lat="44.8707995312366" lon="8.95409637626321" />
      <trkpt lat="44.870913395271" lon="8.95406257131475" />
      <trkpt lat="44.87097456668" lon="8.95403805821449" />
      <trkpt lat="44.8710751924768" lon="8.95399079922352" />
      <trkpt lat="44.871141116511" lon="8.95397810373602" />
      <trkpt lat="44.8712496" lon="8.9539627" />
      <trkpt lat="44.8713411" lon="8.9539713" />
      <trkpt lat="44.8714393" lon="8.9539661" />
      <trkpt lat="44.8715342" lon="8.9539443" />
      <trkpt lat="44.8716255" lon="8.9539306" />
      <trkpt lat="44.8717314603291" lon="8.95392425131134" />
      <trkpt lat="44.8717933869432" lon="8.95390734442403" />
      <trkpt lat="44.871877297866" lon="8.9539100870319" />
      <trkpt lat="44.8719811907092" lon="8.95392124246639" />
      <trkpt lat="44.872103052881" lon="8.95390428765984" />
      <trkpt lat="44.8722748726878" lon="8.95391538891822" />
      <trkpt lat="44.8724706701111" lon="8.95393489994886" />
      <trkpt lat="44.8726424899039" lon="8.95394600136812" />
      <trkpt lat="44.8727543639396" lon="8.9539318640136" />
      <trkpt lat="44.8728962148149" lon="8.95394017974736" />
      <trkpt lat="44.8729231852468" lon="8.95393875341748" />
      <trkpt lat="44.8729601330346" lon="8.95390781794627" />
      <trkpt lat="44.8730080616213" lon="8.95385861101359" />
      <trkpt lat="44.8730365" lon="8.9538005" />
      <trkpt lat="44.8730593" lon="8.9536933" />
      <trkpt lat="44.8730821" lon="8.9535646" />
      <trkpt lat="44.8730973" lon="8.9534574" />
      <trkpt lat="44.8731067438071" lon="8.95333804571494" />
      <trkpt lat="44.8731126787265" lon="8.95319474908925" />
      <trkpt lat="44.8730972" lon="8.9530823" />
      <trkpt lat="44.8730895" lon="8.9529751" />
      <trkpt lat="44.8730437" lon="8.9528358" />
      <trkpt lat="44.8729859" lon="8.9527152" />
      <trkpt lat="44.8729221601237" lon="8.95265334647298" />
      <trkpt lat="44.8728502068624" lon="8.95257965265648" />
      <trkpt lat="44.8727564" lon="8.9524498" />
      <trkpt lat="44.8727002776552" lon="8.95236273234986" />
      <trkpt lat="44.8726492769837" lon="8.95223001982221" />
      <trkpt lat="44.8726177384124" lon="8.95205725430442" />
      <trkpt lat="44.8726161948588" lon="8.95194978763754" />
      <trkpt lat="44.8726263" lon="8.9518678" />
      <trkpt lat="44.8726623" lon="8.9517643" />
      <trkpt lat="44.8727003" lon="8.9516356" />
      <trkpt lat="44.8727523647816" lon="8.95151558708399" />
      <trkpt lat="44.8727796" lon="8.9514069" />
      <trkpt lat="44.8728121" lon="8.9512843" />
      <trkpt lat="44.872819659452" lon="8.95120366171126" />
      <trkpt lat="44.8728091428013" lon="8.95113834672492" />
      <trkpt lat="44.872797094296" lon="8.95099506587309" />
      <trkpt lat="44.8727415977767" lon="8.95086446537586" />
      <trkpt lat="44.8726846018098" lon="8.95073175919169" />
      <trkpt lat="44.8726276175345" lon="8.95062644705562" />
      <trkpt lat="44.8725796435695" lon="8.95056748610048" />
      <trkpt lat="44.8725182" lon="8.9505052" />
      <trkpt lat="44.8724258" lon="8.9504441" />
      <trkpt lat="44.8723294" lon="8.9504069" />
      <trkpt lat="44.8722678991899" lon="8.95038442639119" />
      <trkpt lat="44.8721386" lon="8.9503562" />
      <trkpt lat="44.872085077425" lon="8.95034243956406" />
      <trkpt lat="44.8719861800888" lon="8.95033409584054" />
      <trkpt lat="44.8718693066643" lon="8.95033630354555" />
      <trkpt lat="44.8717689173493" lon="8.95034271143302" />
      <trkpt lat="44.8716254" lon="8.9502807" />
      <trkpt lat="44.8715444" lon="8.9502238" />
      <trkpt lat="44.8714903" lon="8.9501858" />
      <trkpt lat="44.8714271955867" lon="8.95013860966277" />
      <trkpt lat="44.8713383" lon="8.9500471" />
      <trkpt lat="44.8712638029871" lon="8.94998282050553" />
      <trkpt lat="44.8712345737834" lon="8.9499586134325" />
      <trkpt lat="44.8711933440627" lon="8.94990386292794" />
      <trkpt lat="44.8711753425861" lon="8.94985646739673" />
      <trkpt lat="44.8711498570139" lon="8.9498269892696" />
      <trkpt lat="44.8711078195346" lon="8.94981164019526" />
      <trkpt lat="44.871101" lon="8.9497381" />
      <trkpt lat="44.8710906" lon="8.9496121" />
      <trkpt lat="44.8710821" lon="8.9494684" />
      <trkpt lat="44.8710785" lon="8.9493263" />
      <trkpt lat="44.8710723" lon="8.949181" />
      <trkpt lat="44.8710915" lon="8.9490396" />
      <trkpt lat="44.871159212319" lon="8.94895988418071" />
      <trkpt lat="44.8712799" lon="8.9488842" />
      <trkpt lat="44.8713758" lon="8.9488303" />
      <trkpt lat="44.8715487010099" lon="8.94875303671507" />
      <trkpt lat="44.871754" lon="8.9486245" />
      <trkpt lat="44.871983129571" lon="8.9485208601157" />
      <trkpt lat="44.872115448174" lon="8.94844233277031" />
      <trkpt lat="44.8723406" lon="8.9482381" />
      <trkpt lat="44.8724744256882" lon="8.94813269559252" />
      <trkpt lat="44.8726606" lon="8.9479806" />
      <trkpt lat="44.8728219367553" lon="8.94787951679538" />
      <trkpt lat="44.8730256598427" lon="8.94775289913908" />
      <trkpt lat="44.873209935599" lon="8.94769583702641" />
      <trkpt lat="44.8733912280656" lon="8.94766827865557" />
      <trkpt lat="44.8735959406351" lon="8.94765608551334" />
      <trkpt lat="44.8737178786882" lon="8.94767219713043" />
      <trkpt lat="44.8739761261621" lon="8.94773490860802" />
      <trkpt lat="44.8741766414904" lon="8.94779521393303" />
    </trkseg>
  </trk>
</gpx>