<?xml version="1.0" encoding="UTF-8" standalone="yes"?>
<gpx
 xmlns="http://www.topografix.com/GPX/1/1"
 creator="OziExplorer Version 3955k - http://www.oziexplorer.com"
 version="1.1"
 xmlns:xsi="http://www.w3.org/2001/XMLSchema-instance"
 xsi:schemaLocation="http://www.topografix.com/GPX/1/1 http://www.topografix.com/GPX/1/1/gpx.xsd">
<metadata>
 <time>2014-04-04T09:34:27Z</time>
 <bounds minlat="44.690940" minlon="9.152761" maxlat="44.718851" maxlon="9.169050"/>
</metadata>
<wpt lat="44.7030230" lon="9.1618680">
 <ele>979.932007</ele>
 <time>2010-09-03T12:13:29.620Z</time>
 <name>FONTANA DEL BUTTO</name>
 <sym>Airport</sym>
</wpt>
<wpt lat="44.7188510" lon="9.1527610">
 <ele>1177.137573</ele>
 <time>2010-09-03T12:14:07.256Z</time>
 <name>COLONIA PROVINCIALE</name>
 <sym>Airport</sym>
</wpt>
<wpt lat="44.6995630" lon="9.1667070">
 <ele>1396.898438</ele>
 <time>2010-09-03T12:14:33.357Z</time>
 <name>RIFUGIO EZIO ORSI</name>
 <sym>Airport</sym>
</wpt>
<wpt lat="44.6909760" lon="9.1689940">
 <ele>1699.869629</ele>
 <time>2010-09-03T12:15:58.254Z</time>
 <name>MONTE EBRO</name>
 <sym>Airport</sym>
</wpt>
<trk>
 <name>TRACCIA SENTIERO 106 PER TOURING</name>
 <desc>SENTIERO 106 </desc>
<trkseg>
<trkpt lat="44.7183100" lon="9.1530160">
<ele>1184.483276</ele>
<time>2011-08-30T07:18:36.999Z</time>
</trkpt>
<trkpt lat="44.7182410" lon="9.1530580">
<ele>1182.075317</ele>
<time>2011-08-30T07:19:08.000Z</time>
</trkpt>
<trkpt lat="44.7181570" lon="9.1531330">
<ele>1182.563110</ele>
<time>2011-08-30T07:19:17.996Z</time>
</trkpt>
<trkpt lat="44.7180810" lon="9.1532080">
<ele>1182.075317</ele>
<time>2011-08-30T07:19:25.003Z</time>
</trkpt>
<trkpt lat="44.7180120" lon="9.1532820">
<ele>1182.075317</ele>
<time>2011-08-30T07:19:32.002Z</time>
</trkpt>
<trkpt lat="44.7179130" lon="9.1533780">
<ele>1183.050659</ele>
<time>2011-08-30T07:19:39.000Z</time>
</trkpt>
<trkpt lat="44.7178440" lon="9.1534640">
<ele>1183.050659</ele>
<time>2011-08-30T07:19:47.001Z</time>
</trkpt>
<trkpt lat="44.7177610" lon="9.1535270">
<ele>1184.970947</ele>
<time>2011-08-30T07:19:55.001Z</time>
</trkpt>
<trkpt lat="44.7176770" lon="9.1535700">
<ele>1186.891235</ele>
<time>2011-08-30T07:20:03.002Z</time>
</trkpt>
<trkpt lat="44.7175850" lon="9.1536340">
<ele>1186.891235</ele>
<time>2011-08-30T07:20:11.003Z</time>
</trkpt>
<trkpt lat="44.7174860" lon="9.1536870">
<ele>1186.891235</ele>
<time>2011-08-30T07:20:18.001Z</time>
</trkpt>
<trkpt lat="44.7174100" lon="9.1537190">
<ele>1187.378906</ele>
<time>2011-08-30T07:20:24.999Z</time>
</trkpt>
<trkpt lat="44.7173300" lon="9.1538000">
<ele>1188.323730</ele>
<time>2011-08-30T07:20:31.998Z</time>
</trkpt>
<trkpt lat="44.7172400" lon="9.1538800">
<ele>1188.323730</ele>
<time>2011-08-30T07:20:38.996Z</time>
</trkpt>
<trkpt lat="44.7171580" lon="9.1539430">
<ele>1188.811401</ele>
<time>2011-08-30T07:20:45.001Z</time>
</trkpt>
<trkpt lat="44.7170890" lon="9.1539850">
<ele>1189.299072</ele>
<time>2011-08-30T07:20:51.999Z</time>
</trkpt>
<trkpt lat="44.7170280" lon="9.1540070">
<ele>1188.811401</ele>
<time>2011-08-30T07:21:13.003Z</time>
</trkpt>
<trkpt lat="44.7169500" lon="9.1540200">
<ele>1188.811401</ele>
<time>2011-08-30T07:21:18.999Z</time>
</trkpt>
<trkpt lat="44.7168400" lon="9.1540100">
<ele>1189.299072</ele>
<time>2011-08-30T07:21:27.000Z</time>
</trkpt>
<trkpt lat="44.7167380" lon="9.1540170">
<ele>1189.299072</ele>
<time>2011-08-30T07:21:32.996Z</time>
</trkpt>
<trkpt lat="44.7166320" lon="9.1540060">
<ele>1189.756348</ele>
<time>2011-08-30T07:21:40.997Z</time>
</trkpt>
<trkpt lat="44.7165330" lon="9.1540050">
<ele>1192.164307</ele>
<time>2011-08-30T07:21:50.000Z</time>
</trkpt>
<trkpt lat="44.7164200" lon="9.1540300">
<ele>1193.627319</ele>
<time>2011-08-30T07:21:59.003Z</time>
</trkpt>
<trkpt lat="44.7163420" lon="9.1540480">
<ele>1193.139648</ele>
<time>2011-08-30T07:22:07.003Z</time>
</trkpt>
<trkpt lat="44.7162730" lon="9.1540900">
<ele>1195.547485</ele>
<time>2011-08-30T07:22:17.000Z</time>
</trkpt>
<trkpt lat="44.7161590" lon="9.1541110">
<ele>1196.980103</ele>
<time>2011-08-30T07:22:25.000Z</time>
</trkpt>
<trkpt lat="44.7159530" lon="9.1541000">
<ele>1198.900269</ele>
<time>2011-08-30T07:22:46.004Z</time>
</trkpt>
<trkpt lat="44.7158390" lon="9.1541000">
<ele>1199.387939</ele>
<time>2011-08-30T07:22:54.998Z</time>
</trkpt>
<trkpt lat="44.7157480" lon="9.1540990">
<ele>1200.332886</ele>
<time>2011-08-30T07:23:02.999Z</time>
</trkpt>
<trkpt lat="44.7156790" lon="9.1541100">
<ele>1201.795898</ele>
<time>2011-08-30T07:23:12.002Z</time>
</trkpt>
<trkpt lat="44.7156100" lon="9.1541740">
<ele>1202.740845</ele>
<time>2011-08-30T07:23:20.996Z</time>
</trkpt>
<trkpt lat="44.7155640" lon="9.1542490">
<ele>1205.636353</ele>
<time>2011-08-30T07:23:32.004Z</time>
</trkpt>
<trkpt lat="44.7155410" lon="9.1544410">
<ele>1208.044312</ele>
<time>2011-08-30T07:23:43.002Z</time>
</trkpt>
<trkpt lat="44.7154950" lon="9.1546230">
<ele>1208.501465</ele>
<time>2011-08-30T07:23:54.001Z</time>
</trkpt>
<trkpt lat="44.7154570" lon="9.1547080">
<ele>1209.964600</ele>
<time>2011-08-30T07:24:03.997Z</time>
</trkpt>
<trkpt lat="44.7153810" lon="9.1548150">
<ele>1211.397095</ele>
<time>2011-08-30T07:24:13.000Z</time>
</trkpt>
<trkpt lat="44.7152660" lon="9.1548680">
<ele>1212.372559</ele>
<time>2011-08-30T07:24:22.003Z</time>
</trkpt>
<trkpt lat="44.7151750" lon="9.1548890">
<ele>1213.805054</ele>
<time>2011-08-30T07:24:30.997Z</time>
</trkpt>
<trkpt lat="44.7150830" lon="9.1549420">
<ele>1214.749878</ele>
<time>2011-08-30T07:24:38.998Z</time>
</trkpt>
<trkpt lat="44.7150070" lon="9.1550600">
<ele>1215.237549</ele>
<time>2011-08-30T07:24:49.003Z</time>
</trkpt>
<trkpt lat="44.7149530" lon="9.1552300">
<ele>1217.645508</ele>
<time>2011-08-30T07:25:01.004Z</time>
</trkpt>
<trkpt lat="44.7149070" lon="9.1554010">
<ele>1219.078125</ele>
<time>2011-08-30T07:25:12.996Z</time>
</trkpt>
<trkpt lat="44.7148690" lon="9.1555300">
<ele>1221.485962</ele>
<time>2011-08-30T07:25:24.004Z</time>
</trkpt>
<trkpt lat="44.7148460" lon="9.1556900">
<ele>1222.461304</ele>
<time>2011-08-30T07:25:34.000Z</time>
</trkpt>
<trkpt lat="44.7148100" lon="9.1557500">
<ele>1225.326538</ele>
<time>2011-08-30T07:25:47.004Z</time>
</trkpt>
<trkpt lat="44.7147100" lon="9.1557300">
<ele>1227.246704</ele>
<time>2011-08-30T07:26:01.000Z</time>
</trkpt>
<trkpt lat="44.7146710" lon="9.1557110">
<ele>1229.654663</ele>
<time>2011-08-30T07:26:10.997Z</time>
</trkpt>
<trkpt lat="44.7145940" lon="9.1556680">
<ele>1230.630005</ele>
<time>2011-08-30T07:26:21.002Z</time>
</trkpt>
<trkpt lat="44.7144950" lon="9.1558170">
<ele>1231.574951</ele>
<time>2011-08-30T07:26:29.996Z</time>
</trkpt>
<trkpt lat="44.7144110" lon="9.1559560">
<ele>1232.062500</ele>
<time>2011-08-30T07:26:38.999Z</time>
</trkpt>
<trkpt lat="44.7143400" lon="9.1560300">
<ele>1231.574951</ele>
<time>2011-08-30T07:26:47.000Z</time>
</trkpt>
<trkpt lat="44.7142900" lon="9.1561400">
<ele>1233.037842</ele>
<time>2011-08-30T07:26:56.003Z</time>
</trkpt>
<trkpt lat="44.7141970" lon="9.1562120">
<ele>1233.982788</ele>
<time>2011-08-30T07:27:04.997Z</time>
</trkpt>
<trkpt lat="44.7141200" lon="9.1562900">
<ele>1233.982788</ele>
<time>2011-08-30T07:27:12.997Z</time>
</trkpt>
<trkpt lat="44.7140370" lon="9.1563290">
<ele>1236.390747</ele>
<time>2011-08-30T07:27:22.000Z</time>
</trkpt>
<trkpt lat="44.7139460" lon="9.1563820">
<ele>1238.798706</ele>
<time>2011-08-30T07:27:31.997Z</time>
</trkpt>
<trkpt lat="44.7138500" lon="9.1564200">
<ele>1241.206543</ele>
<time>2011-08-30T07:27:45.000Z</time>
</trkpt>
<trkpt lat="44.7137550" lon="9.1564570">
<ele>1243.126831</ele>
<time>2011-08-30T07:27:57.001Z</time>
</trkpt>
<trkpt lat="44.7136710" lon="9.1564780">
<ele>1244.559326</ele>
<time>2011-08-30T07:28:08.000Z</time>
</trkpt>
<trkpt lat="44.7136410" lon="9.1565310">
<ele>1245.534668</ele>
<time>2011-08-30T07:28:18.998Z</time>
</trkpt>
<trkpt lat="44.7135640" lon="9.1566060">
<ele>1247.454956</ele>
<time>2011-08-30T07:28:32.002Z</time>
</trkpt>
<trkpt lat="44.7134270" lon="9.1566370">
<ele>1249.375244</ele>
<time>2011-08-30T07:28:43.000Z</time>
</trkpt>
<trkpt lat="44.7132900" lon="9.1566370">
<ele>1250.807861</ele>
<time>2011-08-30T07:28:56.997Z</time>
</trkpt>
<trkpt lat="44.7131910" lon="9.1566260">
<ele>1253.703369</ele>
<time>2011-08-30T07:29:08.998Z</time>
</trkpt>
<trkpt lat="44.7130990" lon="9.1566040">
<ele>1255.135864</ele>
<time>2011-08-30T07:29:20.999Z</time>
</trkpt>
<trkpt lat="44.7130000" lon="9.1566040">
<ele>1257.543823</ele>
<time>2011-08-30T07:29:33.000Z</time>
</trkpt>
<trkpt lat="44.7129010" lon="9.1566790">
<ele>1258.976440</ele>
<time>2011-08-30T07:29:47.999Z</time>
</trkpt>
<trkpt lat="44.7128300" lon="9.1567900">
<ele>1261.384277</ele>
<time>2011-08-30T07:30:09.003Z</time>
</trkpt>
<trkpt lat="44.7127710" lon="9.1569030">
<ele>1262.816895</ele>
<time>2011-08-30T07:30:21.004Z</time>
</trkpt>
<trkpt lat="44.7127100" lon="9.1570200">
<ele>1264.279907</ele>
<time>2011-08-30T07:30:29.998Z</time>
</trkpt>
<trkpt lat="44.7126410" lon="9.1571480">
<ele>1265.224854</ele>
<time>2011-08-30T07:30:40.997Z</time>
</trkpt>
<trkpt lat="44.7125720" lon="9.1572660">
<ele>1268.120361</ele>
<time>2011-08-30T07:30:52.998Z</time>
</trkpt>
<trkpt lat="44.7124880" lon="9.1574040">
<ele>1269.065308</ele>
<time>2011-08-30T07:31:06.001Z</time>
</trkpt>
<trkpt lat="44.7124040" lon="9.1575110">
<ele>1270.985474</ele>
<time>2011-08-30T07:31:18.002Z</time>
</trkpt>
<trkpt lat="44.7123000" lon="9.1575400">
<ele>1274.368774</ele>
<time>2011-08-30T07:31:30.003Z</time>
</trkpt>
<trkpt lat="44.7122000" lon="9.1575400">
<ele>1275.313721</ele>
<time>2011-08-30T07:31:42.004Z</time>
</trkpt>
<trkpt lat="44.7121200" lon="9.1575500">
<ele>1278.697021</ele>
<time>2011-08-30T07:31:54.998Z</time>
</trkpt>
<trkpt lat="44.7120990" lon="9.1575740">
<ele>1281.104858</ele>
<time>2011-08-30T07:32:09.004Z</time>
</trkpt>
<trkpt lat="44.7121760" lon="9.1576280">
<ele>1282.049805</ele>
<time>2011-08-30T07:32:24.003Z</time>
</trkpt>
<trkpt lat="44.7122140" lon="9.1576390">
<ele>1286.377930</ele>
<time>2011-08-30T07:33:11.998Z</time>
</trkpt>
<trkpt lat="44.7123740" lon="9.1576710">
<ele>1289.730713</ele>
<time>2011-08-30T07:33:25.001Z</time>
</trkpt>
<trkpt lat="44.7123510" lon="9.1578740">
<ele>1293.601685</ele>
<time>2011-08-30T07:33:52.001Z</time>
</trkpt>
<trkpt lat="44.7122890" lon="9.1579700">
<ele>1295.521851</ele>
<time>2011-08-30T07:34:04.002Z</time>
</trkpt>
<trkpt lat="44.7120840" lon="9.1579380">
<ele>1301.770264</ele>
<time>2011-08-30T07:34:28.998Z</time>
</trkpt>
<trkpt lat="44.7122130" lon="9.1581730">
<ele>1306.555664</ele>
<time>2011-08-30T07:35:02.996Z</time>
</trkpt>
<trkpt lat="44.7122580" lon="9.1583550">
<ele>1308.963623</ele>
<time>2011-08-30T07:35:17.002Z</time>
</trkpt>
<trkpt lat="44.7122050" lon="9.1584410">
<ele>1308.963623</ele>
<time>2011-08-30T07:35:26.998Z</time>
</trkpt>
<trkpt lat="44.7119160" lon="9.1583110">
<ele>1307.043457</ele>
<time>2011-08-30T07:35:37.003Z</time>
</trkpt>
<trkpt lat="44.7117480" lon="9.1581290">
<ele>1307.531006</ele>
<time>2011-08-30T07:35:45.997Z</time>
</trkpt>
<trkpt lat="44.7116030" lon="9.1581500">
<ele>1308.506348</ele>
<time>2011-08-30T07:35:55.000Z</time>
</trkpt>
<trkpt lat="44.7112750" lon="9.1586520">
<ele>1310.426636</ele>
<time>2011-08-30T07:36:09.999Z</time>
</trkpt>
<trkpt lat="44.7111830" lon="9.1586940">
<ele>1316.674927</ele>
<time>2011-08-30T07:36:36.999Z</time>
</trkpt>
<trkpt lat="44.7110770" lon="9.1582880">
<ele>1317.132202</ele>
<time>2011-08-30T07:36:50.003Z</time>
</trkpt>
<trkpt lat="44.7108640" lon="9.1582020">
<ele>1318.595337</ele>
<time>2011-08-30T07:37:02.004Z</time>
</trkpt>
<trkpt lat="44.7107570" lon="9.1581160">
<ele>1321.460449</ele>
<time>2011-08-30T07:37:13.002Z</time>
</trkpt>
<trkpt lat="44.7107350" lon="9.1578490">
<ele>1323.868286</ele>
<time>2011-08-30T07:37:25.003Z</time>
</trkpt>
<trkpt lat="44.7106510" lon="9.1576670">
<ele>1323.868286</ele>
<time>2011-08-30T07:37:36.002Z</time>
</trkpt>
<trkpt lat="44.7104910" lon="9.1577300">
<ele>1325.788574</ele>
<time>2011-08-30T07:37:52.003Z</time>
</trkpt>
<trkpt lat="44.7104600" lon="9.1578270">
<ele>1330.116699</ele>
<time>2011-08-30T07:38:10.000Z</time>
</trkpt>
<trkpt lat="44.7104300" lon="9.1579000">
<ele>1333.500000</ele>
<time>2011-08-30T07:38:47.999Z</time>
</trkpt>
<trkpt lat="44.7103760" lon="9.1581150">
<ele>1334.444946</ele>
<time>2011-08-30T07:39:00.000Z</time>
</trkpt>
<trkpt lat="44.7103530" lon="9.1582750">
<ele>1334.932617</ele>
<time>2011-08-30T07:39:09.003Z</time>
</trkpt>
<trkpt lat="44.7103300" lon="9.1584200">
<ele>1335.877441</ele>
<time>2011-08-30T07:39:17.004Z</time>
</trkpt>
<trkpt lat="44.7102840" lon="9.1585960">
<ele>1336.365112</ele>
<time>2011-08-30T07:39:25.004Z</time>
</trkpt>
<trkpt lat="44.7102000" lon="9.1587770">
<ele>1336.852783</ele>
<time>2011-08-30T07:39:36.003Z</time>
</trkpt>
<trkpt lat="44.7101230" lon="9.1589160">
<ele>1336.852783</ele>
<time>2011-08-30T07:39:50.000Z</time>
</trkpt>
<trkpt lat="44.7100470" lon="9.1591080">
<ele>1336.852783</ele>
<time>2011-08-30T07:39:59.996Z</time>
</trkpt>
<trkpt lat="44.7100100" lon="9.1591500">
<ele>1338.772949</ele>
<time>2011-08-30T07:40:08.999Z</time>
</trkpt>
<trkpt lat="44.7100010" lon="9.1593220">
<ele>1339.748413</ele>
<time>2011-08-30T07:40:17.000Z</time>
</trkpt>
<trkpt lat="44.7099630" lon="9.1595670">
<ele>1341.181030</ele>
<time>2011-08-30T07:40:26.996Z</time>
</trkpt>
<trkpt lat="44.7099170" lon="9.1597490">
<ele>1344.533813</ele>
<time>2011-08-30T07:40:38.997Z</time>
</trkpt>
<trkpt lat="44.7098550" lon="9.1599090">
<ele>1346.453979</ele>
<time>2011-08-30T07:40:53.003Z</time>
</trkpt>
<trkpt lat="44.7097790" lon="9.1600590">
<ele>1348.374146</ele>
<time>2011-08-30T07:41:05.997Z</time>
</trkpt>
<trkpt lat="44.7097330" lon="9.1601550">
<ele>1349.837280</ele>
<time>2011-08-30T07:41:15.000Z</time>
</trkpt>
<trkpt lat="44.7096800" lon="9.1602200">
<ele>1350.294556</ele>
<time>2011-08-30T07:41:21.998Z</time>
</trkpt>
<trkpt lat="44.7096400" lon="9.1603900">
<ele>1351.757446</ele>
<time>2011-08-30T07:41:32.004Z</time>
</trkpt>
<trkpt lat="44.7096000" lon="9.1605200">
<ele>1353.190063</ele>
<time>2011-08-30T07:41:42.000Z</time>
</trkpt>
<trkpt lat="44.7095500" lon="9.1606700">
<ele>1355.110229</ele>
<time>2011-08-30T07:41:52.999Z</time>
</trkpt>
<trkpt lat="44.7094200" lon="9.1607900">
<ele>1356.085693</ele>
<time>2011-08-30T07:42:26.997Z</time>
</trkpt>
<trkpt lat="44.7093400" lon="9.1609300">
<ele>1356.542969</ele>
<time>2011-08-30T07:42:38.998Z</time>
</trkpt>
<trkpt lat="44.7092500" lon="9.1610600">
<ele>1359.438477</ele>
<time>2011-08-30T07:42:50.999Z</time>
</trkpt>
<trkpt lat="44.7091200" lon="9.1611800">
<ele>1360.870972</ele>
<time>2011-08-30T07:43:03.000Z</time>
</trkpt>
<trkpt lat="44.7090000" lon="9.1612300">
<ele>1361.846436</ele>
<time>2011-08-30T07:43:15.001Z</time>
</trkpt>
<trkpt lat="44.7088930" lon="9.1613490">
<ele>1362.334106</ele>
<time>2011-08-30T07:47:33.000Z</time>
</trkpt>
<trkpt lat="44.7087790" lon="9.1614030">
<ele>1363.766602</ele>
<time>2011-08-30T07:47:41.001Z</time>
</trkpt>
<trkpt lat="44.7086340" lon="9.1611030">
<ele>1364.254272</ele>
<time>2011-08-30T07:47:47.999Z</time>
</trkpt>
<trkpt lat="44.7085580" lon="9.1610390">
<ele>1364.254272</ele>
<time>2011-08-30T07:47:54.004Z</time>
</trkpt>
<trkpt lat="44.7084670" lon="9.1609530">
<ele>1365.686890</ele>
<time>2011-08-30T07:48:01.002Z</time>
</trkpt>
<trkpt lat="44.7084060" lon="9.1608460">
<ele>1364.254272</ele>
<time>2011-08-30T07:48:08.001Z</time>
</trkpt>
<trkpt lat="44.7083450" lon="9.1607490">
<ele>1362.334106</ele>
<time>2011-08-30T07:48:13.997Z</time>
</trkpt>
<trkpt lat="44.7082840" lon="9.1606320">
<ele>1362.334106</ele>
<time>2011-08-30T07:48:20.002Z</time>
</trkpt>
<trkpt lat="44.7082160" lon="9.1604930">
<ele>1360.870972</ele>
<time>2011-08-30T07:48:25.004Z</time>
</trkpt>
<trkpt lat="44.7081500" lon="9.1603500">
<ele>1360.870972</ele>
<time>2011-08-30T07:48:29.998Z</time>
</trkpt>
<trkpt lat="44.7080700" lon="9.1602700">
<ele>1360.870972</ele>
<time>2011-08-30T07:48:36.003Z</time>
</trkpt>
<trkpt lat="44.7080180" lon="9.1601610">
<ele>1359.438477</ele>
<time>2011-08-30T07:48:40.997Z</time>
</trkpt>
<trkpt lat="44.7079270" lon="9.1600960">
<ele>1358.950806</ele>
<time>2011-08-30T07:48:47.002Z</time>
</trkpt>
<trkpt lat="44.7078300" lon="9.1600400">
<ele>1358.005859</ele>
<time>2011-08-30T07:48:54.000Z</time>
</trkpt>
<trkpt lat="44.7077500" lon="9.1599700">
<ele>1358.950806</ele>
<time>2011-08-30T07:49:00.998Z</time>
</trkpt>
<trkpt lat="44.7076600" lon="9.1599300">
<ele>1360.870972</ele>
<time>2011-08-30T07:49:07.997Z</time>
</trkpt>
<trkpt lat="44.7075700" lon="9.1598700">
<ele>1362.334106</ele>
<time>2011-08-30T07:49:15.997Z</time>
</trkpt>
<trkpt lat="44.7074800" lon="9.1598100">
<ele>1362.334106</ele>
<time>2011-08-30T07:49:22.996Z</time>
</trkpt>
<trkpt lat="44.7074000" lon="9.1597500">
<ele>1361.846436</ele>
<time>2011-08-30T07:49:29.001Z</time>
</trkpt>
<trkpt lat="44.7073170" lon="9.1597200">
<ele>1362.334106</ele>
<time>2011-08-30T07:49:34.997Z</time>
</trkpt>
<trkpt lat="44.7072410" lon="9.1596670">
<ele>1361.846436</ele>
<time>2011-08-30T07:49:41.002Z</time>
</trkpt>
<trkpt lat="44.7071730" lon="9.1596350">
<ele>1361.358643</ele>
<time>2011-08-30T07:49:46.998Z</time>
</trkpt>
<trkpt lat="44.7070590" lon="9.1595700">
<ele>1361.846436</ele>
<time>2011-08-30T07:49:53.996Z</time>
</trkpt>
<trkpt lat="44.7069670" lon="9.1595270">
<ele>1363.766602</ele>
<time>2011-08-30T07:50:01.003Z</time>
</trkpt>
<trkpt lat="44.7068600" lon="9.1595000">
<ele>1365.686890</ele>
<time>2011-08-30T07:50:09.004Z</time>
</trkpt>
<trkpt lat="44.7067500" lon="9.1595300">
<ele>1365.199219</ele>
<time>2011-08-30T07:50:16.996Z</time>
</trkpt>
<trkpt lat="44.7066540" lon="9.1596120">
<ele>1363.766602</ele>
<time>2011-08-30T07:50:24.996Z</time>
</trkpt>
<trkpt lat="44.7065780" lon="9.1596860">
<ele>1363.766602</ele>
<time>2011-08-30T07:50:32.997Z</time>
</trkpt>
<trkpt lat="44.7065020" lon="9.1597500">
<ele>1364.254272</ele>
<time>2011-08-30T07:50:42.000Z</time>
</trkpt>
<trkpt lat="44.7064480" lon="9.1598250">
<ele>1364.741943</ele>
<time>2011-08-30T07:50:51.003Z</time>
</trkpt>
<trkpt lat="44.7063870" lon="9.1598890">
<ele>1364.741943</ele>
<time>2011-08-30T07:50:59.004Z</time>
</trkpt>
<trkpt lat="44.7062800" lon="9.1599960">
<ele>1365.199219</ele>
<time>2011-08-30T07:51:06.002Z</time>
</trkpt>
<trkpt lat="44.7062100" lon="9.1600800">
<ele>1364.741943</ele>
<time>2011-08-30T07:51:13.000Z</time>
</trkpt>
<trkpt lat="44.7061510" lon="9.1602090">
<ele>1365.199219</ele>
<time>2011-08-30T07:51:19.999Z</time>
</trkpt>
<trkpt lat="44.7060890" lon="9.1603370">
<ele>1365.199219</ele>
<time>2011-08-30T07:51:26.997Z</time>
</trkpt>
<trkpt lat="44.7060300" lon="9.1604600">
<ele>1365.686890</ele>
<time>2011-08-30T07:51:34.004Z</time>
</trkpt>
<trkpt lat="44.7059600" lon="9.1605700">
<ele>1366.662231</ele>
<time>2011-08-30T07:51:41.996Z</time>
</trkpt>
<trkpt lat="44.7058700" lon="9.1606500">
<ele>1367.607056</ele>
<time>2011-08-30T07:51:50.999Z</time>
</trkpt>
<trkpt lat="44.7057700" lon="9.1607000">
<ele>1369.039673</ele>
<time>2011-08-30T07:51:59.000Z</time>
</trkpt>
<trkpt lat="44.7056900" lon="9.1607600">
<ele>1369.527466</ele>
<time>2011-08-30T07:52:05.998Z</time>
</trkpt>
<trkpt lat="44.7055930" lon="9.1607520">
<ele>1369.039673</ele>
<time>2011-08-30T07:52:13.999Z</time>
</trkpt>
<trkpt lat="44.7054710" lon="9.1607630">
<ele>1370.015015</ele>
<time>2011-08-30T07:52:21.999Z</time>
</trkpt>
<trkpt lat="44.7053420" lon="9.1608690">
<ele>1371.447632</ele>
<time>2011-08-30T07:52:58.002Z</time>
</trkpt>
<trkpt lat="44.7052420" lon="9.1610080">
<ele>1372.910522</ele>
<time>2011-08-30T07:53:09.001Z</time>
</trkpt>
<trkpt lat="44.7051660" lon="9.1611250">
<ele>1373.855469</ele>
<time>2011-08-30T07:53:18.997Z</time>
</trkpt>
<trkpt lat="44.7050970" lon="9.1612750">
<ele>1373.855469</ele>
<time>2011-08-30T07:53:26.998Z</time>
</trkpt>
<trkpt lat="44.7050600" lon="9.1613800">
<ele>1374.830933</ele>
<time>2011-08-30T07:53:34.999Z</time>
</trkpt>
<trkpt lat="44.7049900" lon="9.1615100">
<ele>1374.830933</ele>
<time>2011-08-30T07:53:42.999Z</time>
</trkpt>
<trkpt lat="44.7049060" lon="9.1616060">
<ele>1375.288086</ele>
<time>2011-08-30T07:53:49.998Z</time>
</trkpt>
<trkpt lat="44.7048530" lon="9.1616480">
<ele>1376.263428</ele>
<time>2011-08-30T07:53:59.001Z</time>
</trkpt>
<trkpt lat="44.7047540" lon="9.1617010">
<ele>1376.263428</ele>
<time>2011-08-30T07:54:07.001Z</time>
</trkpt>
<trkpt lat="44.7046620" lon="9.1617230">
<ele>1375.288086</ele>
<time>2011-08-30T07:54:15.002Z</time>
</trkpt>
<trkpt lat="44.7045400" lon="9.1617220">
<ele>1375.775879</ele>
<time>2011-08-30T07:54:34.001Z</time>
</trkpt>
<trkpt lat="44.7044560" lon="9.1617220">
<ele>1375.775879</ele>
<time>2011-08-30T07:54:39.997Z</time>
</trkpt>
<trkpt lat="44.7043730" lon="9.1617000">
<ele>1376.263428</ele>
<time>2011-08-30T07:54:46.002Z</time>
</trkpt>
<trkpt lat="44.7042800" lon="9.1616700">
<ele>1377.696045</ele>
<time>2011-08-30T07:54:54.003Z</time>
</trkpt>
<trkpt lat="44.7041800" lon="9.1616300">
<ele>1377.696045</ele>
<time>2011-08-30T07:55:03.999Z</time>
</trkpt>
<trkpt lat="44.7040700" lon="9.1616100">
<ele>1377.238770</ele>
<time>2011-08-30T07:55:13.996Z</time>
</trkpt>
<trkpt lat="44.7039760" lon="9.1615820">
<ele>1377.238770</ele>
<time>2011-08-30T07:55:25.003Z</time>
</trkpt>
<trkpt lat="44.7039000" lon="9.1615280">
<ele>1377.696045</ele>
<time>2011-08-30T07:55:33.004Z</time>
</trkpt>
<trkpt lat="44.7037560" lon="9.1614100">
<ele>1378.183716</ele>
<time>2011-08-30T07:55:40.002Z</time>
</trkpt>
<trkpt lat="44.7036340" lon="9.1613350">
<ele>1378.671387</ele>
<time>2011-08-30T07:55:45.998Z</time>
</trkpt>
<trkpt lat="44.7035270" lon="9.1612920">
<ele>1379.158936</ele>
<time>2011-08-30T07:55:52.003Z</time>
</trkpt>
<trkpt lat="44.7034130" lon="9.1613240">
<ele>1379.158936</ele>
<time>2011-08-30T07:55:59.002Z</time>
</trkpt>
<trkpt lat="44.7033200" lon="9.1613900">
<ele>1378.671387</ele>
<time>2011-08-30T07:56:07.996Z</time>
</trkpt>
<trkpt lat="44.7032500" lon="9.1615300">
<ele>1379.158936</ele>
<time>2011-08-30T07:56:15.003Z</time>
</trkpt>
<trkpt lat="44.7032600" lon="9.1616650">
<ele>1379.158936</ele>
<time>2011-08-30T07:56:23.004Z</time>
</trkpt>
<trkpt lat="44.7032750" lon="9.1617400">
<ele>1380.103882</ele>
<time>2011-08-30T07:56:30.002Z</time>
</trkpt>
<trkpt lat="44.7032440" lon="9.1618360">
<ele>1381.079346</ele>
<time>2011-08-30T07:56:57.002Z</time>
</trkpt>
<trkpt lat="44.7030990" lon="9.1618780">
<ele>1380.591553</ele>
<time>2011-08-30T07:57:13.003Z</time>
</trkpt>
<trkpt lat="44.7029920" lon="9.1621030">
<ele>1381.079346</ele>
<time>2011-08-30T07:57:21.004Z</time>
</trkpt>
<trkpt lat="44.7029460" lon="9.1622630">
<ele>1381.536499</ele>
<time>2011-08-30T07:57:31.000Z</time>
</trkpt>
<trkpt lat="44.7028850" lon="9.1624440">
<ele>1380.103882</ele>
<time>2011-08-30T07:57:39.001Z</time>
</trkpt>
<trkpt lat="44.7028320" lon="9.1625830">
<ele>1376.751099</ele>
<time>2011-08-30T07:57:48.997Z</time>
</trkpt>
<trkpt lat="44.7027860" lon="9.1627110">
<ele>1374.343140</ele>
<time>2011-08-30T07:57:59.996Z</time>
</trkpt>
<trkpt lat="44.7027320" lon="9.1628710">
<ele>1371.447632</ele>
<time>2011-08-30T07:58:11.004Z</time>
</trkpt>
<trkpt lat="44.7026940" lon="9.1629890">
<ele>1369.039673</ele>
<time>2011-08-30T07:58:19.004Z</time>
</trkpt>
<trkpt lat="44.7026330" lon="9.1631280">
<ele>1367.119385</ele>
<time>2011-08-30T07:58:29.001Z</time>
</trkpt>
<trkpt lat="44.7025940" lon="9.1632660">
<ele>1367.607056</ele>
<time>2011-08-30T07:58:38.004Z</time>
</trkpt>
<trkpt lat="44.7025790" lon="9.1634160">
<ele>1367.607056</ele>
<time>2011-08-30T07:58:48.000Z</time>
</trkpt>
<trkpt lat="44.7025860" lon="9.1635550">
<ele>1368.582520</ele>
<time>2011-08-30T07:59:00.001Z</time>
</trkpt>
<trkpt lat="44.7025560" lon="9.1637470">
<ele>1369.527466</ele>
<time>2011-08-30T07:59:09.004Z</time>
</trkpt>
<trkpt lat="44.7025100" lon="9.1638650">
<ele>1369.527466</ele>
<time>2011-08-30T07:59:16.996Z</time>
</trkpt>
<trkpt lat="44.7024870" lon="9.1640040">
<ele>1364.741943</ele>
<time>2011-08-30T07:59:52.999Z</time>
</trkpt>
<trkpt lat="44.7027000" lon="9.1642070">
<ele>1364.741943</ele>
<time>2011-08-30T08:00:02.002Z</time>
</trkpt>
<trkpt lat="44.7028670" lon="9.1644210">
<ele>1365.199219</ele>
<time>2011-08-30T08:00:10.002Z</time>
</trkpt>
<trkpt lat="44.7029430" lon="9.1647100">
<ele>1365.686890</ele>
<time>2011-08-30T08:00:18.996Z</time>
</trkpt>
<trkpt lat="44.7028100" lon="9.1648500">
<ele>1366.662231</ele>
<time>2011-08-30T08:01:47.004Z</time>
</trkpt>
<trkpt lat="44.7027000" lon="9.1649400">
<ele>1362.334106</ele>
<time>2011-08-30T08:02:11.999Z</time>
</trkpt>
<trkpt lat="44.7026220" lon="9.1650190">
<ele>1360.870972</ele>
<time>2011-08-30T08:02:22.998Z</time>
</trkpt>
<trkpt lat="44.7025160" lon="9.1650720">
<ele>1360.413818</ele>
<time>2011-08-30T08:02:30.998Z</time>
</trkpt>
<trkpt lat="44.7024160" lon="9.1651470">
<ele>1357.518188</ele>
<time>2011-08-30T08:02:37.997Z</time>
</trkpt>
<trkpt lat="44.7023320" lon="9.1652540">
<ele>1358.493652</ele>
<time>2011-08-30T08:02:45.004Z</time>
</trkpt>
<trkpt lat="44.7022410" lon="9.1653490">
<ele>1358.950806</ele>
<time>2011-08-30T08:02:52.002Z</time>
</trkpt>
<trkpt lat="44.7021800" lon="9.1654350">
<ele>1358.950806</ele>
<time>2011-08-30T08:03:00.003Z</time>
</trkpt>
<trkpt lat="44.7020880" lon="9.1655090">
<ele>1357.518188</ele>
<time>2011-08-30T08:03:09.999Z</time>
</trkpt>
<trkpt lat="44.7019890" lon="9.1656270">
<ele>1355.598022</ele>
<time>2011-08-30T08:03:31.003Z</time>
</trkpt>
<trkpt lat="44.7019800" lon="9.1657100">
<ele>1355.110229</ele>
<time>2011-08-30T08:03:39.997Z</time>
</trkpt>
<trkpt lat="44.7019100" lon="9.1658000">
<ele>1355.110229</ele>
<time>2011-08-30T08:03:49.000Z</time>
</trkpt>
<trkpt lat="44.7018100" lon="9.1658400">
<ele>1355.598022</ele>
<time>2011-08-30T08:03:55.999Z</time>
</trkpt>
<trkpt lat="44.7017100" lon="9.1658600">
<ele>1356.085693</ele>
<time>2011-08-30T08:04:02.997Z</time>
</trkpt>
<trkpt lat="44.7016200" lon="9.1658900">
<ele>1356.542969</ele>
<time>2011-08-30T08:04:10.004Z</time>
</trkpt>
<trkpt lat="44.7015200" lon="9.1659300">
<ele>1357.030640</ele>
<time>2011-08-30T08:04:17.003Z</time>
</trkpt>
<trkpt lat="44.7014300" lon="9.1659800">
<ele>1357.030640</ele>
<time>2011-08-30T08:04:24.001Z</time>
</trkpt>
<trkpt lat="44.7013630" lon="9.1661250">
<ele>1357.518188</ele>
<time>2011-08-30T08:04:30.999Z</time>
</trkpt>
<trkpt lat="44.7013170" lon="9.1661890">
<ele>1358.950806</ele>
<time>2011-08-30T08:04:37.998Z</time>
</trkpt>
<trkpt lat="44.7012250" lon="9.1663170">
<ele>1361.846436</ele>
<time>2011-08-30T08:04:45.998Z</time>
</trkpt>
<trkpt lat="44.7011490" lon="9.1663810">
<ele>1362.334106</ele>
<time>2011-08-30T08:04:56.004Z</time>
</trkpt>
<trkpt lat="44.7010800" lon="9.1664340">
<ele>1364.254272</ele>
<time>2011-08-30T08:05:07.002Z</time>
</trkpt>
<trkpt lat="44.7009900" lon="9.1664700">
<ele>1367.607056</ele>
<time>2011-08-30T08:05:18.001Z</time>
</trkpt>
<trkpt lat="44.7009050" lon="9.1665300">
<ele>1369.527466</ele>
<time>2011-08-30T08:05:30.002Z</time>
</trkpt>
<trkpt lat="44.7008100" lon="9.1666000">
<ele>1370.990356</ele>
<time>2011-08-30T08:05:42.003Z</time>
</trkpt>
<trkpt lat="44.7006990" lon="9.1667000">
<ele>1371.935303</ele>
<time>2011-08-30T08:05:58.004Z</time>
</trkpt>
<trkpt lat="44.7005850" lon="9.1667210">
<ele>1372.910522</ele>
<time>2011-08-30T08:06:08.001Z</time>
</trkpt>
<trkpt lat="44.7004850" lon="9.1666990">
<ele>1374.343140</ele>
<time>2011-08-30T08:06:16.001Z</time>
</trkpt>
<trkpt lat="44.7003640" lon="9.1666780">
<ele>1373.367798</ele>
<time>2011-08-30T08:06:36.996Z</time>
</trkpt>
<trkpt lat="44.7002490" lon="9.1666770">
<ele>1373.367798</ele>
<time>2011-08-30T08:06:44.997Z</time>
</trkpt>
<trkpt lat="44.7001650" lon="9.1667200">
<ele>1373.855469</ele>
<time>2011-08-30T08:06:55.002Z</time>
</trkpt>
<trkpt lat="44.7000740" lon="9.1668160">
<ele>1375.288086</ele>
<time>2011-08-30T08:07:06.001Z</time>
</trkpt>
<trkpt lat="44.7000280" lon="9.1669650">
<ele>1376.751099</ele>
<time>2011-08-30T08:07:15.997Z</time>
</trkpt>
<trkpt lat="44.6999440" lon="9.1670720">
<ele>1379.616211</ele>
<time>2011-08-30T08:07:26.996Z</time>
</trkpt>
<trkpt lat="44.6998290" lon="9.1671040">
<ele>1382.024170</ele>
<time>2011-08-30T08:07:39.999Z</time>
</trkpt>
<trkpt lat="44.6996770" lon="9.1671030">
<ele>1384.919800</ele>
<time>2011-08-30T08:07:56.001Z</time>
</trkpt>
<trkpt lat="44.6995020" lon="9.1670920">
<ele>1385.864624</ele>
<time>2011-08-30T08:08:11.000Z</time>
</trkpt>
<trkpt lat="44.6993950" lon="9.1671020">
<ele>1386.352295</ele>
<time>2011-08-30T08:08:24.003Z</time>
</trkpt>
<trkpt lat="44.6993190" lon="9.1670060">
<ele>1386.352295</ele>
<time>2011-08-30T08:08:46.000Z</time>
</trkpt>
<trkpt lat="44.6992810" lon="9.1668560">
<ele>1387.815430</ele>
<time>2011-08-30T08:09:13.000Z</time>
</trkpt>
<trkpt lat="44.6991400" lon="9.1668600">
<ele>1388.760132</ele>
<time>2011-08-30T08:09:25.001Z</time>
</trkpt>
<trkpt lat="44.6990700" lon="9.1667600">
<ele>1389.247925</ele>
<time>2011-08-30T08:09:34.004Z</time>
</trkpt>
<trkpt lat="44.6990130" lon="9.1667520">
<ele>1389.247925</ele>
<time>2011-08-30T08:09:44.001Z</time>
</trkpt>
<trkpt lat="44.6989450" lon="9.1666980">
<ele>1389.735596</ele>
<time>2011-08-30T08:09:54.999Z</time>
</trkpt>
<trkpt lat="44.6988990" lon="9.1666020">
<ele>1391.168213</ele>
<time>2011-08-30T08:10:27.002Z</time>
</trkpt>
<trkpt lat="44.6988300" lon="9.1665480">
<ele>1393.088379</ele>
<time>2011-08-30T08:10:43.003Z</time>
</trkpt>
<trkpt lat="44.6987470" lon="9.1664620">
<ele>1393.088379</ele>
<time>2011-08-30T08:10:58.996Z</time>
</trkpt>
<trkpt lat="44.6986170" lon="9.1663760">
<ele>1399.336792</ele>
<time>2011-08-30T08:12:00.996Z</time>
</trkpt>
<trkpt lat="44.6984800" lon="9.1663300">
<ele>1403.177368</ele>
<time>2011-08-30T08:12:20.998Z</time>
</trkpt>
<trkpt lat="44.6983800" lon="9.1663900">
<ele>1410.401001</ele>
<time>2011-08-30T08:13:03.999Z</time>
</trkpt>
<trkpt lat="44.6983000" lon="9.1664100">
<ele>1414.729248</ele>
<time>2011-08-30T08:13:32.002Z</time>
</trkpt>
<trkpt lat="44.6981800" lon="9.1662700">
<ele>1419.514648</ele>
<time>2011-08-30T08:14:10.000Z</time>
</trkpt>
<trkpt lat="44.6981200" lon="9.1661700">
<ele>1421.922485</ele>
<time>2011-08-30T08:14:30.002Z</time>
</trkpt>
<trkpt lat="44.6980500" lon="9.1660800">
<ele>1423.842651</ele>
<time>2011-08-30T08:14:46.997Z</time>
</trkpt>
<trkpt lat="44.6979400" lon="9.1659900">
<ele>1427.225952</ele>
<time>2011-08-30T08:15:02.998Z</time>
</trkpt>
<trkpt lat="44.6978630" lon="9.1658830">
<ele>1428.170898</ele>
<time>2011-08-30T08:15:13.997Z</time>
</trkpt>
<trkpt lat="44.6977950" lon="9.1657860">
<ele>1429.603394</ele>
<time>2011-08-30T08:15:28.002Z</time>
</trkpt>
<trkpt lat="44.6977500" lon="9.1657500">
<ele>1431.554199</ele>
<time>2011-08-30T08:15:44.004Z</time>
</trkpt>
<trkpt lat="44.6976800" lon="9.1656700">
<ele>1435.851807</ele>
<time>2011-08-30T08:16:07.997Z</time>
</trkpt>
<trkpt lat="44.6976300" lon="9.1655600">
<ele>1439.235107</ele>
<time>2011-08-30T08:16:29.001Z</time>
</trkpt>
<trkpt lat="44.6975800" lon="9.1654500">
<ele>1443.563354</ele>
<time>2011-08-30T08:16:46.998Z</time>
</trkpt>
<trkpt lat="44.6974800" lon="9.1653100">
<ele>1447.891357</ele>
<time>2011-08-30T08:17:16.002Z</time>
</trkpt>
<trkpt lat="44.6974320" lon="9.1652220">
<ele>1451.244141</ele>
<time>2011-08-30T08:17:32.004Z</time>
</trkpt>
<trkpt lat="44.6973630" lon="9.1651360">
<ele>1452.676758</ele>
<time>2011-08-30T08:17:50.001Z</time>
</trkpt>
<trkpt lat="44.6973250" lon="9.1650080">
<ele>1455.084717</ele>
<time>2011-08-30T08:18:10.002Z</time>
</trkpt>
<trkpt lat="44.6972900" lon="9.1648500">
<ele>1456.547852</ele>
<time>2011-08-30T08:18:23.999Z</time>
</trkpt>
<trkpt lat="44.6972000" lon="9.1647600">
<ele>1458.925171</ele>
<time>2011-08-30T08:18:37.002Z</time>
</trkpt>
<trkpt lat="44.6971360" lon="9.1645050">
<ele>1463.253418</ele>
<time>2011-08-30T08:19:12.003Z</time>
</trkpt>
<trkpt lat="44.6968460" lon="9.1643440">
<ele>1465.173584</ele>
<time>2011-08-30T08:19:32.998Z</time>
</trkpt>
<trkpt lat="44.6970450" lon="9.1641200">
<ele>1491.630127</ele>
<time>2011-08-30T08:23:27.004Z</time>
</trkpt>
<trkpt lat="44.6971520" lon="9.1639810">
<ele>1492.575073</ele>
<time>2011-08-30T08:23:42.003Z</time>
</trkpt>
<trkpt lat="44.6971980" lon="9.1636080">
<ele>1493.062744</ele>
<time>2011-08-30T08:23:51.999Z</time>
</trkpt>
<trkpt lat="44.6974190" lon="9.1634370">
<ele>1493.062744</ele>
<time>2011-08-30T08:24:05.003Z</time>
</trkpt>
<trkpt lat="44.6975870" lon="9.1631810">
<ele>1496.903320</ele>
<time>2011-08-30T08:24:27.000Z</time>
</trkpt>
<trkpt lat="44.6973590" lon="9.1627420">
<ele>1503.151733</ele>
<time>2011-08-30T08:25:11.004Z</time>
</trkpt>
<trkpt lat="44.6972800" lon="9.1626600">
<ele>1508.912354</ele>
<time>2011-08-30T08:26:11.000Z</time>
</trkpt>
<trkpt lat="44.6970090" lon="9.1626240">
<ele>1517.111450</ele>
<time>2011-08-30T08:27:15.998Z</time>
</trkpt>
<trkpt lat="44.6968560" lon="9.1626020">
<ele>1518.544067</ele>
<time>2011-08-30T08:27:37.996Z</time>
</trkpt>
<trkpt lat="44.6967420" lon="9.1626980">
<ele>1521.409180</ele>
<time>2011-08-30T08:28:09.998Z</time>
</trkpt>
<trkpt lat="44.6965660" lon="9.1627940">
<ele>1521.896851</ele>
<time>2011-08-30T08:28:36.998Z</time>
</trkpt>
<trkpt lat="44.6963910" lon="9.1628890">
<ele>1522.384644</ele>
<time>2011-08-30T08:28:47.004Z</time>
</trkpt>
<trkpt lat="44.6963400" lon="9.1629900">
<ele>1522.384644</ele>
<time>2011-08-30T08:28:57.000Z</time>
</trkpt>
<trkpt lat="44.6962500" lon="9.1630400">
<ele>1524.792480</ele>
<time>2011-08-30T08:29:07.999Z</time>
</trkpt>
<trkpt lat="44.6957400" lon="9.1633300">
<ele>1527.657593</ele>
<time>2011-08-30T08:30:27.003Z</time>
</trkpt>
<trkpt lat="44.6956900" lon="9.1633800">
<ele>1528.633057</ele>
<time>2011-08-30T08:30:41.000Z</time>
</trkpt>
<trkpt lat="44.6956100" lon="9.1634600">
<ele>1531.040894</ele>
<time>2011-08-30T08:30:54.003Z</time>
</trkpt>
<trkpt lat="44.6955200" lon="9.1635700">
<ele>1534.393677</ele>
<time>2011-08-30T08:31:12.000Z</time>
</trkpt>
<trkpt lat="44.6954680" lon="9.1637520">
<ele>1537.776978</ele>
<time>2011-08-30T08:31:28.001Z</time>
</trkpt>
<trkpt lat="44.6953760" lon="9.1640940">
<ele>1542.105103</ele>
<time>2011-08-30T08:32:11.996Z</time>
</trkpt>
<trkpt lat="44.6952300" lon="9.1643070">
<ele>1543.537720</ele>
<time>2011-08-30T08:32:24.999Z</time>
</trkpt>
<trkpt lat="44.6951390" lon="9.1643930">
<ele>1544.482666</ele>
<time>2011-08-30T08:32:35.998Z</time>
</trkpt>
<trkpt lat="44.6950200" lon="9.1644400">
<ele>1545.457886</ele>
<time>2011-08-30T08:33:27.000Z</time>
</trkpt>
<trkpt lat="44.6949300" lon="9.1645100">
<ele>1546.402832</ele>
<time>2011-08-30T08:33:37.999Z</time>
</trkpt>
<trkpt lat="44.6948500" lon="9.1645900">
<ele>1547.865723</ele>
<time>2011-08-30T08:33:47.002Z</time>
</trkpt>
<trkpt lat="44.6947800" lon="9.1646900">
<ele>1548.353516</ele>
<time>2011-08-30T08:34:17.000Z</time>
</trkpt>
<trkpt lat="44.6946900" lon="9.1647500">
<ele>1549.786133</ele>
<time>2011-08-30T08:34:26.996Z</time>
</trkpt>
<trkpt lat="44.6946100" lon="9.1648000">
<ele>1550.731079</ele>
<time>2011-08-30T08:34:35.999Z</time>
</trkpt>
<trkpt lat="44.6945300" lon="9.1648600">
<ele>1551.706299</ele>
<time>2011-08-30T08:34:45.002Z</time>
</trkpt>
<trkpt lat="44.6944600" lon="9.1649400">
<ele>1552.681763</ele>
<time>2011-08-30T08:34:53.996Z</time>
</trkpt>
<trkpt lat="44.6943900" lon="9.1650200">
<ele>1556.034546</ele>
<time>2011-08-30T08:35:02.999Z</time>
</trkpt>
<trkpt lat="44.6943300" lon="9.1651100">
<ele>1555.546753</ele>
<time>2011-08-30T08:35:11.000Z</time>
</trkpt>
<trkpt lat="44.6942700" lon="9.1652000">
<ele>1555.546753</ele>
<time>2011-08-30T08:35:19.000Z</time>
</trkpt>
<trkpt lat="44.6941800" lon="9.1652600">
<ele>1554.601929</ele>
<time>2011-08-30T08:35:28.003Z</time>
</trkpt>
<trkpt lat="44.6940900" lon="9.1653100">
<ele>1556.979370</ele>
<time>2011-08-30T08:35:38.000Z</time>
</trkpt>
<trkpt lat="44.6940000" lon="9.1654000">
<ele>1557.954712</ele>
<time>2011-08-30T08:36:13.000Z</time>
</trkpt>
<trkpt lat="44.6939100" lon="9.1654400">
<ele>1560.850342</ele>
<time>2011-08-30T08:36:25.001Z</time>
</trkpt>
<trkpt lat="44.6938300" lon="9.1654100">
<ele>1564.203125</ele>
<time>2011-08-30T08:36:42.998Z</time>
</trkpt>
<trkpt lat="44.6937300" lon="9.1654500">
<ele>1567.555908</ele>
<time>2011-08-30T08:37:05.998Z</time>
</trkpt>
<trkpt lat="44.6936400" lon="9.1654600">
<ele>1571.426880</ele>
<time>2011-08-30T08:37:23.002Z</time>
</trkpt>
<trkpt lat="44.6935500" lon="9.1655000">
<ele>1573.347046</ele>
<time>2011-08-30T08:37:35.996Z</time>
</trkpt>
<trkpt lat="44.6934600" lon="9.1655300">
<ele>1577.187622</ele>
<time>2011-08-30T08:37:50.002Z</time>
</trkpt>
<trkpt lat="44.6933700" lon="9.1655600">
<ele>1579.107788</ele>
<time>2011-08-30T08:38:03.998Z</time>
</trkpt>
<trkpt lat="44.6932900" lon="9.1656200">
<ele>1582.460571</ele>
<time>2011-08-30T08:38:21.002Z</time>
</trkpt>
<trkpt lat="44.6932100" lon="9.1657600">
<ele>1586.301147</ele>
<time>2011-08-30T08:38:45.997Z</time>
</trkpt>
<trkpt lat="44.6931500" lon="9.1658500">
<ele>1586.788818</ele>
<time>2011-08-30T08:38:56.996Z</time>
</trkpt>
<trkpt lat="44.6930500" lon="9.1658600">
<ele>1590.629272</ele>
<time>2011-08-30T08:39:12.997Z</time>
</trkpt>
<trkpt lat="44.6929600" lon="9.1658700">
<ele>1593.524902</ele>
<time>2011-08-30T08:39:31.003Z</time>
</trkpt>
<trkpt lat="44.6928900" lon="9.1659000">
<ele>1596.877686</ele>
<time>2011-08-30T08:39:53.001Z</time>
</trkpt>
<trkpt lat="44.6928700" lon="9.1657800">
<ele>1598.797852</ele>
<time>2011-08-30T08:40:13.996Z</time>
</trkpt>
<trkpt lat="44.6928300" lon="9.1656600">
<ele>1602.668945</ele>
<time>2011-08-30T08:40:32.002Z</time>
</trkpt>
<trkpt lat="44.6927600" lon="9.1655700">
<ele>1605.534058</ele>
<time>2011-08-30T08:40:44.003Z</time>
</trkpt>
<trkpt lat="44.6926700" lon="9.1655300">
<ele>1606.966675</ele>
<time>2011-08-30T08:40:59.002Z</time>
</trkpt>
<trkpt lat="44.6925900" lon="9.1655400">
<ele>1611.294678</ele>
<time>2011-08-30T08:41:16.999Z</time>
</trkpt>
<trkpt lat="44.6925000" lon="9.1655300">
<ele>1613.702637</ele>
<time>2011-08-30T08:41:50.004Z</time>
</trkpt>
<trkpt lat="44.6924100" lon="9.1655300">
<ele>1616.110596</ele>
<time>2011-08-30T08:42:05.996Z</time>
</trkpt>
<trkpt lat="44.6923400" lon="9.1654800">
<ele>1619.950928</ele>
<time>2011-08-30T08:42:20.002Z</time>
</trkpt>
<trkpt lat="44.6922600" lon="9.1654300">
<ele>1622.846558</ele>
<time>2011-08-30T08:42:39.001Z</time>
</trkpt>
<trkpt lat="44.6921800" lon="9.1654000">
<ele>1626.199341</ele>
<time>2011-08-30T08:42:58.000Z</time>
</trkpt>
<trkpt lat="44.6920900" lon="9.1653300">
<ele>1627.662476</ele>
<time>2011-08-30T08:43:11.997Z</time>
</trkpt>
<trkpt lat="44.6920200" lon="9.1652900">
<ele>1630.039917</ele>
<time>2011-08-30T08:43:30.003Z</time>
</trkpt>
<trkpt lat="44.6919400" lon="9.1652200">
<ele>1633.910889</ele>
<time>2011-08-30T08:43:44.000Z</time>
</trkpt>
<trkpt lat="44.6918500" lon="9.1651700">
<ele>1634.855835</ele>
<time>2011-08-30T08:44:01.003Z</time>
</trkpt>
<trkpt lat="44.6918000" lon="9.1652900">
<ele>1635.831055</ele>
<time>2011-08-30T08:44:20.003Z</time>
</trkpt>
<trkpt lat="44.6917500" lon="9.1654100">
<ele>1637.263672</ele>
<time>2011-08-30T08:44:31.001Z</time>
</trkpt>
<trkpt lat="44.6917000" lon="9.1655300">
<ele>1636.776001</ele>
<time>2011-08-30T08:44:40.998Z</time>
</trkpt>
<trkpt lat="44.6916500" lon="9.1656500">
<ele>1640.159302</ele>
<time>2011-08-30T08:44:51.996Z</time>
</trkpt>
<trkpt lat="44.6916290" lon="9.1657900">
<ele>1641.591797</ele>
<time>2011-08-30T08:45:03.997Z</time>
</trkpt>
<trkpt lat="44.6915900" lon="9.1659000">
<ele>1643.024414</ele>
<time>2011-08-30T08:45:38.998Z</time>
</trkpt>
<trkpt lat="44.6915600" lon="9.1660250">
<ele>1644.944580</ele>
<time>2011-08-30T08:45:48.001Z</time>
</trkpt>
<trkpt lat="44.6915220" lon="9.1661530">
<ele>1646.864868</ele>
<time>2011-08-30T08:45:59.000Z</time>
</trkpt>
<trkpt lat="44.6914990" lon="9.1662600">
<ele>1648.785034</ele>
<time>2011-08-30T08:46:09.998Z</time>
</trkpt>
<trkpt lat="44.6913800" lon="9.1663700">
<ele>1652.656128</ele>
<time>2011-08-30T08:46:20.004Z</time>
</trkpt>
<trkpt lat="44.6913100" lon="9.1664800">
<ele>1654.576294</ele>
<time>2011-08-30T08:46:32.998Z</time>
</trkpt>
<trkpt lat="44.6912500" lon="9.1665900">
<ele>1657.441406</ele>
<time>2011-08-30T08:46:47.004Z</time>
</trkpt>
<trkpt lat="44.6912000" lon="9.1667000">
<ele>1659.361694</ele>
<time>2011-08-30T08:47:02.003Z</time>
</trkpt>
<trkpt lat="44.6911550" lon="9.1668360">
<ele>1661.281860</ele>
<time>2011-08-30T08:47:14.004Z</time>
</trkpt>
<trkpt lat="44.6911240" lon="9.1669750">
<ele>1661.769653</ele>
<time>2011-08-30T08:47:33.996Z</time>
</trkpt>
<trkpt lat="44.6911090" lon="9.1671140">
<ele>1662.257324</ele>
<time>2011-08-30T08:47:44.002Z</time>
</trkpt>
<trkpt lat="44.6911090" lon="9.1672630">
<ele>1664.177490</ele>
<time>2011-08-30T08:48:00.996Z</time>
</trkpt>
<trkpt lat="44.6911010" lon="9.1674020">
<ele>1668.017944</ele>
<time>2011-08-30T08:48:12.004Z</time>
</trkpt>
<trkpt lat="44.6910930" lon="9.1675840">
<ele>1668.017944</ele>
<time>2011-08-30T08:48:22.000Z</time>
</trkpt>
<trkpt lat="44.6910930" lon="9.1677120">
<ele>1670.425903</ele>
<time>2011-08-30T08:48:34.001Z</time>
</trkpt>
<trkpt lat="44.6911000" lon="9.1678300">
<ele>1671.858521</ele>
<time>2011-08-30T08:48:43.004Z</time>
</trkpt>
<trkpt lat="44.6910800" lon="9.1679600">
<ele>1672.833740</ele>
<time>2011-08-30T08:48:50.996Z</time>
</trkpt>
<trkpt lat="44.6910600" lon="9.1681000">
<ele>1674.754150</ele>
<time>2011-08-30T08:49:05.002Z</time>
</trkpt>
<trkpt lat="44.6910300" lon="9.1682200">
<ele>1677.161987</ele>
<time>2011-08-30T08:49:17.003Z</time>
</trkpt>
<trkpt lat="44.6910100" lon="9.1683600">
<ele>1678.594604</ele>
<time>2011-08-30T08:49:28.001Z</time>
</trkpt>
<trkpt lat="44.6910000" lon="9.1684900">
<ele>1680.514771</ele>
<time>2011-08-30T08:49:39.000Z</time>
</trkpt>
<trkpt lat="44.6909800" lon="9.1686300">
<ele>1681.977783</ele>
<time>2011-08-30T08:49:52.003Z</time>
</trkpt>
<trkpt lat="44.6909900" lon="9.1687700">
<ele>1684.843018</ele>
<time>2011-08-30T08:50:02.000Z</time>
</trkpt>
<trkpt lat="44.6909700" lon="9.1689000">
<ele>1686.275513</ele>
<time>2011-08-30T08:50:11.996Z</time>
</trkpt>
<trkpt lat="44.6909400" lon="9.1690200">
<ele>1686.763184</ele>
<time>2011-08-30T08:50:23.997Z</time>
</trkpt>
<trkpt lat="44.6909500" lon="9.1690500">
<ele>1687.250854</ele>
<time>2011-08-30T08:51:44.997Z</time>
</trkpt>
<trkpt lat="44.6909500" lon="9.1690500">
<ele>1701.180176</ele>
<time>2011-08-31T10:54:32.999Z</time>
</trkpt>
</trkseg>
</trk>
</gpx>
