<?xml version="1.0" encoding="UTF-8" standalone="yes"?>
<gpx
 xmlns="http://www.topografix.com/GPX/1/1"
 creator="OziExplorer Version 3956f - http://www.oziexplorer.com"
 version="1.1"
 xmlns:xsi="http://www.w3.org/2001/XMLSchema-instance"
 xsi:schemaLocation="http://www.topografix.com/GPX/1/1 http://www.topografix.com/GPX/1/1/gpx.xsd">
<metadata>
<name>Traccia Sentiero</name>
 <time>2017-07-21T06:30:33Z</time>
 <bounds minlat="44.881196" minlon="8.967375" maxlat="44.891070" maxlon="8.980056"/>
</metadata>
<wpt lat="44.8876990" lon="8.9790800">
 <ele>170.000000</ele>
 <time>2017-07-20T09:09:12.666Z</time>
 <name>CENTRO SPORTIVO MONLEALE</name>
 <sym>Flag, Blue</sym>
</wpt>
<wpt lat="44.8876800" lon="8.9738000">
 <ele>246.000000</ele>
 <time>2017-07-20T09:09:12.692Z</time>
 <name>INIZIO ANELLO</name>
 <sym>Flag, Blue</sym>
</wpt>
<wpt lat="44.8843600" lon="8.9742250">
 <ele>295.000000</ele>
 <time>2017-07-20T09:09:12.692Z</time>
 <name>ORATORIO BEATA VERGINE</name>
 <sym>Flag, Blue</sym>
</wpt>
<wpt lat="44.8833160" lon="8.9740430">
 <ele>287.000000</ele>
 <time>2017-07-20T09:09:12.692Z</time>
 <name>MONLEALE ALTO - PIAZZA</name>
 <sym>Flag, Blue</sym>
</wpt>
<trk>
 <name>TRACCIA-SENTIERO</name>
 <desc>SENTIERO 101A</desc>
<trkseg>
<trkpt lat="44.8877140" lon="8.9790910">
<ele>171.267120</ele>
<time>2017-07-18T07:22:11.997Z</time>
</trkpt>
<trkpt lat="44.8878210" lon="8.9792730">
<ele>171.724335</ele>
<time>2017-07-18T07:22:21.000Z</time>
</trkpt>
<trkpt lat="44.8878740" lon="8.9794130">
<ele>172.212006</ele>
<time>2017-07-18T07:22:34.003Z</time>
</trkpt>
<trkpt lat="44.8878060" lon="8.9795740">
<ele>171.724335</ele>
<time>2017-07-18T07:22:44.000Z</time>
</trkpt>
<trkpt lat="44.8877290" lon="8.9797020">
<ele>173.187363</ele>
<time>2017-07-18T07:22:57.996Z</time>
</trkpt>
<trkpt lat="44.8876840" lon="8.9798200">
<ele>173.644562</ele>
<time>2017-07-18T07:23:05.997Z</time>
</trkpt>
<trkpt lat="44.8876150" lon="8.9799270">
<ele>173.644562</ele>
<time>2017-07-18T07:23:13.998Z</time>
</trkpt>
<trkpt lat="44.8875470" lon="8.9800560">
<ele>173.644562</ele>
<time>2017-07-18T07:23:21.998Z</time>
</trkpt>
<trkpt lat="44.8874700" lon="8.9800450">
<ele>173.187363</ele>
<time>2017-07-18T07:23:31.001Z</time>
</trkpt>
<trkpt lat="44.8873710" lon="8.9799380">
<ele>172.212006</ele>
<time>2017-07-18T07:23:51.996Z</time>
</trkpt>
<trkpt lat="44.8873100" lon="8.9798200">
<ele>171.724335</ele>
<time>2017-07-18T07:24:02.002Z</time>
</trkpt>
<trkpt lat="44.8872270" lon="8.9796810">
<ele>172.212006</ele>
<time>2017-07-18T07:24:13.000Z</time>
</trkpt>
<trkpt lat="44.8871580" lon="8.9796060">
<ele>171.724335</ele>
<time>2017-07-18T07:24:21.001Z</time>
</trkpt>
<trkpt lat="44.8871050" lon="8.9795310">
<ele>172.212006</ele>
<time>2017-07-18T07:24:27.999Z</time>
</trkpt>
<trkpt lat="44.8870510" lon="8.9793700">
<ele>171.724335</ele>
<time>2017-07-18T07:24:36.000Z</time>
</trkpt>
<trkpt lat="44.8869670" lon="8.9792630">
<ele>172.212006</ele>
<time>2017-07-18T07:24:44.001Z</time>
</trkpt>
<trkpt lat="44.8869140" lon="8.9791880">
<ele>172.212006</ele>
<time>2017-07-18T07:24:52.001Z</time>
</trkpt>
<trkpt lat="44.8868220" lon="8.9790380">
<ele>172.699677</ele>
<time>2017-07-18T07:25:00.002Z</time>
</trkpt>
<trkpt lat="44.8867460" lon="8.9789200">
<ele>171.724335</ele>
<time>2017-07-18T07:25:08.003Z</time>
</trkpt>
<trkpt lat="44.8867010" lon="8.9788340">
<ele>172.212006</ele>
<time>2017-07-18T07:25:16.003Z</time>
</trkpt>
<trkpt lat="44.8866700" lon="8.9787810">
<ele>172.212006</ele>
<time>2017-07-18T07:25:24.004Z</time>
</trkpt>
<trkpt lat="44.8866550" lon="8.9786840">
<ele>173.187363</ele>
<time>2017-07-18T07:25:32.998Z</time>
</trkpt>
<trkpt lat="44.8866320" lon="8.9785560">
<ele>174.619934</ele>
<time>2017-07-18T07:25:58.002Z</time>
</trkpt>
<trkpt lat="44.8866620" lon="8.9784480">
<ele>177.515533</ele>
<time>2017-07-18T07:26:11.999Z</time>
</trkpt>
<trkpt lat="44.8866780" lon="8.9783200">
<ele>181.813202</ele>
<time>2017-07-18T07:26:25.996Z</time>
</trkpt>
<trkpt lat="44.8867000" lon="8.9782020">
<ele>182.300873</ele>
<time>2017-07-18T07:26:37.997Z</time>
</trkpt>
<trkpt lat="44.8867380" lon="8.9781050">
<ele>185.684158</ele>
<time>2017-07-18T07:26:55.000Z</time>
</trkpt>
<trkpt lat="44.8867540" lon="8.9779870">
<ele>189.524643</ele>
<time>2017-07-18T07:27:16.004Z</time>
</trkpt>
<trkpt lat="44.8866170" lon="8.9780410">
<ele>189.036957</ele>
<time>2017-07-18T07:27:43.998Z</time>
</trkpt>
<trkpt lat="44.8865020" lon="8.9781370">
<ele>190.469528</ele>
<time>2017-07-18T07:27:54.003Z</time>
</trkpt>
<trkpt lat="44.8864030" lon="8.9782340">
<ele>191.932556</ele>
<time>2017-07-18T07:28:05.002Z</time>
</trkpt>
<trkpt lat="44.8863270" lon="8.9782770">
<ele>193.852798</ele>
<time>2017-07-18T07:28:14.998Z</time>
</trkpt>
<trkpt lat="44.8861900" lon="8.9782770">
<ele>195.285370</ele>
<time>2017-07-18T07:28:25.997Z</time>
</trkpt>
<trkpt lat="44.8861590" lon="8.9781380">
<ele>197.693268</ele>
<time>2017-07-18T07:28:37.998Z</time>
</trkpt>
<trkpt lat="44.8861820" lon="8.9780090">
<ele>200.101196</ele>
<time>2017-07-18T07:28:51.001Z</time>
</trkpt>
<trkpt lat="44.8861970" lon="8.9779120">
<ele>201.533768</ele>
<time>2017-07-18T07:29:04.998Z</time>
</trkpt>
<trkpt lat="44.8862430" lon="8.9777730">
<ele>203.941666</ele>
<time>2017-07-18T07:29:19.997Z</time>
</trkpt>
<trkpt lat="44.8863120" lon="8.9776340">
<ele>204.886566</ele>
<time>2017-07-18T07:29:31.004Z</time>
</trkpt>
<trkpt lat="44.8863880" lon="8.9775260">
<ele>206.349594</ele>
<time>2017-07-18T07:29:42.996Z</time>
</trkpt>
<trkpt lat="44.8864490" lon="8.9774410">
<ele>207.782166</ele>
<time>2017-07-18T07:29:54.997Z</time>
</trkpt>
<trkpt lat="44.8865170" lon="8.9773330">
<ele>211.622635</ele>
<time>2017-07-18T07:30:13.003Z</time>
</trkpt>
<trkpt lat="44.8866010" lon="8.9772480">
<ele>212.598007</ele>
<time>2017-07-18T07:30:25.998Z</time>
</trkpt>
<trkpt lat="44.8866240" lon="8.9771510">
<ele>212.598007</ele>
<time>2017-07-18T07:30:36.003Z</time>
</trkpt>
<trkpt lat="44.8866090" lon="8.9771300">
<ele>212.598007</ele>
<time>2017-07-18T07:30:48.997Z</time>
</trkpt>
<trkpt lat="44.8866240" lon="8.9770650">
<ele>213.542877</ele>
<time>2017-07-18T07:30:58.000Z</time>
</trkpt>
<trkpt lat="44.8866470" lon="8.9769370">
<ele>214.518234</ele>
<time>2017-07-18T07:31:07.003Z</time>
</trkpt>
<trkpt lat="44.8866930" lon="8.9768080">
<ele>216.926163</ele>
<time>2017-07-18T07:31:17.000Z</time>
</trkpt>
<trkpt lat="44.8867230" lon="8.9766470">
<ele>218.358734</ele>
<time>2017-07-18T07:31:27.998Z</time>
</trkpt>
<trkpt lat="44.8867310" lon="8.9764650">
<ele>219.791275</ele>
<time>2017-07-18T07:31:38.997Z</time>
</trkpt>
<trkpt lat="44.8867380" lon="8.9763580">
<ele>220.278961</ele>
<time>2017-07-18T07:31:49.002Z</time>
</trkpt>
<trkpt lat="44.8867690" lon="8.9762400">
<ele>218.358734</ele>
<time>2017-07-18T07:31:58.999Z</time>
</trkpt>
<trkpt lat="44.8868220" lon="8.9761540">
<ele>219.791275</ele>
<time>2017-07-18T07:32:11.000Z</time>
</trkpt>
<trkpt lat="44.8868450" lon="8.9760570">
<ele>220.278961</ele>
<time>2017-07-18T07:32:24.003Z</time>
</trkpt>
<trkpt lat="44.8869300" lon="8.9759500">
<ele>220.766632</ele>
<time>2017-07-18T07:32:47.996Z</time>
</trkpt>
<trkpt lat="44.8870050" lon="8.9758540">
<ele>219.791275</ele>
<time>2017-07-18T07:32:58.001Z</time>
</trkpt>
<trkpt lat="44.8870200" lon="8.9757790">
<ele>220.766632</ele>
<time>2017-07-18T07:33:10.996Z</time>
</trkpt>
<trkpt lat="44.8870120" lon="8.9756820">
<ele>223.174561</ele>
<time>2017-07-18T07:33:25.001Z</time>
</trkpt>
<trkpt lat="44.8870050" lon="8.9755960">
<ele>225.552002</ele>
<time>2017-07-18T07:33:38.998Z</time>
</trkpt>
<trkpt lat="44.8869300" lon="8.9755000">
<ele>228.447601</ele>
<time>2017-07-18T07:33:53.004Z</time>
</trkpt>
<trkpt lat="44.8869060" lon="8.9754680">
<ele>231.343201</ele>
<time>2017-07-18T07:34:08.003Z</time>
</trkpt>
<trkpt lat="44.8868370" lon="8.9752850">
<ele>232.288071</ele>
<time>2017-07-18T07:34:44.999Z</time>
</trkpt>
<trkpt lat="44.8868980" lon="8.9751680">
<ele>232.288071</ele>
<time>2017-07-18T07:34:55.004Z</time>
</trkpt>
<trkpt lat="44.8869280" lon="8.9750600">
<ele>233.263443</ele>
<time>2017-07-18T07:35:03.998Z</time>
</trkpt>
<trkpt lat="44.8869660" lon="8.9749640">
<ele>235.183670</ele>
<time>2017-07-18T07:35:14.004Z</time>
</trkpt>
<trkpt lat="44.8870430" lon="8.9748140">
<ele>236.616241</ele>
<time>2017-07-18T07:35:29.003Z</time>
</trkpt>
<trkpt lat="44.8870810" lon="8.9747060">
<ele>237.103928</ele>
<time>2017-07-18T07:35:37.997Z</time>
</trkpt>
<trkpt lat="44.8871260" lon="8.9746530">
<ele>238.536469</ele>
<time>2017-07-18T07:35:49.004Z</time>
</trkpt>
<trkpt lat="44.8871570" lon="8.9745780">
<ele>239.999527</ele>
<time>2017-07-18T07:35:59.001Z</time>
</trkpt>
<trkpt lat="44.8872200" lon="8.9744600">
<ele>241.432068</ele>
<time>2017-07-18T07:36:12.004Z</time>
</trkpt>
<trkpt lat="44.8873170" lon="8.9743850">
<ele>240.456726</ele>
<time>2017-07-18T07:36:22.000Z</time>
</trkpt>
<trkpt lat="44.8873780" lon="8.9742990">
<ele>240.944397</ele>
<time>2017-07-18T07:36:31.997Z</time>
</trkpt>
<trkpt lat="44.8874390" lon="8.9742020">
<ele>242.864639</ele>
<time>2017-07-18T07:36:42.002Z</time>
</trkpt>
<trkpt lat="44.8875150" lon="8.9740840">
<ele>242.864639</ele>
<time>2017-07-18T07:36:51.998Z</time>
</trkpt>
<trkpt lat="44.8875680" lon="8.9740410">
<ele>243.839996</ele>
<time>2017-07-18T07:37:02.004Z</time>
</trkpt>
<trkpt lat="44.8876060" lon="8.9739340">
<ele>245.272568</ele>
<time>2017-07-18T07:37:13.002Z</time>
</trkpt>
<trkpt lat="44.8876370" lon="8.9738480">
<ele>246.705124</ele>
<time>2017-07-18T07:38:31.998Z</time>
</trkpt>
<trkpt lat="44.8876300" lon="8.9737700">
<ele>248.168167</ele>
<time>2017-07-18T07:39:01.002Z</time>
</trkpt>
<trkpt lat="44.8875230" lon="8.9737840">
<ele>252.496323</ele>
<time>2017-07-18T07:39:21.997Z</time>
</trkpt>
<trkpt lat="44.8874200" lon="8.9737900">
<ele>254.873764</ele>
<time>2017-07-18T07:39:36.996Z</time>
</trkpt>
<trkpt lat="44.8873240" lon="8.9738160">
<ele>257.281677</ele>
<time>2017-07-18T07:39:50.000Z</time>
</trkpt>
<trkpt lat="44.8872330" lon="8.9738160">
<ele>259.201935</ele>
<time>2017-07-18T07:40:03.996Z</time>
</trkpt>
<trkpt lat="44.8871110" lon="8.9737950">
<ele>261.609833</ele>
<time>2017-07-18T07:40:18.002Z</time>
</trkpt>
<trkpt lat="44.8870120" lon="8.9738060">
<ele>262.585205</ele>
<time>2017-07-18T07:40:29.001Z</time>
</trkpt>
<trkpt lat="44.8869130" lon="8.9737840">
<ele>264.993134</ele>
<time>2017-07-18T07:40:39.999Z</time>
</trkpt>
<trkpt lat="44.8868140" lon="8.9737950">
<ele>267.370575</ele>
<time>2017-07-18T07:40:53.003Z</time>
</trkpt>
<trkpt lat="44.8867200" lon="8.9737900">
<ele>269.321259</ele>
<time>2017-07-18T07:41:09.997Z</time>
</trkpt>
<trkpt lat="44.8866200" lon="8.9738000">
<ele>272.186401</ele>
<time>2017-07-18T07:41:24.003Z</time>
</trkpt>
<trkpt lat="44.8865400" lon="8.9738000">
<ele>275.569672</ele>
<time>2017-07-18T07:41:55.997Z</time>
</trkpt>
<trkpt lat="44.8864500" lon="8.9738000">
<ele>278.434814</ele>
<time>2017-07-18T07:42:14.996Z</time>
</trkpt>
<trkpt lat="44.8863500" lon="8.9738300">
<ele>282.762970</ele>
<time>2017-07-18T07:42:36.000Z</time>
</trkpt>
<trkpt lat="44.8862600" lon="8.9738500">
<ele>286.115753</ele>
<time>2017-07-18T07:43:12.996Z</time>
</trkpt>
<trkpt lat="44.8861800" lon="8.9739300">
<ele>286.603424</ele>
<time>2017-07-18T07:43:24.004Z</time>
</trkpt>
<trkpt lat="44.8860800" lon="8.9739700">
<ele>287.578796</ele>
<time>2017-07-18T07:43:34.000Z</time>
</trkpt>
<trkpt lat="44.8859900" lon="8.9740100">
<ele>289.986725</ele>
<time>2017-07-18T07:43:43.997Z</time>
</trkpt>
<trkpt lat="44.8859070" lon="8.9740850">
<ele>292.851837</ele>
<time>2017-07-18T07:43:54.002Z</time>
</trkpt>
<trkpt lat="44.8858300" lon="8.9741700">
<ele>293.339539</ele>
<time>2017-07-18T07:44:03.998Z</time>
</trkpt>
<trkpt lat="44.8857500" lon="8.9742400">
<ele>293.827209</ele>
<time>2017-07-18T07:44:14.004Z</time>
</trkpt>
<trkpt lat="44.8856800" lon="8.9743200">
<ele>295.747437</ele>
<time>2017-07-18T07:44:25.996Z</time>
</trkpt>
<trkpt lat="44.8855900" lon="8.9744000">
<ele>298.155365</ele>
<time>2017-07-18T07:44:37.997Z</time>
</trkpt>
<trkpt lat="44.8855500" lon="8.9743000">
<ele>299.100250</ele>
<time>2017-07-18T07:44:49.998Z</time>
</trkpt>
<trkpt lat="44.8855000" lon="8.9742800">
<ele>299.587921</ele>
<time>2017-07-18T07:45:23.996Z</time>
</trkpt>
<trkpt lat="44.8854000" lon="8.9742600">
<ele>301.020477</ele>
<time>2017-07-18T07:45:35.004Z</time>
</trkpt>
<trkpt lat="44.8853100" lon="8.9742500">
<ele>301.508179</ele>
<time>2017-07-18T07:45:43.998Z</time>
</trkpt>
<trkpt lat="44.8852200" lon="8.9742400">
<ele>302.483521</ele>
<time>2017-07-18T07:45:53.001Z</time>
</trkpt>
<trkpt lat="44.8851300" lon="8.9742200">
<ele>303.428406</ele>
<time>2017-07-18T07:46:02.004Z</time>
</trkpt>
<trkpt lat="44.8850380" lon="8.9742460">
<ele>304.860962</ele>
<time>2017-07-18T07:46:13.002Z</time>
</trkpt>
<trkpt lat="44.8849390" lon="8.9742460">
<ele>304.403778</ele>
<time>2017-07-18T07:46:33.004Z</time>
</trkpt>
<trkpt lat="44.8848600" lon="8.9743100">
<ele>304.403778</ele>
<time>2017-07-18T07:46:41.998Z</time>
</trkpt>
<trkpt lat="44.8847700" lon="8.9743900">
<ele>303.916077</ele>
<time>2017-07-18T07:46:51.001Z</time>
</trkpt>
<trkpt lat="44.8847110" lon="8.9743860">
<ele>303.916077</ele>
<time>2017-07-18T07:47:00.004Z</time>
</trkpt>
<trkpt lat="44.8846270" lon="8.9743220">
<ele>302.483521</ele>
<time>2017-07-18T07:47:08.998Z</time>
</trkpt>
<trkpt lat="44.8845430" lon="8.9742470">
<ele>301.020477</ele>
<time>2017-07-18T07:47:24.999Z</time>
</trkpt>
<trkpt lat="44.8844600" lon="8.9741600">
<ele>299.587921</ele>
<time>2017-07-18T07:47:34.996Z</time>
</trkpt>
<trkpt lat="44.8843900" lon="8.9741100">
<ele>298.155365</ele>
<time>2017-07-18T07:47:50.004Z</time>
</trkpt>
<trkpt lat="44.8843290" lon="8.9740540">
<ele>297.667664</ele>
<time>2017-07-18T07:48:17.004Z</time>
</trkpt>
<trkpt lat="44.8842300" lon="8.9739700">
<ele>295.747437</ele>
<time>2017-07-18T07:48:25.998Z</time>
</trkpt>
<trkpt lat="44.8842000" lon="8.9739500">
<ele>295.259766</ele>
<time>2017-07-18T07:51:37.002Z</time>
</trkpt>
<trkpt lat="44.8841400" lon="8.9738700">
<ele>293.827209</ele>
<time>2017-07-18T07:51:49.997Z</time>
</trkpt>
<trkpt lat="44.8841100" lon="8.9738200">
<ele>292.364166</ele>
<time>2017-07-18T07:52:19.001Z</time>
</trkpt>
<trkpt lat="44.8840200" lon="8.9737700">
<ele>290.931610</ele>
<time>2017-07-18T07:52:27.002Z</time>
</trkpt>
<trkpt lat="44.8839300" lon="8.9737400">
<ele>289.011353</ele>
<time>2017-07-18T07:52:36.998Z</time>
</trkpt>
<trkpt lat="44.8838700" lon="8.9738600">
<ele>288.066467</ele>
<time>2017-07-18T07:52:47.997Z</time>
</trkpt>
<trkpt lat="44.8837900" lon="8.9739100">
<ele>287.578796</ele>
<time>2017-07-18T07:52:57.000Z</time>
</trkpt>
<trkpt lat="44.8837350" lon="8.9739790">
<ele>287.091125</ele>
<time>2017-07-18T07:53:06.996Z</time>
</trkpt>
<trkpt lat="44.8836660" lon="8.9739680">
<ele>288.066467</ele>
<time>2017-07-18T07:54:08.997Z</time>
</trkpt>
<trkpt lat="44.8836300" lon="8.9740100">
<ele>288.066467</ele>
<time>2017-07-18T07:54:45.000Z</time>
</trkpt>
<trkpt lat="44.8835100" lon="8.9740300">
<ele>287.578796</ele>
<time>2017-07-18T07:54:58.003Z</time>
</trkpt>
<trkpt lat="44.8834600" lon="8.9740500">
<ele>291.906952</ele>
<time>2017-07-18T08:09:27.999Z</time>
</trkpt>
<trkpt lat="44.8833900" lon="8.9740900">
<ele>291.419281</ele>
<time>2017-07-18T08:10:55.004Z</time>
</trkpt>
<trkpt lat="44.8832900" lon="8.9740600">
<ele>291.906952</ele>
<time>2017-07-18T08:11:11.999Z</time>
</trkpt>
<trkpt lat="44.8832100" lon="8.9740500">
<ele>291.906952</ele>
<time>2017-07-18T08:11:20.000Z</time>
</trkpt>
<trkpt lat="44.8831200" lon="8.9740200">
<ele>292.364166</ele>
<time>2017-07-18T08:11:29.003Z</time>
</trkpt>
<trkpt lat="44.8830640" lon="8.9740220">
<ele>291.906952</ele>
<time>2017-07-18T08:11:51.000Z</time>
</trkpt>
<trkpt lat="44.8830000" lon="8.9740000">
<ele>291.906952</ele>
<time>2017-07-18T08:12:00.996Z</time>
</trkpt>
<trkpt lat="44.8829100" lon="8.9740000">
<ele>291.419281</ele>
<time>2017-07-18T08:12:08.997Z</time>
</trkpt>
<trkpt lat="44.8828210" lon="8.9740110">
<ele>292.364166</ele>
<time>2017-07-18T08:12:16.998Z</time>
</trkpt>
<trkpt lat="44.8827500" lon="8.9740000">
<ele>292.851837</ele>
<time>2017-07-18T08:12:45.000Z</time>
</trkpt>
<trkpt lat="44.8826600" lon="8.9739900">
<ele>292.364166</ele>
<time>2017-07-18T08:12:53.001Z</time>
</trkpt>
<trkpt lat="44.8825840" lon="8.9739900">
<ele>292.364166</ele>
<time>2017-07-18T08:13:01.001Z</time>
</trkpt>
<trkpt lat="44.8824850" lon="8.9739370">
<ele>293.339539</ele>
<time>2017-07-18T08:13:17.003Z</time>
</trkpt>
<trkpt lat="44.8823710" lon="8.9738830">
<ele>292.851837</ele>
<time>2017-07-18T08:13:25.997Z</time>
</trkpt>
<trkpt lat="44.8823020" lon="8.9738400">
<ele>293.827209</ele>
<time>2017-07-18T08:13:35.000Z</time>
</trkpt>
<trkpt lat="44.8822110" lon="8.9737760">
<ele>294.314880</ele>
<time>2017-07-18T08:13:44.003Z</time>
</trkpt>
<trkpt lat="44.8821420" lon="8.9737220">
<ele>295.259766</ele>
<time>2017-07-18T08:13:52.997Z</time>
</trkpt>
<trkpt lat="44.8820960" lon="8.9736260">
<ele>295.259766</ele>
<time>2017-07-18T08:14:06.000Z</time>
</trkpt>
<trkpt lat="44.8820510" lon="8.9735720">
<ele>294.772064</ele>
<time>2017-07-18T08:14:49.001Z</time>
</trkpt>
<trkpt lat="44.8820130" lon="8.9734650">
<ele>295.259766</ele>
<time>2017-07-18T08:15:51.002Z</time>
</trkpt>
<trkpt lat="44.8819740" lon="8.9733360">
<ele>294.772064</ele>
<time>2017-07-18T08:16:19.998Z</time>
</trkpt>
<trkpt lat="44.8819360" lon="8.9732080">
<ele>295.259766</ele>
<time>2017-07-18T08:16:46.004Z</time>
</trkpt>
<trkpt lat="44.8818910" lon="8.9730680">
<ele>295.747437</ele>
<time>2017-07-18T08:16:53.003Z</time>
</trkpt>
<trkpt lat="44.8818520" lon="8.9729180">
<ele>295.747437</ele>
<time>2017-07-18T08:17:00.001Z</time>
</trkpt>
<trkpt lat="44.8818220" lon="8.9727900">
<ele>295.747437</ele>
<time>2017-07-18T08:17:06.999Z</time>
</trkpt>
<trkpt lat="44.8817910" lon="8.9726290">
<ele>295.747437</ele>
<time>2017-07-18T08:17:13.998Z</time>
</trkpt>
<trkpt lat="44.8817760" lon="8.9725000">
<ele>295.259766</ele>
<time>2017-07-18T08:17:20.003Z</time>
</trkpt>
<trkpt lat="44.8817380" lon="8.9723610">
<ele>296.235138</ele>
<time>2017-07-18T08:17:27.001Z</time>
</trkpt>
<trkpt lat="44.8817150" lon="8.9722220">
<ele>296.692322</ele>
<time>2017-07-18T08:17:33.999Z</time>
</trkpt>
<trkpt lat="44.8816770" lon="8.9720930">
<ele>296.692322</ele>
<time>2017-07-18T08:17:40.998Z</time>
</trkpt>
<trkpt lat="44.8816690" lon="8.9719750">
<ele>297.179993</ele>
<time>2017-07-18T08:18:10.996Z</time>
</trkpt>
<trkpt lat="44.8816460" lon="8.9718250">
<ele>296.692322</ele>
<time>2017-07-18T08:18:22.997Z</time>
</trkpt>
<trkpt lat="44.8816080" lon="8.9717180">
<ele>298.155365</ele>
<time>2017-07-18T08:18:54.999Z</time>
</trkpt>
<trkpt lat="44.8815780" lon="8.9715680">
<ele>298.155365</ele>
<time>2017-07-18T08:19:01.998Z</time>
</trkpt>
<trkpt lat="44.8815320" lon="8.9714610">
<ele>299.100250</ele>
<time>2017-07-18T08:19:08.996Z</time>
</trkpt>
<trkpt lat="44.8815010" lon="8.9713210">
<ele>299.100250</ele>
<time>2017-07-18T08:19:16.997Z</time>
</trkpt>
<trkpt lat="44.8814560" lon="8.9712140">
<ele>299.587921</ele>
<time>2017-07-18T08:19:24.004Z</time>
</trkpt>
<trkpt lat="44.8814180" lon="8.9710960">
<ele>300.563263</ele>
<time>2017-07-18T08:19:32.998Z</time>
</trkpt>
<trkpt lat="44.8813790" lon="8.9709890">
<ele>300.075592</ele>
<time>2017-07-18T08:19:40.999Z</time>
</trkpt>
<trkpt lat="44.8813490" lon="8.9708500">
<ele>301.020477</ele>
<time>2017-07-18T08:19:50.002Z</time>
</trkpt>
<trkpt lat="44.8813110" lon="8.9707420">
<ele>300.563263</ele>
<time>2017-07-18T08:19:58.002Z</time>
</trkpt>
<trkpt lat="44.8812880" lon="8.9706140">
<ele>301.020477</ele>
<time>2017-07-18T08:20:06.996Z</time>
</trkpt>
<trkpt lat="44.8812500" lon="8.9705070">
<ele>300.563263</ele>
<time>2017-07-18T08:20:15.999Z</time>
</trkpt>
<trkpt lat="44.8812040" lon="8.9703670">
<ele>300.563263</ele>
<time>2017-07-18T08:20:25.002Z</time>
</trkpt>
<trkpt lat="44.8811960" lon="8.9702170">
<ele>298.612549</ele>
<time>2017-07-18T08:20:33.996Z</time>
</trkpt>
<trkpt lat="44.8812190" lon="8.9700890">
<ele>299.100250</ele>
<time>2017-07-18T08:20:42.999Z</time>
</trkpt>
<trkpt lat="44.8812500" lon="8.9699490">
<ele>299.100250</ele>
<time>2017-07-18T08:20:52.002Z</time>
</trkpt>
<trkpt lat="44.8812880" lon="8.9697990">
<ele>298.612549</ele>
<time>2017-07-18T08:21:00.003Z</time>
</trkpt>
<trkpt lat="44.8813330" lon="8.9696810">
<ele>298.155365</ele>
<time>2017-07-18T08:21:08.004Z</time>
</trkpt>
<trkpt lat="44.8814170" lon="8.9695850">
<ele>297.179993</ele>
<time>2017-07-18T08:21:16.004Z</time>
</trkpt>
<trkpt lat="44.8814860" lon="8.9694990">
<ele>297.667664</ele>
<time>2017-07-18T08:21:23.996Z</time>
</trkpt>
<trkpt lat="44.8815700" lon="8.9694240">
<ele>297.179993</ele>
<time>2017-07-18T08:21:31.997Z</time>
</trkpt>
<trkpt lat="44.8816380" lon="8.9693380">
<ele>296.692322</ele>
<time>2017-07-18T08:21:41.000Z</time>
</trkpt>
<trkpt lat="44.8817100" lon="8.9692600">
<ele>296.692322</ele>
<time>2017-07-18T08:21:50.003Z</time>
</trkpt>
<trkpt lat="44.8817600" lon="8.9691660">
<ele>295.747437</ele>
<time>2017-07-18T08:23:02.000Z</time>
</trkpt>
<trkpt lat="44.8818130" lon="8.9691020">
<ele>295.747437</ele>
<time>2017-07-18T08:23:19.997Z</time>
</trkpt>
<trkpt lat="44.8818820" lon="8.9690160">
<ele>295.747437</ele>
<time>2017-07-18T08:23:27.997Z</time>
</trkpt>
<trkpt lat="44.8819430" lon="8.9689090">
<ele>295.747437</ele>
<time>2017-07-18T08:23:35.998Z</time>
</trkpt>
<trkpt lat="44.8820040" lon="8.9688120">
<ele>295.747437</ele>
<time>2017-07-18T08:23:45.001Z</time>
</trkpt>
<trkpt lat="44.8820420" lon="8.9687050">
<ele>295.747437</ele>
<time>2017-07-18T08:23:54.004Z</time>
</trkpt>
<trkpt lat="44.8820880" lon="8.9686300">
<ele>296.235138</ele>
<time>2017-07-18T08:24:01.996Z</time>
</trkpt>
<trkpt lat="44.8821260" lon="8.9685230">
<ele>295.747437</ele>
<time>2017-07-18T08:24:10.999Z</time>
</trkpt>
<trkpt lat="44.8821900" lon="8.9684000">
<ele>295.259766</ele>
<time>2017-07-18T08:24:18.999Z</time>
</trkpt>
<trkpt lat="44.8822400" lon="8.9682900">
<ele>295.259766</ele>
<time>2017-07-18T08:24:27.000Z</time>
</trkpt>
<trkpt lat="44.8822860" lon="8.9681910">
<ele>294.772064</ele>
<time>2017-07-18T08:24:36.003Z</time>
</trkpt>
<trkpt lat="44.8823390" lon="8.9680940">
<ele>294.314880</ele>
<time>2017-07-18T08:24:44.004Z</time>
</trkpt>
<trkpt lat="44.8824150" lon="8.9679870">
<ele>293.827209</ele>
<time>2017-07-18T08:24:52.004Z</time>
</trkpt>
<trkpt lat="44.8825220" lon="8.9679120">
<ele>293.339539</ele>
<time>2017-07-18T08:24:59.996Z</time>
</trkpt>
<trkpt lat="44.8825980" lon="8.9678370">
<ele>293.827209</ele>
<time>2017-07-18T08:25:07.997Z</time>
</trkpt>
<trkpt lat="44.8826890" lon="8.9677830">
<ele>293.827209</ele>
<time>2017-07-18T08:25:15.997Z</time>
</trkpt>
<trkpt lat="44.8827810" lon="8.9677190">
<ele>293.339539</ele>
<time>2017-07-18T08:25:23.998Z</time>
</trkpt>
<trkpt lat="44.8828720" lon="8.9676540">
<ele>293.827209</ele>
<time>2017-07-18T08:25:33.001Z</time>
</trkpt>
<trkpt lat="44.8829560" lon="8.9676110">
<ele>293.827209</ele>
<time>2017-07-18T08:25:41.002Z</time>
</trkpt>
<trkpt lat="44.8830400" lon="8.9675470">
<ele>294.314880</ele>
<time>2017-07-18T08:25:49.996Z</time>
</trkpt>
<trkpt lat="44.8831240" lon="8.9674930">
<ele>293.827209</ele>
<time>2017-07-18T08:26:00.001Z</time>
</trkpt>
<trkpt lat="44.8831920" lon="8.9674610">
<ele>293.827209</ele>
<time>2017-07-18T08:26:16.002Z</time>
</trkpt>
<trkpt lat="44.8832910" lon="8.9673970">
<ele>293.339539</ele>
<time>2017-07-18T08:26:24.003Z</time>
</trkpt>
<trkpt lat="44.8833830" lon="8.9673750">
<ele>294.314880</ele>
<time>2017-07-18T08:26:32.004Z</time>
</trkpt>
<trkpt lat="44.8835050" lon="8.9673860">
<ele>295.259766</ele>
<time>2017-07-18T08:26:40.004Z</time>
</trkpt>
<trkpt lat="44.8835600" lon="8.9674200">
<ele>295.747437</ele>
<time>2017-07-18T08:26:47.996Z</time>
</trkpt>
<trkpt lat="44.8836420" lon="8.9674610">
<ele>295.747437</ele>
<time>2017-07-18T08:26:55.997Z</time>
</trkpt>
<trkpt lat="44.8837300" lon="8.9675200">
<ele>295.747437</ele>
<time>2017-07-18T08:27:03.997Z</time>
</trkpt>
<trkpt lat="44.8838000" lon="8.9675900">
<ele>295.747437</ele>
<time>2017-07-18T08:27:11.998Z</time>
</trkpt>
<trkpt lat="44.8838600" lon="8.9676800">
<ele>296.235138</ele>
<time>2017-07-18T08:27:22.003Z</time>
</trkpt>
<trkpt lat="44.8839400" lon="8.9677400">
<ele>296.692322</ele>
<time>2017-07-18T08:27:38.998Z</time>
</trkpt>
<trkpt lat="44.8840310" lon="8.9678250">
<ele>297.667664</ele>
<time>2017-07-18T08:27:48.001Z</time>
</trkpt>
<trkpt lat="44.8840900" lon="8.9678900">
<ele>296.235138</ele>
<time>2017-07-18T08:27:59.000Z</time>
</trkpt>
<trkpt lat="44.8841900" lon="8.9679300">
<ele>295.747437</ele>
<time>2017-07-18T08:28:07.000Z</time>
</trkpt>
<trkpt lat="44.8842900" lon="8.9679320">
<ele>294.314880</ele>
<time>2017-07-18T08:28:16.997Z</time>
</trkpt>
<trkpt lat="44.8843890" lon="8.9679430">
<ele>293.827209</ele>
<time>2017-07-18T08:28:24.997Z</time>
</trkpt>
<trkpt lat="44.8844880" lon="8.9679530">
<ele>293.339539</ele>
<time>2017-07-18T08:28:32.998Z</time>
</trkpt>
<trkpt lat="44.8845950" lon="8.9679320">
<ele>292.851837</ele>
<time>2017-07-18T08:28:40.999Z</time>
</trkpt>
<trkpt lat="44.8846940" lon="8.9679530">
<ele>291.906952</ele>
<time>2017-07-18T08:28:48.999Z</time>
</trkpt>
<trkpt lat="44.8847700" lon="8.9679500">
<ele>290.931610</ele>
<time>2017-07-18T08:28:57.000Z</time>
</trkpt>
<trkpt lat="44.8848840" lon="8.9679640">
<ele>290.443939</ele>
<time>2017-07-18T08:29:05.001Z</time>
</trkpt>
<trkpt lat="44.8849910" lon="8.9679530">
<ele>289.499023</ele>
<time>2017-07-18T08:29:13.001Z</time>
</trkpt>
<trkpt lat="44.8850900" lon="8.9679530">
<ele>289.011353</ele>
<time>2017-07-18T08:29:22.004Z</time>
</trkpt>
<trkpt lat="44.8851600" lon="8.9679800">
<ele>288.066467</ele>
<time>2017-07-18T08:29:30.998Z</time>
</trkpt>
<trkpt lat="44.8853300" lon="8.9680000">
<ele>286.603424</ele>
<time>2017-07-18T08:29:52.996Z</time>
</trkpt>
<trkpt lat="44.8854100" lon="8.9680300">
<ele>285.658569</ele>
<time>2017-07-18T08:30:04.997Z</time>
</trkpt>
<trkpt lat="44.8854800" lon="8.9680700">
<ele>284.195526</ele>
<time>2017-07-18T08:32:04.998Z</time>
</trkpt>
<trkpt lat="44.8855700" lon="8.9681100">
<ele>284.195526</ele>
<time>2017-07-18T08:32:29.000Z</time>
</trkpt>
<trkpt lat="44.8856600" lon="8.9681400">
<ele>283.250641</ele>
<time>2017-07-18T08:32:38.003Z</time>
</trkpt>
<trkpt lat="44.8857500" lon="8.9681700">
<ele>283.738342</ele>
<time>2017-07-18T08:32:45.001Z</time>
</trkpt>
<trkpt lat="44.8858400" lon="8.9682100">
<ele>283.250641</ele>
<time>2017-07-18T08:32:51.999Z</time>
</trkpt>
<trkpt lat="44.8859300" lon="8.9682400">
<ele>282.762970</ele>
<time>2017-07-18T08:33:00.000Z</time>
</trkpt>
<trkpt lat="44.8860100" lon="8.9683000">
<ele>282.762970</ele>
<time>2017-07-18T08:33:08.001Z</time>
</trkpt>
<trkpt lat="44.8860900" lon="8.9683500">
<ele>281.330414</ele>
<time>2017-07-18T08:33:17.004Z</time>
</trkpt>
<trkpt lat="44.8861800" lon="8.9683700">
<ele>281.330414</ele>
<time>2017-07-18T08:33:44.997Z</time>
</trkpt>
<trkpt lat="44.8862700" lon="8.9684000">
<ele>280.842712</ele>
<time>2017-07-18T08:33:52.998Z</time>
</trkpt>
<trkpt lat="44.8863600" lon="8.9684300">
<ele>279.867371</ele>
<time>2017-07-18T08:34:02.001Z</time>
</trkpt>
<trkpt lat="44.8865500" lon="8.9684100">
<ele>278.922485</ele>
<time>2017-07-18T08:34:19.004Z</time>
</trkpt>
<trkpt lat="44.8866400" lon="8.9683900">
<ele>278.922485</ele>
<time>2017-07-18T08:34:26.996Z</time>
</trkpt>
<trkpt lat="44.8867300" lon="8.9683700">
<ele>277.947113</ele>
<time>2017-07-18T08:34:34.997Z</time>
</trkpt>
<trkpt lat="44.8868510" lon="8.9683600">
<ele>277.002228</ele>
<time>2017-07-18T08:34:42.997Z</time>
</trkpt>
<trkpt lat="44.8869420" lon="8.9683490">
<ele>277.002228</ele>
<time>2017-07-18T08:34:50.998Z</time>
</trkpt>
<trkpt lat="44.8870260" lon="8.9683700">
<ele>275.082001</ele>
<time>2017-07-18T08:35:00.001Z</time>
</trkpt>
<trkpt lat="44.8871170" lon="8.9683700">
<ele>275.569672</ele>
<time>2017-07-18T08:35:09.004Z</time>
</trkpt>
<trkpt lat="44.8872160" lon="8.9683700">
<ele>275.082001</ele>
<time>2017-07-18T08:35:16.996Z</time>
</trkpt>
<trkpt lat="44.8873080" lon="8.9683810">
<ele>274.594330</ele>
<time>2017-07-18T08:35:24.996Z</time>
</trkpt>
<trkpt lat="44.8873840" lon="8.9683810">
<ele>274.594330</ele>
<time>2017-07-18T08:35:33.999Z</time>
</trkpt>
<trkpt lat="44.8874910" lon="8.9684020">
<ele>273.618958</ele>
<time>2017-07-18T08:35:42.000Z</time>
</trkpt>
<trkpt lat="44.8875800" lon="8.9683800">
<ele>273.618958</ele>
<time>2017-07-18T08:35:50.001Z</time>
</trkpt>
<trkpt lat="44.8876700" lon="8.9684100">
<ele>273.618958</ele>
<time>2017-07-18T08:35:58.001Z</time>
</trkpt>
<trkpt lat="44.8877700" lon="8.9684400">
<ele>273.161774</ele>
<time>2017-07-18T08:36:06.002Z</time>
</trkpt>
<trkpt lat="44.8878600" lon="8.9684800">
<ele>272.674072</ele>
<time>2017-07-18T08:36:14.003Z</time>
</trkpt>
<trkpt lat="44.8879500" lon="8.9685300">
<ele>272.186401</ele>
<time>2017-07-18T08:36:22.003Z</time>
</trkpt>
<trkpt lat="44.8880300" lon="8.9685900">
<ele>271.698730</ele>
<time>2017-07-18T08:36:30.004Z</time>
</trkpt>
<trkpt lat="44.8880620" lon="8.9686270">
<ele>271.241516</ele>
<time>2017-07-18T08:36:41.003Z</time>
</trkpt>
<trkpt lat="44.8881310" lon="8.9686590">
<ele>271.698730</ele>
<time>2017-07-18T08:37:11.001Z</time>
</trkpt>
<trkpt lat="44.8882200" lon="8.9686600">
<ele>269.321259</ele>
<time>2017-07-18T08:39:16.004Z</time>
</trkpt>
<trkpt lat="44.8883100" lon="8.9686000">
<ele>268.345917</ele>
<time>2017-07-18T08:39:27.003Z</time>
</trkpt>
<trkpt lat="44.8884000" lon="8.9685500">
<ele>266.425659</ele>
<time>2017-07-18T08:39:39.004Z</time>
</trkpt>
<trkpt lat="44.8884890" lon="8.9685090">
<ele>265.450317</ele>
<time>2017-07-18T08:40:16.000Z</time>
</trkpt>
<trkpt lat="44.8885800" lon="8.9684870">
<ele>263.530060</ele>
<time>2017-07-18T08:40:25.997Z</time>
</trkpt>
<trkpt lat="44.8886640" lon="8.9684980">
<ele>260.664978</ele>
<time>2017-07-18T08:40:36.002Z</time>
</trkpt>
<trkpt lat="44.8887560" lon="8.9685300">
<ele>259.689606</ele>
<time>2017-07-18T08:40:44.996Z</time>
</trkpt>
<trkpt lat="44.8888470" lon="8.9685620">
<ele>259.201935</ele>
<time>2017-07-18T08:40:53.999Z</time>
</trkpt>
<trkpt lat="44.8889390" lon="8.9685940">
<ele>257.769379</ele>
<time>2017-07-18T08:41:02.000Z</time>
</trkpt>
<trkpt lat="44.8890380" lon="8.9686050">
<ele>256.336792</ele>
<time>2017-07-18T08:41:11.996Z</time>
</trkpt>
<trkpt lat="44.8891290" lon="8.9686050">
<ele>255.849121</ele>
<time>2017-07-18T08:41:19.997Z</time>
</trkpt>
<trkpt lat="44.8892130" lon="8.9686260">
<ele>255.361435</ele>
<time>2017-07-18T08:41:29.000Z</time>
</trkpt>
<trkpt lat="44.8893120" lon="8.9686160">
<ele>254.873764</ele>
<time>2017-07-18T08:41:42.003Z</time>
</trkpt>
<trkpt lat="44.8894260" lon="8.9686150">
<ele>254.416565</ele>
<time>2017-07-18T08:41:50.997Z</time>
</trkpt>
<trkpt lat="44.8895180" lon="8.9686150">
<ele>253.928879</ele>
<time>2017-07-18T08:41:58.998Z</time>
</trkpt>
<trkpt lat="44.8896100" lon="8.9685900">
<ele>253.441193</ele>
<time>2017-07-18T08:42:06.998Z</time>
</trkpt>
<trkpt lat="44.8898380" lon="8.9686050">
<ele>252.496323</ele>
<time>2017-07-18T08:42:31.000Z</time>
</trkpt>
<trkpt lat="44.8898840" lon="8.9686150">
<ele>252.008636</ele>
<time>2017-07-18T08:46:53.000Z</time>
</trkpt>
<trkpt lat="44.8899200" lon="8.9687000">
<ele>252.496323</ele>
<time>2017-07-18T08:47:09.001Z</time>
</trkpt>
<trkpt lat="44.8899300" lon="8.9688200">
<ele>252.008636</ele>
<time>2017-07-18T08:48:01.999Z</time>
</trkpt>
<trkpt lat="44.8899400" lon="8.9689500">
<ele>250.545593</ele>
<time>2017-07-18T08:48:16.004Z</time>
</trkpt>
<trkpt lat="44.8899600" lon="8.9690700">
<ele>247.192795</ele>
<time>2017-07-18T08:48:27.003Z</time>
</trkpt>
<trkpt lat="44.8899900" lon="8.9692100">
<ele>244.297195</ele>
<time>2017-07-18T08:48:38.002Z</time>
</trkpt>
<trkpt lat="44.8900100" lon="8.9693400">
<ele>241.432068</ele>
<time>2017-07-18T08:48:50.996Z</time>
</trkpt>
<trkpt lat="44.8900300" lon="8.9694600">
<ele>238.536469</ele>
<time>2017-07-18T08:49:03.999Z</time>
</trkpt>
<trkpt lat="44.8900500" lon="8.9695900">
<ele>236.128571</ele>
<time>2017-07-18T08:49:16.000Z</time>
</trkpt>
<trkpt lat="44.8900900" lon="8.9697300">
<ele>234.208328</ele>
<time>2017-07-18T08:49:28.001Z</time>
</trkpt>
<trkpt lat="44.8901100" lon="8.9698400">
<ele>233.263443</ele>
<time>2017-07-18T08:49:40.996Z</time>
</trkpt>
<trkpt lat="44.8901200" lon="8.9698800">
<ele>231.343201</ele>
<time>2017-07-18T08:50:51.999Z</time>
</trkpt>
<trkpt lat="44.8902200" lon="8.9698800">
<ele>230.855530</ele>
<time>2017-07-18T08:51:04.000Z</time>
</trkpt>
<trkpt lat="44.8902600" lon="8.9699800">
<ele>229.422958</ele>
<time>2017-07-18T08:51:25.004Z</time>
</trkpt>
<trkpt lat="44.8903000" lon="8.9701000">
<ele>227.015030</ele>
<time>2017-07-18T08:51:36.003Z</time>
</trkpt>
<trkpt lat="44.8903300" lon="8.9702200">
<ele>224.119431</ele>
<time>2017-07-18T08:51:48.004Z</time>
</trkpt>
<trkpt lat="44.8903700" lon="8.9703400">
<ele>221.711533</ele>
<time>2017-07-18T08:52:04.999Z</time>
</trkpt>
<trkpt lat="44.8904000" lon="8.9704700">
<ele>219.303604</ele>
<time>2017-07-18T08:52:14.002Z</time>
</trkpt>
<trkpt lat="44.8904300" lon="8.9706000">
<ele>218.358734</ele>
<time>2017-07-18T08:52:22.996Z</time>
</trkpt>
<trkpt lat="44.8904600" lon="8.9707200">
<ele>215.950806</ele>
<time>2017-07-18T08:52:38.004Z</time>
</trkpt>
<trkpt lat="44.8904900" lon="8.9708500">
<ele>213.542877</ele>
<time>2017-07-18T08:52:57.996Z</time>
</trkpt>
<trkpt lat="44.8905100" lon="8.9709700">
<ele>210.677765</ele>
<time>2017-07-18T08:53:12.002Z</time>
</trkpt>
<trkpt lat="44.8905400" lon="8.9710900">
<ele>208.269836</ele>
<time>2017-07-18T08:53:24.996Z</time>
</trkpt>
<trkpt lat="44.8905600" lon="8.9712200">
<ele>206.349594</ele>
<time>2017-07-18T08:53:36.997Z</time>
</trkpt>
<trkpt lat="44.8905800" lon="8.9713400">
<ele>203.453995</ele>
<time>2017-07-18T08:53:50.001Z</time>
</trkpt>
<trkpt lat="44.8905900" lon="8.9714700">
<ele>201.046066</ele>
<time>2017-07-18T08:54:13.000Z</time>
</trkpt>
<trkpt lat="44.8906200" lon="8.9716000">
<ele>196.717926</ele>
<time>2017-07-18T08:54:25.001Z</time>
</trkpt>
<trkpt lat="44.8906500" lon="8.9717300">
<ele>193.852798</ele>
<time>2017-07-18T08:54:37.996Z</time>
</trkpt>
<trkpt lat="44.8906700" lon="8.9718600">
<ele>191.932556</ele>
<time>2017-07-18T08:54:50.999Z</time>
</trkpt>
<trkpt lat="44.8907000" lon="8.9719800">
<ele>189.524643</ele>
<time>2017-07-18T08:55:01.004Z</time>
</trkpt>
<trkpt lat="44.8907300" lon="8.9721100">
<ele>188.061600</ele>
<time>2017-07-18T08:55:12.003Z</time>
</trkpt>
<trkpt lat="44.8907700" lon="8.9722400">
<ele>185.196472</ele>
<time>2017-07-18T08:55:26.000Z</time>
</trkpt>
<trkpt lat="44.8908300" lon="8.9723400">
<ele>183.276230</ele>
<time>2017-07-18T08:55:36.998Z</time>
</trkpt>
<trkpt lat="44.8909100" lon="8.9724300">
<ele>180.380630</ele>
<time>2017-07-18T08:55:47.997Z</time>
</trkpt>
<trkpt lat="44.8909900" lon="8.9725000">
<ele>178.948074</ele>
<time>2017-07-18T08:55:58.002Z</time>
</trkpt>
<trkpt lat="44.8910700" lon="8.9725700">
<ele>177.027832</ele>
<time>2017-07-18T08:56:06.996Z</time>
</trkpt>
<trkpt lat="44.8910600" lon="8.9726600">
<ele>176.540161</ele>
<time>2017-07-18T08:56:17.002Z</time>
</trkpt>
<trkpt lat="44.8909700" lon="8.9726100">
<ele>177.027832</ele>
<time>2017-07-18T08:56:29.003Z</time>
</trkpt>
<trkpt lat="44.8908800" lon="8.9726500">
<ele>177.972733</ele>
<time>2017-07-18T08:56:45.997Z</time>
</trkpt>
<trkpt lat="44.8908200" lon="8.9727500">
<ele>178.460403</ele>
<time>2017-07-18T08:56:56.996Z</time>
</trkpt>
<trkpt lat="44.8907500" lon="8.9728400">
<ele>180.868332</ele>
<time>2017-07-18T08:57:08.004Z</time>
</trkpt>
<trkpt lat="44.8906800" lon="8.9729300">
<ele>182.300873</ele>
<time>2017-07-18T08:57:19.996Z</time>
</trkpt>
<trkpt lat="44.8906200" lon="8.9730300">
<ele>184.708801</ele>
<time>2017-07-18T08:57:39.004Z</time>
</trkpt>
<trkpt lat="44.8905500" lon="8.9731300">
<ele>186.629044</ele>
<time>2017-07-18T08:58:02.004Z</time>
</trkpt>
<trkpt lat="44.8904640" lon="8.9731820">
<ele>189.524643</ele>
<time>2017-07-18T08:58:14.998Z</time>
</trkpt>
<trkpt lat="44.8903730" lon="8.9732580">
<ele>192.389771</ele>
<time>2017-07-18T08:58:28.001Z</time>
</trkpt>
<trkpt lat="44.8902960" lon="8.9732580">
<ele>194.797668</ele>
<time>2017-07-18T08:58:40.996Z</time>
</trkpt>
<trkpt lat="44.8902200" lon="8.9732470">
<ele>196.717926</ele>
<time>2017-07-18T08:58:52.997Z</time>
</trkpt>
<trkpt lat="44.8901500" lon="8.9732300">
<ele>197.693268</ele>
<time>2017-07-18T08:59:11.003Z</time>
</trkpt>
<trkpt lat="44.8900600" lon="8.9732000">
<ele>200.558395</ele>
<time>2017-07-18T08:59:24.999Z</time>
</trkpt>
<trkpt lat="44.8899700" lon="8.9731600">
<ele>202.966324</ele>
<time>2017-07-18T08:59:38.003Z</time>
</trkpt>
<trkpt lat="44.8898800" lon="8.9731500">
<ele>204.429367</ele>
<time>2017-07-18T08:59:50.004Z</time>
</trkpt>
<trkpt lat="44.8897800" lon="8.9731400">
<ele>206.349594</ele>
<time>2017-07-18T09:00:01.996Z</time>
</trkpt>
<trkpt lat="44.8896800" lon="8.9731400">
<ele>208.757523</ele>
<time>2017-07-18T09:00:14.999Z</time>
</trkpt>
<trkpt lat="44.8896000" lon="8.9731300">
<ele>210.190079</ele>
<time>2017-07-18T09:00:28.002Z</time>
</trkpt>
<trkpt lat="44.8895340" lon="8.9731400">
<ele>211.622635</ele>
<time>2017-07-18T09:00:40.997Z</time>
</trkpt>
<trkpt lat="44.8894350" lon="8.9731510">
<ele>214.030563</ele>
<time>2017-07-18T09:00:54.000Z</time>
</trkpt>
<trkpt lat="44.8893290" lon="8.9731510">
<ele>215.950806</ele>
<time>2017-07-18T09:01:11.004Z</time>
</trkpt>
<trkpt lat="44.8892220" lon="8.9731940">
<ele>217.871033</ele>
<time>2017-07-18T09:01:23.998Z</time>
</trkpt>
<trkpt lat="44.8891460" lon="8.9732370">
<ele>220.278961</ele>
<time>2017-07-18T09:01:38.004Z</time>
</trkpt>
<trkpt lat="44.8890500" lon="8.9733100">
<ele>222.686874</ele>
<time>2017-07-18T09:01:53.996Z</time>
</trkpt>
<trkpt lat="44.8889700" lon="8.9734100">
<ele>224.607132</ele>
<time>2017-07-18T09:02:08.002Z</time>
</trkpt>
<trkpt lat="44.8888940" lon="8.9734620">
<ele>224.607132</ele>
<time>2017-07-18T09:02:20.003Z</time>
</trkpt>
<trkpt lat="44.8888030" lon="8.9735050">
<ele>225.552002</ele>
<time>2017-07-18T09:02:31.001Z</time>
</trkpt>
<trkpt lat="44.8887110" lon="8.9735580">
<ele>227.959930</ele>
<time>2017-07-18T09:02:43.996Z</time>
</trkpt>
<trkpt lat="44.8886350" lon="8.9735800">
<ele>229.422958</ele>
<time>2017-07-18T09:02:56.999Z</time>
</trkpt>
<trkpt lat="44.8885510" lon="8.9736010">
<ele>230.855530</ele>
<time>2017-07-18T09:03:23.999Z</time>
</trkpt>
<trkpt lat="44.8884400" lon="8.9736500">
<ele>232.775757</ele>
<time>2017-07-18T09:03:36.000Z</time>
</trkpt>
<trkpt lat="44.8883400" lon="8.9736900">
<ele>234.208328</ele>
<time>2017-07-18T09:03:48.001Z</time>
</trkpt>
<trkpt lat="44.8882400" lon="8.9737200">
<ele>235.671356</ele>
<time>2017-07-18T09:04:00.002Z</time>
</trkpt>
<trkpt lat="44.8881500" lon="8.9737400">
<ele>238.536469</ele>
<time>2017-07-18T09:04:16.997Z</time>
</trkpt>
<trkpt lat="44.8880400" lon="8.9737600">
<ele>241.432068</ele>
<time>2017-07-18T09:04:31.996Z</time>
</trkpt>
<trkpt lat="44.8879400" lon="8.9737700">
<ele>242.376968</ele>
<time>2017-07-18T09:04:47.004Z</time>
</trkpt>
<trkpt lat="44.8878100" lon="8.9737800">
<ele>244.297195</ele>
<time>2017-07-18T09:04:59.998Z</time>
</trkpt>
<trkpt lat="44.8876800" lon="8.9738000">
<ele>248.625366</ele>
<time>2017-07-18T09:05:20.000Z</time>
</trkpt>
<trkpt lat="44.8877000" lon="8.9737800">
<ele>248.625366</ele>
<time>2017-07-18T09:06:46.002Z</time>
</trkpt>
<trkpt lat="44.8876600" lon="8.9739300">
<ele>249.113037</ele>
<time>2017-07-18T09:08:18.001Z</time>
</trkpt>
<trkpt lat="44.8876100" lon="8.9740600">
<ele>247.192795</ele>
<time>2017-07-18T09:08:29.000Z</time>
</trkpt>
<trkpt lat="44.8875400" lon="8.9741500">
<ele>246.247925</ele>
<time>2017-07-18T09:08:39.998Z</time>
</trkpt>
<trkpt lat="44.8874700" lon="8.9742500">
<ele>245.760239</ele>
<time>2017-07-18T09:08:49.001Z</time>
</trkpt>
<trkpt lat="44.8874000" lon="8.9743400">
<ele>244.297195</ele>
<time>2017-07-18T09:08:58.004Z</time>
</trkpt>
<trkpt lat="44.8873300" lon="8.9744400">
<ele>243.839996</ele>
<time>2017-07-18T09:09:09.996Z</time>
</trkpt>
<trkpt lat="44.8872500" lon="8.9745100">
<ele>244.784866</ele>
<time>2017-07-18T09:09:18.999Z</time>
</trkpt>
<trkpt lat="44.8871870" lon="8.9745990">
<ele>244.784866</ele>
<time>2017-07-18T09:09:28.996Z</time>
</trkpt>
<trkpt lat="44.8871260" lon="8.9747280">
<ele>243.839996</ele>
<time>2017-07-18T09:09:40.997Z</time>
</trkpt>
<trkpt lat="44.8870880" lon="8.9748140">
<ele>242.376968</ele>
<time>2017-07-18T09:09:50.000Z</time>
</trkpt>
<trkpt lat="44.8870430" lon="8.9748990">
<ele>240.944397</ele>
<time>2017-07-18T09:09:59.003Z</time>
</trkpt>
<trkpt lat="44.8869820" lon="8.9750280">
<ele>239.999527</ele>
<time>2017-07-18T09:10:07.003Z</time>
</trkpt>
<trkpt lat="44.8869510" lon="8.9751460">
<ele>239.024170</ele>
<time>2017-07-18T09:10:15.997Z</time>
</trkpt>
<trkpt lat="44.8868900" lon="8.9752750">
<ele>237.103928</ele>
<time>2017-07-18T09:10:25.000Z</time>
</trkpt>
<trkpt lat="44.8868980" lon="8.9753820">
<ele>236.616241</ele>
<time>2017-07-18T09:10:35.999Z</time>
</trkpt>
<trkpt lat="44.8869440" lon="8.9754570">
<ele>235.671356</ele>
<time>2017-07-18T09:10:46.004Z</time>
</trkpt>
<trkpt lat="44.8869970" lon="8.9755000">
<ele>232.775757</ele>
<time>2017-07-18T09:10:57.996Z</time>
</trkpt>
<trkpt lat="44.8870500" lon="8.9755640">
<ele>231.800400</ele>
<time>2017-07-18T09:11:09.997Z</time>
</trkpt>
<trkpt lat="44.8870500" lon="8.9756400">
<ele>230.367844</ele>
<time>2017-07-18T09:11:21.998Z</time>
</trkpt>
<trkpt lat="44.8870600" lon="8.9757700">
<ele>227.502731</ele>
<time>2017-07-18T09:11:32.004Z</time>
</trkpt>
<trkpt lat="44.8870400" lon="8.9759100">
<ele>225.552002</ele>
<time>2017-07-18T09:11:42.000Z</time>
</trkpt>
<trkpt lat="44.8869600" lon="8.9759800">
<ele>225.552002</ele>
<time>2017-07-18T09:11:51.996Z</time>
</trkpt>
<trkpt lat="44.8868910" lon="8.9760900">
<ele>226.527359</ele>
<time>2017-07-18T09:12:10.002Z</time>
</trkpt>
<trkpt lat="44.8868750" lon="8.9761750">
<ele>224.119431</ele>
<time>2017-07-18T09:12:18.003Z</time>
</trkpt>
<trkpt lat="44.8867990" lon="8.9762930">
<ele>224.119431</ele>
<time>2017-07-18T09:12:26.997Z</time>
</trkpt>
<trkpt lat="44.8867910" lon="8.9763680">
<ele>223.174561</ele>
<time>2017-07-18T09:12:41.996Z</time>
</trkpt>
<trkpt lat="44.8867760" lon="8.9765290">
<ele>225.094803</ele>
<time>2017-07-18T09:12:57.004Z</time>
</trkpt>
<trkpt lat="44.8867610" lon="8.9766900">
<ele>223.174561</ele>
<time>2017-07-18T09:13:08.003Z</time>
</trkpt>
<trkpt lat="44.8867200" lon="8.9768500">
<ele>222.686874</ele>
<time>2017-07-18T09:13:17.999Z</time>
</trkpt>
<trkpt lat="44.8866800" lon="8.9769700">
<ele>221.254333</ele>
<time>2017-07-18T09:13:28.004Z</time>
</trkpt>
<trkpt lat="44.8866800" lon="8.9771000">
<ele>220.278961</ele>
<time>2017-07-18T09:13:38.001Z</time>
</trkpt>
<trkpt lat="44.8866600" lon="8.9772300">
<ele>218.846405</ele>
<time>2017-07-18T09:13:48.999Z</time>
</trkpt>
<trkpt lat="44.8866000" lon="8.9773400">
<ele>218.358734</ele>
<time>2017-07-18T09:13:58.002Z</time>
</trkpt>
<trkpt lat="44.8865200" lon="8.9774100">
<ele>217.383362</ele>
<time>2017-07-18T09:14:09.001Z</time>
</trkpt>
<trkpt lat="44.8864640" lon="8.9775050">
<ele>214.518234</ele>
<time>2017-07-18T09:14:21.002Z</time>
</trkpt>
<trkpt lat="44.8864030" lon="8.9775800">
<ele>213.542877</ele>
<time>2017-07-18T09:14:30.998Z</time>
</trkpt>
<trkpt lat="44.8863200" lon="8.9777000">
<ele>211.622635</ele>
<time>2017-07-18T09:14:41.997Z</time>
</trkpt>
<trkpt lat="44.8862700" lon="8.9778300">
<ele>211.134964</ele>
<time>2017-07-18T09:14:51.000Z</time>
</trkpt>
<trkpt lat="44.8862300" lon="8.9779500">
<ele>207.294479</ele>
<time>2017-07-18T09:15:01.999Z</time>
</trkpt>
<trkpt lat="44.8862100" lon="8.9780800">
<ele>205.374237</ele>
<time>2017-07-18T09:15:14.000Z</time>
</trkpt>
<trkpt lat="44.8862000" lon="8.9782000">
<ele>203.941666</ele>
<time>2017-07-18T09:15:23.003Z</time>
</trkpt>
<trkpt lat="44.8862700" lon="8.9782600">
<ele>201.533768</ele>
<time>2017-07-18T09:15:32.999Z</time>
</trkpt>
<trkpt lat="44.8863600" lon="8.9781900">
<ele>200.101196</ele>
<time>2017-07-18T09:15:43.004Z</time>
</trkpt>
<trkpt lat="44.8864600" lon="8.9781100">
<ele>198.180969</ele>
<time>2017-07-18T09:15:53.001Z</time>
</trkpt>
<trkpt lat="44.8865600" lon="8.9780300">
<ele>196.260727</ele>
<time>2017-07-18T09:16:02.997Z</time>
</trkpt>
<trkpt lat="44.8866500" lon="8.9779500">
<ele>194.309998</ele>
<time>2017-07-18T09:16:12.000Z</time>
</trkpt>
<trkpt lat="44.8867600" lon="8.9779000">
<ele>193.852798</ele>
<time>2017-07-18T09:16:20.001Z</time>
</trkpt>
<trkpt lat="44.8868200" lon="8.9779500">
<ele>193.365128</ele>
<time>2017-07-18T09:16:29.004Z</time>
</trkpt>
<trkpt lat="44.8867700" lon="8.9780800">
<ele>190.469528</ele>
<time>2017-07-18T09:16:40.996Z</time>
</trkpt>
<trkpt lat="44.8867400" lon="8.9782200">
<ele>187.604401</ele>
<time>2017-07-18T09:16:52.997Z</time>
</trkpt>
<trkpt lat="44.8867200" lon="8.9783500">
<ele>185.684158</ele>
<time>2017-07-18T09:17:02.000Z</time>
</trkpt>
<trkpt lat="44.8867100" lon="8.9784600">
<ele>184.221130</ele>
<time>2017-07-18T09:17:11.996Z</time>
</trkpt>
<trkpt lat="44.8866800" lon="8.9785900">
<ele>181.356003</ele>
<time>2017-07-18T09:17:22.001Z</time>
</trkpt>
<trkpt lat="44.8867000" lon="8.9786950">
<ele>178.948074</ele>
<time>2017-07-18T09:17:33.000Z</time>
</trkpt>
<trkpt lat="44.8867390" lon="8.9787810">
<ele>178.460403</ele>
<time>2017-07-18T09:17:42.003Z</time>
</trkpt>
<trkpt lat="44.8868070" lon="8.9788770">
<ele>177.972733</ele>
<time>2017-07-18T09:17:50.004Z</time>
</trkpt>
<trkpt lat="44.8868380" lon="8.9789520">
<ele>177.515533</ele>
<time>2017-07-18T09:17:58.004Z</time>
</trkpt>
<trkpt lat="44.8869060" lon="8.9790590">
<ele>177.515533</ele>
<time>2017-07-18T09:18:06.998Z</time>
</trkpt>
<trkpt lat="44.8869520" lon="8.9791340">
<ele>177.515533</ele>
<time>2017-07-18T09:18:16.001Z</time>
</trkpt>
<trkpt lat="44.8870280" lon="8.9792630">
<ele>177.515533</ele>
<time>2017-07-18T09:18:25.004Z</time>
</trkpt>
<trkpt lat="44.8870970" lon="8.9793380">
<ele>177.027832</ele>
<time>2017-07-18T09:18:32.996Z</time>
</trkpt>
<trkpt lat="44.8871350" lon="8.9794670">
<ele>177.515533</ele>
<time>2017-07-18T09:18:41.999Z</time>
</trkpt>
<trkpt lat="44.8872270" lon="8.9795850">
<ele>177.515533</ele>
<time>2017-07-18T09:18:51.002Z</time>
</trkpt>
<trkpt lat="44.8872800" lon="8.9796490">
<ele>177.515533</ele>
<time>2017-07-18T09:18:59.003Z</time>
</trkpt>
<trkpt lat="44.8873180" lon="8.9797130">
<ele>177.027832</ele>
<time>2017-07-18T09:19:07.003Z</time>
</trkpt>
<trkpt lat="44.8873870" lon="8.9798200">
<ele>177.027832</ele>
<time>2017-07-18T09:19:15.004Z</time>
</trkpt>
<trkpt lat="44.8874170" lon="8.9798950">
<ele>177.972733</ele>
<time>2017-07-18T09:19:57.996Z</time>
</trkpt>
<trkpt lat="44.8875090" lon="8.9799810">
<ele>177.972733</ele>
<time>2017-07-18T09:20:24.996Z</time>
</trkpt>
<trkpt lat="44.8875540" lon="8.9799170">
<ele>177.972733</ele>
<time>2017-07-18T09:21:18.003Z</time>
</trkpt>
<trkpt lat="44.8875920" lon="8.9798630">
<ele>177.972733</ele>
<time>2017-07-18T09:21:27.999Z</time>
</trkpt>
<trkpt lat="44.8876460" lon="8.9797670">
<ele>177.515533</ele>
<time>2017-07-18T09:21:36.000Z</time>
</trkpt>
<trkpt lat="44.8876990" lon="8.9796590">
<ele>177.972733</ele>
<time>2017-07-18T09:21:45.003Z</time>
</trkpt>
<trkpt lat="44.8877520" lon="8.9795520">
<ele>177.515533</ele>
<time>2017-07-18T09:21:53.997Z</time>
</trkpt>
<trkpt lat="44.8878130" lon="8.9794450">
<ele>177.515533</ele>
<time>2017-07-18T09:22:03.000Z</time>
</trkpt>
<trkpt lat="44.8877800" lon="8.9793100">
<ele>177.515533</ele>
<time>2017-07-18T09:22:28.998Z</time>
</trkpt>
<trkpt lat="44.8877290" lon="8.9792200">
<ele>175.564804</ele>
<time>2017-07-18T09:22:39.003Z</time>
</trkpt>
<trkpt lat="44.8876680" lon="8.9791020">
<ele>175.564804</ele>
<time>2017-07-18T09:22:51.997Z</time>
</trkpt>
</trkseg>
</trk>
</gpx>
